"gene_id","gene_name","n_targets","best_target","delta_corr","pseudotime_target","n_NORMAL","n_PRIMARY","n_MET","iso_up_id","iso_up_name","iso_down_id","iso_down_name","iso_up_corr","iso_down_corr"
"ENSG00000077157.22","PPP1R12B",134,"MTOR_UP.V1_DN",1.45685974066512,TRUE,0,10,1,"ENST00000608999.6","PPP1R12B-216","ENST00000391959.5","PPP1R12B-204",0.743025740895376,-0.71383399976974
"ENSG00000154370.16","TRIM11",131,"EIF4E_UP",1.62615563847059,FALSE,19,15,92,"ENST00000284551.11","TRIM11-201","ENST00000493030.6","TRIM11-204",0.827565954501072,-0.798589683969523
"ENSG00000075073.16","TACR2",126,"pseudotime",1.45179354090093,TRUE,6,53,0,"ENST00000373307.5","TACR2-202","ENST00000373306.5","TACR2-201",0.705352917081358,-0.746440623819571
"ENSG00000167395.10","ZNF646",108,"HALLMARK_KRAS_SIGNALING_DN",1.30957241465176,FALSE,23,0,0,"ENST00000300850.5","ZNF646-201","ENST00000394979.2","ZNF646-202",0.667283506984539,-0.642288907667223
"ENSG00000134318.15","ROCK2",98,"CYCLIN_D1_KE_.V1_UP",1.49670075035815,FALSE,0,8,81,"ENST00000315872.11","ROCK2-202","ENST00000401753.5","ROCK2-203",0.749037288993748,-0.747663461364405
"ENSG00000074603.19","DPP8",96,"CAMP_UP.V1_UP",1.44043895418816,FALSE,11,2,59,"ENST00000300141.11","DPP8-201","ENST00000341861.9","DPP8-203",0.72753667474133,-0.712902279446826
"ENSG00000113615.13","SEC24A",96,"CAMP_UP.V1_UP",1.36060681405327,FALSE,12,0,41,"ENST00000398844.7","SEC24A-202","ENST00000322887.8","SEC24A-201",0.701039642954202,-0.659567171099072
"ENSG00000146833.16","TRIM4",92,"ESC_V6.5_UP_LATE.V1_DN",1.35049351098826,FALSE,1,0,35,"ENST00000349062.7","TRIM4-201","ENST00000354241.5","TRIM4-202",0.689283139385402,-0.661210371602861
"ENSG00000056586.16","RC3H2",90,"SRC_UP.V1_UP",1.4369169669897,FALSE,0,0,70,"ENST00000357244.7","RC3H2-202","ENST00000423239.6","RC3H2-205",0.724660485244775,-0.71225648174493
"ENSG00000139725.8","RHOF",88,"IL2_UP.V1_UP",1.29141535870016,FALSE,0,0,53,"ENST00000267205.7","RHOF-201","ENST00000541657.5","RHOF-205",0.656196772348239,-0.635218586351917
"ENSG00000253305.3","PCDHGB6",88,"PID_PS1_PATHWAY",1.34253151408847,FALSE,23,27,0,"ENST00000520790.2","PCDHGB6-201","ENST00000616430.1","PCDHGB6-202",0.675803446152575,-0.666728067935892
"ENSG00000254122.3","PCDHGB7",84,"AKT_UP_MTOR_DN.V1_DN",1.29713236634624,FALSE,0,0,44,"ENST00000398594.4","PCDHGB7-201","ENST00000612073.1","PCDHGB7-202",0.638735300326567,-0.658397066019676
"ENSG00000149289.11","ZC3H12C",81,"CAMP_UP.V1_UP",1.42676059502623,FALSE,0,6,48,"ENST00000278590.8","ZC3H12C-201","ENST00000528673.5","ZC3H12C-203",0.72231402362875,-0.704446571397478
"ENSG00000051009.11","FHIP1B",80,"SIRNA_EIF4GI_UP",1.4341642850992,FALSE,17,0,0,"ENST00000449352.7","FHIP1B-202","ENST00000524416.1","FHIP1B-203",0.671646157969009,-0.762518127130186
"ENSG00000174579.4","MSL2",80,"SRC_UP.V1_UP",1.49389153185845,FALSE,0,6,79,"ENST00000309993.3","MSL2-201","ENST00000434835.2","MSL2-202",0.748753845407466,-0.745137686450986
"ENSG00000103005.12","USB1",77,"CAMP_UP.V1_UP",1.43633505230732,FALSE,0,0,62,"ENST00000219281.8","USB1-201","ENST00000561743.5","USB1-205",0.766540859350165,-0.669794192957153
"ENSG00000102804.15","TSC22D1",74,"HALLMARK_P53_PATHWAY",1.3578798097938,FALSE,0,0,34,"ENST00000261489.6","TSC22D1-201","ENST00000458659.3","TSC22D1-203",0.667786159122507,-0.69009365067129
"ENSG00000188199.11","NUTM2B",74,"EIF4E_UP",1.37707613267204,FALSE,0,0,33,"ENST00000429828.6","NUTM2B-202","ENST00000372321.6","NUTM2B-201",0.679766402736627,-0.697309729935415
"ENSG00000135722.9","FBXL8",68,"HALLMARK_ADIPOGENESIS",1.3427847093111,FALSE,4,6,18,"ENST00000258200.8","FBXL8-201","ENST00000518148.1","FBXL8-203",0.684568287571998,-0.658216421739104
"ENSG00000198728.11","LDB1",68,"SRC_UP.V1_UP",1.52001656046133,FALSE,0,4,64,"ENST00000673968.1","LDB1-204","ENST00000425280.2","LDB1-202",0.765396808332152,-0.754619752129181
"ENSG00000164603.12","BMT2",64,"CYCLIN_D1_KE_.V1_UP",1.43125323273907,FALSE,0,2,49,"ENST00000297145.9","BMT2-201","ENST00000432572.1","BMT2-202",0.705416374071264,-0.725836858667801
"ENSG00000213967.12","ZNF726",64,"EIF4E_UP",1.37061197308915,FALSE,0,0,34,"ENST00000531821.6","ZNF726-203","ENST00000594466.6","ZNF726-205",0.685607831447798,-0.685004141641349
"ENSG00000063245.15","EPN1",63,"EIF4E_UP",1.58204146621267,FALSE,12,12,54,"ENST00000085079.11","EPN1-201","ENST00000270460.11","EPN1-202",0.820468138716705,-0.761573327495961
"ENSG00000100036.13","SLC35E4",63,"CAMP_UP.V1_UP",1.4194029533423,FALSE,0,0,48,"ENST00000343605.5","SLC35E4-201","ENST00000406566.1","SLC35E4-202",0.740757678218771,-0.678645275123527
"ENSG00000105372.8","RPS19",63,"PID_PI3KCI_AKT_PATHWAY",1.34239665641104,TRUE,0,0,0,"ENST00000593863.5","RPS19-202","ENST00000221975.6","RPS19-201",0.608509079506676,-0.733887576904365
"ENSG00000150779.12","TIMM8B",62,"CYCLIN_D1_KE_.V1_UP",1.37972266639315,FALSE,0,0,53,"ENST00000504148.3","TIMM8B-201","ENST00000541231.1","TIMM8B-204",0.68904136048158,-0.690681305911569
"ENSG00000102934.10","PLLP",61,"HALLMARK_ESTROGEN_RESPONSE_LATE",1.32933972335738,FALSE,4,18,0,"ENST00000219207.10","PLLP-201","ENST00000613167.4","PLLP-205",0.63324805402779,-0.696091669329593
"ENSG00000112200.17","ZNF451",61,"CAMP_UP.V1_UP",1.36796667149908,FALSE,0,0,29,"ENST00000370706.9","ZNF451-203","ENST00000370708.8","ZNF451-204",0.740560087256537,-0.627406584242542
"ENSG00000167118.11","URM1",60,"EIF4E_UP",1.49785168740532,FALSE,14,5,53,"ENST00000372853.9","URM1-203","ENST00000372850.5","URM1-202",0.787190626583943,-0.710661060821377
"ENSG00000173905.9","GOLIM4",60,"SRC_UP.V1_UP",1.34860429292356,FALSE,3,4,46,"ENST00000470487.6","GOLIM4-202","ENST00000309027.4","GOLIM4-201",0.675100147426097,-0.67350414549746
"ENSG00000105576.16","TNPO2",59,"GCNP_SHH_UP_LATE.V1_DN",1.39477612018032,FALSE,0,2,35,"ENST00000356861.9","TNPO2-201","ENST00000425528.6","TNPO2-202",0.751472366289849,-0.643303753890469
"ENSG00000264343.7","NOTCH2NLA",59,"EIF4E_UP",1.55166081178708,FALSE,0,11,32,"ENST00000687833.1","NOTCH2NLA-206","ENST00000579793.6","NOTCH2NLA-203",0.775348242594985,-0.776312569192095
"ENSG00000090565.17","RAB11FIP3",58,"PID_ERBB2_ERBB3_PATHWAY",1.34793160170145,FALSE,0,20,1,"ENST00000434585.5","RAB11FIP3-203","ENST00000262305.9","RAB11FIP3-201",0.710481667940686,-0.637449933760768
"ENSG00000127483.19","HP1BP3",58,"JAK2_DN.V1_DN",1.47329754357449,FALSE,27,2,3,"ENST00000375003.6","HP1BP3-203","ENST00000312239.10","HP1BP3-201",0.724150749337884,-0.749146794236605
"ENSG00000167641.11","PPP1R14A",58,"pseudotime",1.44573524910923,TRUE,0,1,0,"ENST00000301242.9","PPP1R14A-201","ENST00000587515.5","PPP1R14A-203",0.679340372150576,-0.766394876958653
"ENSG00000079335.20","CDC14A",57,"CAMP_UP.V1_UP",1.40627691486025,FALSE,0,1,43,"ENST00000336454.5","CDC14A-201","ENST00000644813.1","CDC14A-208",0.752792928661163,-0.653483986199092
"ENSG00000091656.19","ZFHX4",57,"CAMP_UP.V1_UP",1.32136116677637,FALSE,0,0,41,"ENST00000651372.2","ZFHX4-214","ENST00000518282.5","ZFHX4-204",0.668629689745028,-0.652731477031344
"ENSG00000163795.14","ZNF513",57,"PID_P75_NTR_PATHWAY",1.23751179573301,FALSE,3,0,0,"ENST00000323703.11","ZNF513-201","ENST00000407879.1","ZNF513-202",0.619827016484318,-0.617684779248695
"ENSG00000152767.17","FARP1",56,"GCNP_SHH_UP_LATE.V1_DN",1.30931420375792,FALSE,0,0,12,"ENST00000595437.5","FARP1-214","ENST00000596580.2","FARP1-219",0.627306034147371,-0.682008169610546
"ENSG00000178188.15","SH2B1",56,"EIF4E_UP",1.41423700151878,FALSE,1,3,24,"ENST00000359285.9","SH2B1-203","ENST00000337120.9","SH2B1-202",0.736084314984176,-0.678152686534603
"ENSG00000143450.19","OAZ3",55,"HALLMARK_ADIPOGENESIS",1.42961388267773,FALSE,0,0,6,"ENST00000321531.10","OAZ3-201","ENST00000479764.7","OAZ3-204",0.660528872109578,-0.76908501056815
"ENSG00000087269.16","NOP14",54,"CYCLIN_D1_KE_.V1_UP",1.33673564465581,FALSE,0,0,40,"ENST00000416614.7","NOP14-203","ENST00000398071.4","NOP14-202",0.664554030610531,-0.672181614045284
"ENSG00000099385.12","BCL7C",53,"RB_P130_DN.V1_UP",1.47786209753905,FALSE,0,13,53,"ENST00000215115.5","BCL7C-201","ENST00000572628.5","BCL7C-203",0.762181919256011,-0.715680178283037
"ENSG00000144645.15","OSBPL10",51,"JAK2_DN.V1_DN",1.43030487265867,FALSE,30,15,9,"ENST00000429492.6","OSBPL10-203","ENST00000396556.7","OSBPL10-201",0.732932785023068,-0.697372087635599
"ENSG00000134245.18","WNT2B",50,"PID_PI3KCI_AKT_PATHWAY",1.20271572126634,TRUE,10,0,0,"ENST00000369684.5","WNT2B-202","ENST00000369686.9","WNT2B-203",0.607563194237026,-0.595152527029318
"ENSG00000241258.7","CRCP",49,"CAMP_UP.V1_UP",1.38819362215442,FALSE,0,4,41,"ENST00000395326.8","CRCP-203","ENST00000338592.5","CRCP-201",0.74199789729626,-0.646195724858165
"ENSG00000253731.3","PCDHGA6",49,"PID_MET_PATHWAY",1.17656945208855,FALSE,10,42,0,"ENST00000517434.3","PCDHGA6-201","ENST00000610583.1","PCDHGA6-202",0.588284726044275,-0.588284726044275
"ENSG00000056277.16","ZNF280C",48,"CAMP_UP.V1_UP",1.41887907635659,FALSE,0,0,39,"ENST00000370978.9","ZNF280C-201","ENST00000447817.1","ZNF280C-202",0.720301926816427,-0.698577149540161
"ENSG00000073803.14","MAP3K13",48,"CAMP_UP.V1_UP",1.46380372855776,FALSE,22,0,32,"ENST00000448876.5","MAP3K13-212","ENST00000265026.8","MAP3K13-201",0.746733988443021,-0.717069740114743
"ENSG00000144559.11","TAMM41",48,"CAMP_UP.V1_UP",1.42565966613522,FALSE,0,0,34,"ENST00000455809.6","TAMM41-206","ENST00000444133.6","TAMM41-205",0.680478648466362,-0.745181017668862
"ENSG00000176014.13","TUBB6",48,"PID_S1P_S1P1_PATHWAY",1.22460885600687,FALSE,20,48,0,"ENST00000317702.10","TUBB6-201","ENST00000591909.5","TUBB6-213",0.600921097021435,-0.623687758985438
"ENSG00000250644.3","ENSG00000250644",48,"EIF4E_UP",1.26017747369757,FALSE,9,11,15,"ENST00000636615.1","ENST00000636615","ENST00000636397.1","ENST00000636397",0.630522418501918,-0.629655055195652
"ENSG00000197020.12","ZNF100",47,"GCNP_SHH_UP_LATE.V1_DN",1.32183950415413,FALSE,0,4,37,"ENST00000358296.11","ZNF100-202","ENST00000305570.10","ZNF100-201",0.657336702381647,-0.664502801772479
"ENSG00000113595.15","TRIM23",45,"CYCLIN_D1_KE_.V1_UP",1.31349001844366,FALSE,0,0,39,"ENST00000231524.14","TRIM23-201","ENST00000274327.11","TRIM23-202",0.688156718822389,-0.625333299621274
"ENSG00000173039.20","RELA",45,"SIRNA_EIF4GI_UP",1.30504098559843,FALSE,1,0,21,"ENST00000406246.8","RELA-202","ENST00000612991.4","RELA-226",0.700580999596475,-0.604459986001952
"ENSG00000180263.14","FGD6",45,"CAMP_UP.V1_UP",1.38191296907003,FALSE,0,2,25,"ENST00000343958.9","FGD6-201","ENST00000549499.1","FGD6-205",0.692324284721887,-0.689588684348142
"ENSG00000100600.15","LGMN",44,"CAMP_UP.V1_UP",1.31414923372727,FALSE,0,0,24,"ENST00000334869.9","LGMN-201","ENST00000555699.5","LGMN-211",0.629465294208472,-0.684683939518798
"ENSG00000197982.14","C1orf122",44,"PDGF_ERK_DN.V1_DN",1.29724354332198,FALSE,0,0,16,"ENST00000468084.1","C1orf122-204","ENST00000373042.5","C1orf122-201",0.666136248723358,-0.631107294598622
"ENSG00000136279.21","DBNL",43,"SIRNA_EIF4GI_UP",1.34146132256061,FALSE,1,0,4,"ENST00000494774.5","DBNL-220","ENST00000432854.5","DBNL-204",0.737503181885479,-0.603958140675135
"ENSG00000125691.14","RPL23",42,"PID_P38_MKK3_6PATHWAY",1.32940486957997,FALSE,0,0,10,"ENST00000394332.5","RPL23-203","ENST00000245857.9","RPL23-201",0.680558423719721,-0.648846445860252
"ENSG00000152439.13","ZNF773",42,"EIF4E_UP",1.27290264841345,FALSE,0,0,23,"ENST00000282292.9","ZNF773-201","ENST00000599847.5","ZNF773-205",0.667960750520513,-0.604941897892934
"ENSG00000167969.13","ECI1",42,"SIRNA_EIF4GI_UP",1.35400292804324,FALSE,17,0,2,"ENST00000566379.1","ECI1-206","ENST00000301729.9","ECI1-201",0.646154149650276,-0.707848778392964
"ENSG00000127947.16","PTPN12",41,"CAMP_UP.V1_UP",1.35506668059543,FALSE,0,0,22,"ENST00000248594.11","PTPN12-201","ENST00000415482.6","PTPN12-203",0.64115261766858,-0.713914062926853
"ENSG00000156869.14","FRRS1",41,"SRC_UP.V1_UP",1.38249776212085,FALSE,2,1,41,"ENST00000646001.2","FRRS1-205","ENST00000287474.9","FRRS1-201",0.698866647593105,-0.683631114527744
"ENSG00000151131.11","NOPCHAP1",40,"EIF4E_UP",1.59118668414486,FALSE,2,9,31,"ENST00000622317.5","NOPCHAP1-205","ENST00000552951.7","NOPCHAP1-204",0.777388476498857,-0.813798207646004
"ENSG00000173548.9","SNX33",40,"EIF4E_UP",1.53754477774813,FALSE,7,11,35,"ENST00000569152.1","SNX33-202","ENST00000308527.6","SNX33-201",0.77805536299651,-0.759489414751625
"ENSG00000221926.13","TRIM16",40,"SRC_UP.V1_UP",1.43121524653146,FALSE,0,3,39,"ENST00000577886.5","TRIM16-211","ENST00000416464.6","TRIM16-202",0.679725747930412,-0.751489498601043
"ENSG00000113761.12","ZNF346",39,"EIF4E_UP",1.46259074087401,FALSE,1,6,31,"ENST00000511834.5","ZNF346-208","ENST00000358149.8","ZNF346-201",0.753594421550989,-0.708996319323024
"ENSG00000169957.10","ZNF768",39,"SRC_UP.V1_UP",1.22388487610944,FALSE,0,3,3,"ENST00000562803.1","ZNF768-202","ENST00000380412.7","ZNF768-201",0.611942438054718,-0.611942438054719
"ENSG00000198429.10","ZNF69",39,"EIF4E_UP",1.4916349317612,FALSE,0,11,33,"ENST00000340180.5","ZNF69-201","ENST00000429654.7","ZNF69-202",0.732287367846306,-0.75934756391489
"ENSG00000144791.10","LIMD1",38,"EIF4E_UP",1.39636377070515,FALSE,3,10,37,"ENST00000273317.5","LIMD1-201","ENST00000440097.5","LIMD1-202",0.700294323864815,-0.696069446840337
"ENSG00000151779.13","NBAS",38,"TBK1.DF_DN",1.40454183265523,FALSE,6,14,34,"ENST00000281513.10","NBAS-201","ENST00000417461.5","NBAS-202",0.706892966409579,-0.697648866245651
"ENSG00000188559.16","RALGAPA2",38,"EIF4E_UP",1.45264715976222,FALSE,2,10,36,"ENST00000430436.5","RALGAPA2-204","ENST00000202677.12","RALGAPA2-201",0.736918644183107,-0.715728515579116
"ENSG00000204389.10","HSPA1A",38,"PID_MTOR_4PATHWAY",1.30776100068625,FALSE,0,13,12,"ENST00000375651.7","HSPA1A-201","ENST00000608703.1","HSPA1A-202",0.653880500343125,-0.653880500343125
"ENSG00000253159.3","PCDHGA12",38,"CAMP_UP.V1_UP",1.21244228570358,FALSE,0,0,25,"ENST00000252085.4","PCDHGA12-201","ENST00000613314.1","PCDHGA12-202",0.589552112669336,-0.622890173034248
"ENSG00000075399.14","VPS9D1",37,"NOTCH_DN.V1_UP",1.20973677228915,FALSE,1,0,1,"ENST00000389386.8","VPS9D1-201","ENST00000561976.5","VPS9D1-202",0.606838297517767,-0.602898474771379
"ENSG00000165416.15","SUGT1",37,"HALLMARK_DNA_REPAIR",1.59551806967443,FALSE,1,12,36,"ENST00000343788.10","SUGT1-202","ENST00000310528.9","SUGT1-201",0.802245420661326,-0.793272649013109
"ENSG00000254221.3","PCDHGB1",37,"ESC_J1_UP_EARLY.V1_UP",1.22454461071412,FALSE,0,0,26,"ENST00000523390.2","PCDHGB1-201","ENST00000611598.1","PCDHGB1-202",0.593288385666919,-0.631256225047201
"ENSG00000203791.15","EEF1AKMT2",36,"CAMP_UP.V1_UP",1.36749392505627,FALSE,0,0,4,"ENST00000368836.7","EEF1AKMT2-201","ENST00000652548.1","EEF1AKMT2-207",0.620372768523994,-0.747121156532276
"ENSG00000103942.13","HOMER2",35,"EIF4E_UP",1.56629207045177,FALSE,12,14,35,"ENST00000450735.7","HOMER2-202","ENST00000558090.2","HOMER2-204",0.793197957920009,-0.773094112531761
"ENSG00000196396.10","PTPN1",35,"SRC_UP.V1_UP",1.44551913888199,FALSE,7,13,33,"ENST00000541713.5","PTPN1-202","ENST00000371621.5","PTPN1-201",0.722759569440995,-0.722759569440995
"ENSG00000198586.14","TLK1",35,"SRC_UP.V1_UP",1.50775860555575,FALSE,1,5,35,"ENST00000431350.7","TLK1-205","ENST00000521943.5","TLK1-212",0.770665112143533,-0.737093493412213
"ENSG00000162413.17","KLHL21",34,"JAK2_DN.V1_DN",1.35095292929778,FALSE,21,10,0,"ENST00000377663.3","KLHL21-202","ENST00000377658.8","KLHL21-201",0.689704999177406,-0.661247930120379
"ENSG00000116698.22","SMG7",33,"EIF4E_UP",1.32876617500363,FALSE,0,0,28,"ENST00000515829.6","SMG7-214","ENST00000347615.6","SMG7-201",0.635282027115482,-0.693484147888146
"ENSG00000121481.11","RNF2",33,"RAPA_EARLY_UP.V1_DN",1.18071658654793,FALSE,0,1,8,"ENST00000367510.8","RNF2-202","ENST00000367509.8","RNF2-201",0.585654264568591,-0.595062321979343
"ENSG00000138802.11","SEC24B",32,"SRC_UP.V1_UP",1.37729606978452,FALSE,5,9,31,"ENST00000265175.5","SEC24B-201","ENST00000399100.6","SEC24B-202",0.693936457348501,-0.683359612436021
"ENSG00000179958.10","DCTPP1",32,"PID_MTOR_4PATHWAY",1.29500405019734,FALSE,0,4,7,"ENST00000319285.5","DCTPP1-201","ENST00000567983.1","DCTPP1-203",0.641419676127044,-0.653584374070294
"ENSG00000104886.12","PLEKHJ1",31,"CAMP_UP.V1_UP",1.32912682016515,FALSE,0,0,28,"ENST00000326631.7","PLEKHJ1-201","ENST00000591099.6","PLEKHJ1-213",0.71635367819765,-0.612773141967504
"ENSG00000133997.12","MED6",31,"EIF4E_UP",1.51058025936198,FALSE,0,11,29,"ENST00000430055.6","MED6-202","ENST00000256379.10","MED6-201",0.785190566145485,-0.725389693216498
"ENSG00000163510.14","CWC22",31,"SRC_UP.V1_UP",1.40737349608303,FALSE,2,4,31,"ENST00000410053.8","CWC22-202","ENST00000404136.2","CWC22-201",0.678089294694057,-0.729284201388969
"ENSG00000163933.10","RFT1",31,"EIF4E_UP",1.50216870412199,FALSE,21,7,30,"ENST00000394738.7","RFT1-202","ENST00000296292.8","RFT1-201",0.784413050115026,-0.717755654006962
"ENSG00000166676.17","TVP23A",31,"MEL18_DN.V1_DN",1.24221102520807,FALSE,0,0,0,"ENST00000299866.13","TVP23A-201","ENST00000572102.5","TVP23A-204",0.572645521603154,-0.669565503604919
"ENSG00000183309.12","ZNF623",31,"CAMP_UP.V1_UP",1.32866331192951,FALSE,0,5,8,"ENST00000501748.3","ZNF623-202","ENST00000526926.6","ZNF623-203",0.62627328826803,-0.702390023661483
"ENSG00000196365.12","LONP1",31,"HALLMARK_ESTROGEN_RESPONSE_LATE",1.1982349263525,FALSE,0,0,0,"ENST00000585374.5","LONP1-203","ENST00000360614.8","LONP1-201",0.623026577690098,-0.575208348662405
"ENSG00000198265.12","HELZ",31,"CAMP_UP.V1_UP",1.31334351095092,FALSE,0,1,19,"ENST00000358691.10","HELZ-201","ENST00000580168.5","HELZ-207",0.705411857032236,-0.607931653918681
"ENSG00000025434.19","NR1H3",30,"SIRNA_EIF4GI_UP",1.3066911084311,FALSE,18,0,1,"ENST00000395397.7","NR1H3-201","ENST00000467728.5","NR1H3-217",0.605857099274811,-0.700834009156289
"ENSG00000174943.11","KCTD13",30,"EIF4E_UP",1.37266920075118,FALSE,0,0,8,"ENST00000568000.6","KCTD13-208","ENST00000561540.2","KCTD13-202",0.695811542344714,-0.676857658406469
"ENSG00000188994.13","ZNF292",30,"EIF4E_UP",1.34994150901675,FALSE,0,3,29,"ENST00000369577.8","ZNF292-202","ENST00000339907.8","ZNF292-201",0.689257958446882,-0.660683550569866
"ENSG00000196275.16","GTF2IRD2",30,"AKT_UP_MTOR_DN.V1_DN",1.24188182052859,FALSE,0,0,0,"ENST00000451013.7","GTF2IRD2-201","ENST00000651129.1","GTF2IRD2-207",0.637638157505189,-0.604243663023399
"ENSG00000270800.3","RPS10-NUDT3",30,"HALLMARK_UV_RESPONSE_UP",1.28045150483368,FALSE,0,0,30,"ENST00000639877.1","RPS10-NUDT3-204","ENST00000639725.1","RPS10-NUDT3-203",0.632270097219485,-0.648181407614194
"ENSG00000111912.20","NCOA7",29,"HALLMARK_P53_PATHWAY",1.21957709541486,FALSE,0,0,0,"ENST00000438495.6","NCOA7-208","ENST00000368357.7","NCOA7-202",0.543898534323275,-0.675678561091585
"ENSG00000140836.17","ZFHX3",29,"EIF4E_UP",1.29831099493531,FALSE,0,5,18,"ENST00000397992.5","ZFHX3-203","ENST00000268489.10","ZFHX3-201",0.646003713833603,-0.652307281101702
"ENSG00000162194.13","LBHD1",29,"EIF4E_UP",1.49278913956624,FALSE,13,17,18,"ENST00000354588.8","LBHD1-201","ENST00000431002.6","LBHD1-204",0.740121101636955,-0.752668037929289
"ENSG00000169246.16","NPIPB3",29,"EIF4E_UP",1.36505862570141,FALSE,0,10,29,"ENST00000542817.1","NPIPB3-210","ENST00000504841.6","NPIPB3-203",0.685609595019565,-0.67944903068185
"ENSG00000276547.2","PCDHGB5",29,"AKT_UP_MTOR_DN.V1_DN",1.2052079643165,FALSE,0,0,3,"ENST00000617380.2","PCDHGB5-201","ENST00000621169.1","PCDHGB5-202",0.585183786464997,-0.6200241778515
"ENSG00000100297.16","MCM5",28,"EIF4E_UP",1.42220743996142,FALSE,0,5,28,"ENST00000382011.9","MCM5-202","ENST00000216122.9","MCM5-201",0.800802622910708,-0.621404817050709
"ENSG00000147202.19","DIAPH2",28,"NRL_DN.V1_DN",1.16250000996306,FALSE,0,0,0,"ENST00000324765.13","DIAPH2-201","ENST00000373049.8","DIAPH2-202",0.582514215897436,-0.579985794065622
"ENSG00000197119.13","SLC25A29",28,"JAK2_DN.V1_DN",1.47935166183767,FALSE,20,1,4,"ENST00000554912.1","SLC25A29-208","ENST00000359232.8","SLC25A29-201",0.770550549542271,-0.708801112295397
"ENSG00000198242.14","RPL23A",28,"CYCLIN_D1_KE_.V1_UP",1.26464003157029,FALSE,0,0,12,"ENST00000394935.7","RPL23A-202","ENST00000355731.8","RPL23A-201",0.595128564044079,-0.669511467526206
"ENSG00000032219.19","ARID4A",27,"CAMP_UP.V1_UP",1.3732479890863,FALSE,0,0,17,"ENST00000355431.8","ARID4A-202","ENST00000395168.7","ARID4A-203",0.676194131355606,-0.697053857730697
"ENSG00000070047.13","PHRF1",27,"PID_ERBB2_ERBB3_PATHWAY",1.26095999144924,FALSE,0,1,0,"ENST00000533464.5","PHRF1-205","ENST00000264555.10","PHRF1-201",0.589269408105021,-0.67169058334422
"ENSG00000129159.9","KCNC1",27,"RAPA_EARLY_UP.V1_DN",1.17306797903232,FALSE,0,0,2,"ENST00000379472.4","KCNC1-202","ENST00000639495.1","KCNC1-209",0.577497003670301,-0.595570975362021
"ENSG00000143622.11","RIT1",27,"SRC_UP.V1_UP",1.31697974248163,FALSE,2,1,22,"ENST00000368323.8","RIT1-202","ENST00000651853.1","RIT1-209",0.604581713905799,-0.712398028575829
"ENSG00000166575.17","TMEM135",27,"EIF4E_UP",1.44211279406716,FALSE,22,6,18,"ENST00000340353.11","TMEM135-202","ENST00000305494.6","TMEM135-201",0.769793230422686,-0.672319563644471
"ENSG00000197841.15","ZNF181",27,"CAMP_UP.V1_UP",1.38481877067696,FALSE,0,0,24,"ENST00000392232.7","ZNF181-201","ENST00000492450.3","ZNF181-204",0.746936464643473,-0.637882306033485
"ENSG00000125843.11","AP5S1",26,"EIF4E_UP",1.46830391398087,FALSE,0,1,20,"ENST00000379567.6","AP5S1-202","ENST00000615891.2","AP5S1-205",0.634138499100488,-0.834165414880385
"ENSG00000127481.15","UBR4",26,"EIF4E_UP",1.45374315329601,FALSE,2,4,25,"ENST00000375224.1","UBR4-202","ENST00000375254.8","UBR4-204",0.702170487531796,-0.75157266576421
"ENSG00000138185.20","ENTPD1",26,"EIF4E_UP",1.44639296009118,FALSE,0,8,21,"ENST00000453258.6","ENTPD1-205","ENST00000371205.5","ENTPD1-201",0.741653778324887,-0.70473918176629
"ENSG00000168386.19","FILIP1L",26,"CYCLIN_D1_KE_.V1_UP",1.31216049758093,FALSE,0,0,25,"ENST00000383694.3","FILIP1L-203","ENST00000471562.1","FILIP1L-206",0.701312695370307,-0.610847802210619
"ENSG00000205476.9","CCDC85C",26,"JAK2_DN.V1_DN",1.44708472358346,FALSE,18,10,7,"ENST00000380243.9","CCDC85C-201","ENST00000557769.5","CCDC85C-207",0.720486819528247,-0.726597904055211
"ENSG00000121005.9","CRISPLD1",25,"SRC_UP.V1_UP",1.27520652859019,FALSE,0,2,24,"ENST00000262207.9","CRISPLD1-201","ENST00000523524.5","CRISPLD1-205",0.632280775429057,-0.642925753161135
"ENSG00000130770.18","ATP5IF1",25,"JAK2_DN.V1_DN",1.51401937141136,FALSE,20,4,12,"ENST00000465645.1","ATP5IF1-202","ENST00000335514.10","ATP5IF1-201",0.752243058217733,-0.761776313193625
"ENSG00000146674.16","IGFBP3",25,"SIRNA_EIF4GI_UP",1.21362837002969,FALSE,0,0,0,"ENST00000381086.9","IGFBP3-202","ENST00000613132.5","IGFBP3-209",0.618477484593185,-0.5951508854365
"ENSG00000166166.13","TRMT61A",25,"PID_MTOR_4PATHWAY",1.21358051457146,FALSE,0,1,7,"ENST00000389749.9","TRMT61A-202","ENST00000299202.4","TRMT61A-201",0.606790257285729,-0.606790257285729
"ENSG00000167258.15","CDK12",25,"EIF4E_UP",1.47308236440694,FALSE,0,5,20,"ENST00000447079.6","CDK12-202","ENST00000584632.5","CDK12-209",0.733940917790293,-0.739141446616645
"ENSG00000179943.8","FIZ1",25,"WNT_UP.V1_UP",1.20008884240692,FALSE,0,6,0,"ENST00000221665.5","FIZ1-201","ENST00000590714.1","FIZ1-204",0.580304585195374,-0.619784257211542
"ENSG00000227124.11","ZNF717",25,"EIF4E_UP",1.39552512316726,FALSE,0,0,7,"ENST00000477374.5","ZNF717-203","ENST00000652011.2","ZNF717-207",0.823583772082332,-0.571941351084926
"ENSG00000054611.14","TBC1D22A",24,"PID_P38_MKK3_6PATHWAY",1.30117285753653,FALSE,0,0,16,"ENST00000337137.9","TBC1D22A-201","ENST00000406733.1","TBC1D22A-205",0.663585356371655,-0.637587501164872
"ENSG00000107562.17","CXCL12",24,"pseudotime",1.25204441969793,TRUE,0,0,0,"ENST00000374429.6","CXCL12-203","ENST00000343575.11","CXCL12-201",0.620264910766287,-0.63177950893164
"ENSG00000116815.16","CD58",24,"EIF4E_UP",1.41150103671589,FALSE,12,10,13,"ENST00000369489.10","CD58-202","ENST00000457047.6","CD58-203",0.712697176929546,-0.698803859786342
"ENSG00000121578.13","B4GALT4",24,"JAK2_DN.V1_DN",1.39106709807298,FALSE,21,0,9,"ENST00000467604.5","B4GALT4-207","ENST00000393765.7","B4GALT4-202",0.82013720941434,-0.570929888658642
"ENSG00000148773.14","MKI67",24,"EIF4E_UP",1.28314187108364,FALSE,0,3,23,"ENST00000368653.7","MKI67-201","ENST00000368654.8","MKI67-202",0.638089899214168,-0.645051971869475
"ENSG00000160325.15","CACFD1",24,"PID_MTOR_4PATHWAY",1.24196465430341,FALSE,0,2,9,"ENST00000316948.9","CACFD1-202","ENST00000291722.11","CACFD1-201",0.626797353795256,-0.615167300508152
"ENSG00000163704.12","PRRT3",24,"GCNP_SHH_UP_LATE.V1_DN",1.24588948648667,FALSE,0,0,0,"ENST00000412055.6","PRRT3-203","ENST00000411976.2","PRRT3-202",0.557150494486669,-0.688738992000005
"ENSG00000181322.15","NME9",24,"HALLMARK_ESTROGEN_RESPONSE_LATE",1.15792002857631,FALSE,5,0,0,"ENST00000333911.9","NME9-202","ENST00000317876.8","NME9-201",0.589463147045813,-0.568456881530501
"ENSG00000196159.14","FAT4",24,"SRC_UP.V1_UP",1.26686768907415,FALSE,0,3,19,"ENST00000674496.2","FAT4-204","ENST00000394329.9","FAT4-202",0.635029619962638,-0.631838069111514
"ENSG00000262576.3","PCDHGA4",24,"AKT_UP_MTOR_DN.V1_DN",1.18925833869639,FALSE,0,0,1,"ENST00000571252.3","PCDHGA4-201","ENST00000612927.1","PCDHGA4-202",0.588383762828931,-0.600874575867458
"ENSG00000060491.17","OGFR",23,"JAK2_DN.V1_DN",1.60949792401319,FALSE,20,11,2,"ENST00000370461.5","OGFR-202","ENST00000290291.10","OGFR-201",0.80324624602397,-0.806251677989222
"ENSG00000100207.21","TCF20",23,"EIF4E_UP",1.27736151514833,FALSE,0,2,14,"ENST00000359486.8","TCF20-202","ENST00000335626.8","TCF20-201",0.652529708611282,-0.624831806537047
"ENSG00000100567.13","PSMA3",23,"CAMP_UP.V1_UP",1.2665588796803,FALSE,0,1,10,"ENST00000216455.9","PSMA3-201","ENST00000557508.5","PSMA3-213",0.701854725470406,-0.564704154209891
"ENSG00000105426.18","PTPRS",23,"EIF4E_UP",1.32484812374106,FALSE,0,0,10,"ENST00000262963.11","PTPRS-201","ENST00000588012.5","PTPRS-204",0.698698043836489,-0.626150079904572
"ENSG00000135801.10","TAF5L",23,"SRC_UP.V1_UP",1.26971011836528,FALSE,0,0,21,"ENST00000258281.6","TAF5L-201","ENST00000366675.3","TAF5L-203",0.629437780854565,-0.640272337510719
"ENSG00000168802.14","CHTF8",23,"PID_ERBB1_INTERNALIZATION_PATHWAY",1.33965995431761,FALSE,8,23,4,"ENST00000448552.7","CHTF8-202","ENST00000518041.5","CHTF8-203",0.673615306495692,-0.666044647821915
"ENSG00000139718.12","SETD1B",22,"CYCLIN_D1_KE_.V1_UP",1.18917210726681,FALSE,0,0,21,"ENST00000604567.6","SETD1B-202","ENST00000542440.5","SETD1B-201",0.587868922369121,-0.601303184897693
"ENSG00000008294.22","SPAG9",21,"SRC_UP.V1_UP",1.19722576193717,FALSE,0,1,7,"ENST00000262013.12","SPAG9-201","ENST00000357122.8","SPAG9-202",0.627455845964542,-0.569769915972623
"ENSG00000010244.19","ZNF207",21,"JAK2_DN.V1_DN",1.31695199870822,FALSE,19,1,2,"ENST00000394670.9","ZNF207-203","ENST00000321233.10","ZNF207-201",0.61509653038193,-0.701855468326292
"ENSG00000115464.15","USP34",21,"EIF4E_UP",1.39385650941407,FALSE,3,14,18,"ENST00000436269.1","USP34-203","ENST00000398571.7","USP34-201",0.69690931759773,-0.696947191816337
"ENSG00000162604.12","TM2D1",21,"JAK2_DN.V1_DN",1.4045854478431,FALSE,21,6,0,"ENST00000371177.2","TM2D1-202","ENST00000606498.5","TM2D1-212",0.699477716532518,-0.705107731310585
"ENSG00000167114.13","SLC27A4",21,"TBK1.DF_DN",1.45302631377002,FALSE,8,21,19,"ENST00000300456.5","SLC27A4-201","ENST00000372870.5","SLC27A4-202",0.726513156885011,-0.726513156885011
"ENSG00000260916.8","CCPG1",21,"RAPA_EARLY_UP.V1_DN",1.22139683389267,FALSE,0,0,0,"ENST00000442196.8","CCPG1-203","ENST00000569205.5","CCPG1-212",0.565963893095622,-0.65543294079705
"ENSG00000008083.14","JARID2",20,"SRC_UP.V1_UP",1.33650180431428,FALSE,3,12,18,"ENST00000397311.4","JARID2-202","ENST00000341776.7","JARID2-201",0.668093570048492,-0.668408234265784
"ENSG00000110330.10","BIRC2",20,"TBK1.DF_DN",1.43622838491173,FALSE,4,13,18,"ENST00000227758.7","BIRC2-201","ENST00000532672.5","BIRC2-208",0.74697425665301,-0.689254128258722
"ENSG00000116641.18","DOCK7",20,"EIF4E_UP",1.30975824985963,FALSE,0,2,17,"ENST00000637255.1","DOCK7-231","ENST00000635123.1","DOCK7-218",0.709806806305657,-0.599951443553977
"ENSG00000173457.11","PPP1R14B",20,"PDGF_ERK_DN.V1_DN",1.19374424150593,FALSE,4,0,16,"ENST00000309318.8","PPP1R14B-201","ENST00000392210.6","PPP1R14B-202",0.594751718085997,-0.59899252341993
"ENSG00000182831.12","C16orf72",20,"EIF4E_UP",1.31840914185632,FALSE,0,7,17,"ENST00000327827.12","C16orf72-201","ENST00000574285.2","C16orf72-202",0.65920457092816,-0.65920457092816
"ENSG00000197461.13","PDGFA",20,"CYCLIN_D1_KE_.V1_UP",1.26286652079987,FALSE,2,1,20,"ENST00000402802.7","PDGFA-203","ENST00000354513.9","PDGFA-201",0.635718601016144,-0.62714791978373
"ENSG00000100982.12","PCIF1",19,"PID_MET_PATHWAY",1.28940658830514,FALSE,2,18,0,"ENST00000372409.8","PCIF1-201","ENST00000479348.2","PCIF1-202",0.665104989417241,-0.624301598887895
"ENSG00000116584.21","ARHGEF2",19,"PID_MET_PATHWAY",1.26445275369087,FALSE,2,16,0,"ENST00000361247.9","ARHGEF2-203","ENST00000470541.6","ARHGEF2-207",0.608684454598922,-0.655768299091952
"ENSG00000146463.12","ZMYM4",19,"EIF4E_UP",1.33720991734867,FALSE,4,14,17,"ENST00000457946.1","ZMYM4-203","ENST00000314607.11","ZMYM4-201",0.678442322244902,-0.658767595103766
"ENSG00000150281.7","CTF1",19,"PID_P75_NTR_PATHWAY",1.13957961514576,FALSE,0,0,0,"ENST00000279804.3","CTF1-201","ENST00000395019.3","CTF1-202",0.583139059895402,-0.556440555250357
"ENSG00000106397.12","PLOD3",18,"TBK1.DF_DN",1.34510962324477,FALSE,12,18,9,"ENST00000223127.8","PLOD3-201","ENST00000454310.5","PLOD3-206",0.693743139392898,-0.651366483851876
"ENSG00000111640.15","GAPDH",18,"TBK1.DF_DN",1.50721864633701,FALSE,13,18,13,"ENST00000229239.10","GAPDH-201","ENST00000619601.1","GAPDH-211",0.752863389663075,-0.754355256673939
"ENSG00000116962.15","NID1",18,"PID_PS1_PATHWAY",1.22696074415484,FALSE,7,16,1,"ENST00000264187.7","NID1-201","ENST00000366595.7","NID1-202",0.620344864895212,-0.606615879259628
"ENSG00000039523.20","RIPOR1",17,"CAMP_UP.V1_UP",1.27215288728846,FALSE,0,0,2,"ENST00000042381.9","RIPOR1-201","ENST00000569253.5","RIPOR1-221",0.577312776636123,-0.694840110652337
"ENSG00000086015.23","MAST2",17,"SRC_UP.V1_UP",1.3081083929308,FALSE,5,10,11,"ENST00000674079.1","MAST2-210","ENST00000361297.7","MAST2-201",0.667271213115112,-0.640837179815691
"ENSG00000089248.7","ERP29",17,"PID_PI3KCI_AKT_PATHWAY",1.26681041937624,FALSE,3,5,4,"ENST00000261735.4","ERP29-201","ENST00000455836.1","ERP29-202",0.6481292961066,-0.618681123269639
"ENSG00000100003.18","SEC14L2",17,"STK33_DN",1.24914762704367,FALSE,2,0,0,"ENST00000617837.4","SEC14L2-215","ENST00000405717.7","SEC14L2-202",0.571960293619747,-0.677187333423922
"ENSG00000133028.12","SCO1",17,"EIF4E_UP",1.29870611067745,FALSE,5,6,9,"ENST00000577427.1","SCO1-203","ENST00000255390.10","SCO1-201",0.633488510450309,-0.665217600227141
"ENSG00000155256.18","ZFYVE27",17,"PID_ERBB1_DOWNSTREAM_PATHWAY",1.23448181085728,FALSE,8,8,0,"ENST00000359980.5","ZFYVE27-203","ENST00000370613.7","ZFYVE27-205",0.621809785047425,-0.612672025809856
"ENSG00000091527.17","CDV3",16,"TBK1.DF_DN",1.41514640916955,FALSE,2,12,12,"ENST00000420115.6","CDV3-202","ENST00000264993.8","CDV3-201",0.756882235240017,-0.658264173929537
"ENSG00000105552.15","BCAT2",16,"PID_MTOR_4PATHWAY",1.28292574533491,FALSE,1,9,1,"ENST00000316273.11","BCAT2-201","ENST00000545387.6","BCAT2-203",0.646274189231025,-0.636651556103885
"ENSG00000108375.13","RNF43",16,"TBK1.DF_DN",1.41065372007788,FALSE,5,12,14,"ENST00000584437.5","RNF43-208","ENST00000583753.5","RNF43-207",0.699665565748647,-0.710988154329236
"ENSG00000110013.13","SIAE",16,"HALLMARK_PEROXISOME",1.22135367008341,FALSE,14,0,2,"ENST00000545756.5","SIAE-205","ENST00000263593.8","SIAE-201",0.627755994539769,-0.593597675543642
"ENSG00000110651.12","CD81",16,"PID_ERBB1_DOWNSTREAM_PATHWAY",1.31455053877575,FALSE,9,11,0,"ENST00000526072.5","CD81-212","ENST00000263645.10","CD81-201",0.693861891148154,-0.620688647627597
"ENSG00000111196.10","MAGOHB",16,"EIF4E_UP",1.4044483235861,FALSE,0,7,16,"ENST00000539554.5","MAGOHB-204","ENST00000320756.7","MAGOHB-201",0.727556223935409,-0.676892099650693
"ENSG00000117153.16","KLHL12",16,"PID_ERBB1_INTERNALIZATION_PATHWAY",1.24221569827534,FALSE,8,16,0,"ENST00000367261.8","KLHL12-203","ENST00000367259.1","KLHL12-202",0.618707488172608,-0.623508210102735
"ENSG00000123200.17","ZC3H13",16,"CAMP_UP.V1_UP",1.34186731213246,FALSE,0,0,6,"ENST00000679008.1","ZC3H13-206","ENST00000282007.7","ZC3H13-202",0.600999790647687,-0.740867521484771
"ENSG00000139410.15","SDSL",16,"CAMP_UP.V1_UP",1.15976856753376,FALSE,0,0,14,"ENST00000403593.9","SDSL-202","ENST00000546672.1","SDSL-203",0.604487850322174,-0.555280717211585
"ENSG00000139631.20","CSAD",16,"PID_PI3KCI_AKT_PATHWAY",1.23801469834251,FALSE,0,0,2,"ENST00000379850.7","CSAD-203","ENST00000379846.5","CSAD-202",0.644861071360154,-0.59315362698236
"ENSG00000142459.9","EVI5L",16,"PID_S1P_S1P3_PATHWAY",1.20582866750885,FALSE,14,11,0,"ENST00000538904.7","EVI5L-202","ENST00000270530.8","EVI5L-201",0.636341012757558,-0.569487654751296
"ENSG00000163812.15","ZDHHC3",16,"JAK2_DN.V1_DN",1.49210440316548,FALSE,15,0,4,"ENST00000424952.7","ZDHHC3-205","ENST00000296127.7","ZDHHC3-201",0.791245769563952,-0.700858633601523
"ENSG00000166004.15","CEP295",16,"EIF4E_UP",1.40061944829476,FALSE,0,14,12,"ENST00000531700.5","CEP295-206","ENST00000325212.11","CEP295-201",0.725958027738716,-0.67466142055604
"ENSG00000176428.6","VPS37D",16,"PID_PS1_PATHWAY",1.16986240444004,FALSE,0,0,1,"ENST00000324941.5","VPS37D-201","ENST00000451519.1","VPS37D-202",0.600080132500234,-0.569782271939802
"ENSG00000179409.11","GEMIN4",16,"JAK2_DN.V1_DN",1.5648992103658,FALSE,15,9,6,"ENST00000576778.1","GEMIN4-207","ENST00000319004.6","GEMIN4-201",0.780722942811796,-0.784176267554004
"ENSG00000183255.12","PTTG1IP",16,"TBK1.DF_DN",1.29209630587244,FALSE,12,16,7,"ENST00000330938.8","PTTG1IP-201","ENST00000397887.7","PTTG1IP-203",0.646713911781519,-0.645382394090925
"ENSG00000242259.9","C22orf39",16,"PID_ERBB1_INTERNALIZATION_PATHWAY",1.23111530427781,FALSE,4,16,0,"ENST00000399562.9","C22orf39-201","ENST00000399568.5","C22orf39-202",0.585470180174248,-0.645645124103562
"ENSG00000038532.16","CLEC16A",15,"SRC_UP.V1_UP",1.42367526697998,FALSE,4,8,13,"ENST00000261657.5","CLEC16A-201","ENST00000409552.4","CLEC16A-202",0.680858254557754,-0.742817012422231
"ENSG00000089876.12","DHX32",15,"TBK1.DF_DN",1.43287862341721,FALSE,10,15,8,"ENST00000284690.4","DHX32-201","ENST00000368721.5","DHX32-202",0.72173877706157,-0.711139846355643
"ENSG00000104320.14","NBN",15,"CAMP_UP.V1_UP",1.16547899001516,FALSE,0,0,8,"ENST00000265433.8","NBN-201","ENST00000409330.5","NBN-203",0.596299967005937,-0.569179023009221
"ENSG00000108641.20","B9D1",15,"JAK2_DN.V1_DN",1.44518235456108,FALSE,13,0,2,"ENST00000663089.1","B9D1-220","ENST00000261499.11","B9D1-201",0.807912751629221,-0.637269602931861
"ENSG00000111674.9","ENO2",15,"PID_MTOR_4PATHWAY",1.29384312351275,FALSE,0,11,2,"ENST00000229277.6","ENO2-201","ENST00000545045.6","ENO2-214",0.666873341968795,-0.626969781543952
"ENSG00000117419.16","ERI3",15,"TBK1.DF_DN",1.44509406326791,FALSE,5,15,11,"ENST00000372257.7","ERI3-201","ENST00000456170.6","ERI3-204",0.716299764793892,-0.72879429847402
"ENSG00000130985.17","UBA1",15,"PID_ERBB1_DOWNSTREAM_PATHWAY",1.26312403807916,FALSE,11,12,0,"ENST00000335972.11","UBA1-201","ENST00000377269.3","UBA1-202",0.613560116452226,-0.64956392162693
"ENSG00000135624.17","CCT7",15,"PID_MET_PATHWAY",1.20776106018581,FALSE,3,15,0,"ENST00000258091.10","CCT7-201","ENST00000398422.2","CCT7-202",0.613794227761746,-0.593966832424062
"ENSG00000162777.17","DENND2D",15,"SIRNA_EIF4GI_UP",1.177267574433,FALSE,0,0,2,"ENST00000369752.5","DENND2D-202","ENST00000357640.9","DENND2D-201",0.620658692698236,-0.556608881734765
"ENSG00000165516.11","KLHDC2",15,"PID_P75_NTR_PATHWAY",1.26275333032599,FALSE,6,1,0,"ENST00000554589.5","KLHDC2-206","ENST00000298307.10","KLHDC2-201",0.671214969208158,-0.591538361117837
"ENSG00000172888.12","ZNF621",15,"BCAT_BILD_ET_AL_DN",1.4076320873991,FALSE,0,15,10,"ENST00000339296.10","ZNF621-202","ENST00000310898.5","ZNF621-201",0.707962172344928,-0.699669915054176
"ENSG00000184083.12","FAM120C",15,"PID_ECADHERIN_NASCENT_AJ_PATHWAY",1.19623904693378,FALSE,9,15,0,"ENST00000375180.7","FAM120C-202","ENST00000477084.1","FAM120C-203",0.596206303019741,-0.600032743914036
"ENSG00000197714.9","ZNF460",15,"CAMP_UP.V1_UP",1.1157266863398,FALSE,0,0,6,"ENST00000360338.4","ZNF460-201","ENST00000537645.5","ZNF460-202",0.571508128954759,-0.544218557385046
"ENSG00000204560.10","DHX16",15,"TBK1.DF_DN",1.32825203220728,FALSE,11,15,4,"ENST00000376442.8","DHX16-202","ENST00000376437.9","DHX16-201",0.667611269552381,-0.660640762654895
"ENSG00000015133.20","CCDC88C",14,"TBK1.DF_DN",1.39550396426729,FALSE,5,14,11,"ENST00000389857.11","CCDC88C-203","ENST00000556726.5","CCDC88C-210",0.69989585347799,-0.695608110789304
"ENSG00000033800.14","PIAS1",14,"PID_HDAC_CLASSII_PATHWAY",1.18831324228766,FALSE,0,0,0,"ENST00000249636.11","PIAS1-201","ENST00000545237.1","PIAS1-202",0.590023519388609,-0.598289722899047
"ENSG00000058668.15","ATP2B4",14,"BMI1_DN_MEL18_DN.V1_DN",1.17245771236864,FALSE,0,0,0,"ENST00000367218.7","ATP2B4-204","ENST00000357681.10","ATP2B4-203",0.577264064920911,-0.595193647447729
"ENSG00000096696.15","DSP",14,"SRC_UP.V1_UP",1.28754303231497,FALSE,3,12,11,"ENST00000418664.2","DSP-202","ENST00000379802.8","DSP-201",0.645855438794487,-0.641687593520481
"ENSG00000100889.12","PCK2",14,"PID_MTOR_4PATHWAY",1.2482683697552,FALSE,0,7,0,"ENST00000216780.9","PCK2-201","ENST00000561286.5","PCK2-216",0.66149897069855,-0.586769399056654
"ENSG00000104853.16","CLPTM1",14,"PID_P75_NTR_PATHWAY",1.15965209481703,FALSE,0,0,0,"ENST00000546079.5","CLPTM1-203","ENST00000337392.10","CLPTM1-201",0.612946607351748,-0.546705487465284
"ENSG00000118197.14","DDX59",14,"TBK1.DF_DN",1.42480991606794,FALSE,7,14,8,"ENST00000331314.11","DDX59-201","ENST00000429498.5","DDX59-203",0.725817313747049,-0.698992602320888
"ENSG00000119326.15","CTNNAL1",14,"TBK1.DF_DN",1.38710400671669,FALSE,9,14,7,"ENST00000325551.9","CTNNAL1-201","ENST00000374594.1","CTNNAL1-203",0.69399548448229,-0.693108522234405
"ENSG00000129680.16","MAP7D3",14,"SRC_UP.V1_UP",1.19671208249474,FALSE,0,0,14,"ENST00000316077.14","MAP7D3-201","ENST00000370660.3","MAP7D3-202",0.545768998848992,-0.650943083645753
"ENSG00000129682.16","FGF13",14,"CAMP_UP.V1_UP",1.35376482935065,FALSE,0,6,7,"ENST00000305414.8","FGF13-201","ENST00000315930.11","FGF13-202",0.709210971237612,-0.644553858113034
"ENSG00000156469.9","MTERF3",14,"PID_ERBB1_DOWNSTREAM_PATHWAY",1.27826145502498,FALSE,9,10,0,"ENST00000287025.4","MTERF3-201","ENST00000522822.5","MTERF3-203",0.655949688759866,-0.622311766265115
"ENSG00000179604.10","CDC42EP4",14,"PID_MTOR_4PATHWAY",1.21042161994428,FALSE,0,9,2,"ENST00000335793.4","CDC42EP4-201","ENST00000439510.2","CDC42EP4-202",0.619217768485486,-0.59120385145879
"ENSG00000182287.15","AP1S2",14,"PID_PTP1B_PATHWAY",1.19408970165971,FALSE,0,5,4,"ENST00000329235.6","AP1S2-201","ENST00000380291.5","AP1S2-202",0.634253051887603,-0.559836649772105
"ENSG00000189157.14","FAM47E",14,"JAK2_DN.V1_DN",1.45816925939117,FALSE,14,0,0,"ENST00000502320.2","FAM47E-202","ENST00000424749.7","FAM47E-201",0.813206392320532,-0.644962867070634
"ENSG00000198843.14","SELENOT",14,"SRC_UP.V1_UP",1.27345438715841,FALSE,0,2,5,"ENST00000471696.6","SELENOT-202","ENST00000480740.5","SELENOT-204",0.570923726594744,-0.702530660563663
"ENSG00000014257.16","ACP3",13,"AR_GSET",1.15779546233316,TRUE,1,0,0,"ENST00000336375.10","ACP3-201","ENST00000351273.11","ACP3-202",0.586252958399003,-0.571542503934162
"ENSG00000033100.17","CHPF2",13,"TBK1.DF_DN",1.42653218457271,FALSE,9,13,4,"ENST00000035307.7","CHPF2-201","ENST00000495645.5","CHPF2-204",0.710766049542751,-0.715766135029957
"ENSG00000083838.17","ZNF446",13,"EIF4E_UP",1.24323078514868,FALSE,0,0,2,"ENST00000594369.6","ZNF446-203","ENST00000596341.5","ZNF446-205",0.557500607133562,-0.685730178015113
"ENSG00000086200.17","IPO11",13,"TBK1.DF_DN",1.4762681689504,FALSE,7,13,9,"ENST00000325324.11","IPO11-201","ENST00000409534.1","IPO11-203",0.736761710034022,-0.739506458916379
"ENSG00000086758.16","HUWE1",13,"EIF4E_UP",1.39865806748762,FALSE,2,11,11,"ENST00000426907.5","HUWE1-204","ENST00000342160.7","HUWE1-203",0.704181353193737,-0.694476714293881
"ENSG00000100813.15","ACIN1",13,"TBK1.DF_DN",1.44566097109692,FALSE,5,13,9,"ENST00000605057.6","ACIN1-223","ENST00000338631.10","ACIN1-202",0.748930589295356,-0.696730381801559
"ENSG00000101335.10","MYL9",13,"TBK1.DF_DN",1.33233367475997,FALSE,5,9,13,"ENST00000279022.7","MYL9-201","ENST00000346786.2","MYL9-202",0.666166837379986,-0.666166837379986
"ENSG00000106526.11","ACTR3C",13,"EIF4E_UP",1.28850650524171,FALSE,0,0,1,"ENST00000683684.1","ACTR3C-207","ENST00000613959.1","ACTR3C-206",0.764845169897381,-0.523661335344329
"ENSG00000108389.10","MTMR4",13,"BCAT_BILD_ET_AL_DN",1.38054560998045,FALSE,0,13,8,"ENST00000323456.9","MTMR4-201","ENST00000579925.5","MTMR4-204",0.681088324004234,-0.699457285976221
"ENSG00000126016.17","AMOT",13,"EIF4E_UP",1.24634315448617,FALSE,1,10,11,"ENST00000304758.5","AMOT-201","ENST00000371959.9","AMOT-203",0.632895857458441,-0.613447297027725
"ENSG00000130305.17","NSUN5",13,"LTE2_UP.V1_UP",1.33782145220946,FALSE,13,0,0,"ENST00000310326.8","NSUN5-202","ENST00000252594.10","NSUN5-201",0.719897217757316,-0.617924234452147
"ENSG00000130733.11","YIPF2",13,"CAMP_UP.V1_UP",1.26515392698369,FALSE,0,0,5,"ENST00000586748.6","YIPF2-204","ENST00000586575.5","YIPF2-203",0.609235632406878,-0.655918294576814
"ENSG00000132952.12","USPL1",13,"TBK1.DF_DN",1.33902363907313,FALSE,0,13,11,"ENST00000255304.9","USPL1-201","ENST00000614860.1","USPL1-203",0.664483299471375,-0.674540339601754
"ENSG00000141446.11","ESCO1",13,"TBK1.DF_DN",1.41067915772965,FALSE,5,13,10,"ENST00000269214.10","ESCO1-201","ENST00000622333.1","ESCO1-204",0.741477980997722,-0.66920117673193
"ENSG00000157827.20","FMNL2",13,"EIF4E_UP",1.29459099194087,FALSE,1,11,11,"ENST00000475377.2","FMNL2-202","ENST00000288670.14","FMNL2-201",0.652367536747291,-0.642223455193578
"ENSG00000158109.15","TPRG1L",13,"TBK1.DF_DN",1.26794126345043,FALSE,6,13,9,"ENST00000378344.7","TPRG1L-202","ENST00000344579.5","TPRG1L-201",0.633970631725214,-0.633970631725214
"ENSG00000166900.17","STX3",13,"HALLMARK_PEROXISOME",1.15475239605226,FALSE,8,0,0,"ENST00000641815.1","STX3-208","ENST00000337979.9","STX3-201",0.575868527849839,-0.578883868202424
"ENSG00000184677.18","ZBTB40",13,"TBK1.DF_DN",1.41809028416653,FALSE,6,13,11,"ENST00000375647.5","ZBTB40-202","ENST00000374651.8","ZBTB40-201",0.705378565838853,-0.712711718327672
"ENSG00000239306.5","RBM14",13,"BCAT_BILD_ET_AL_DN",1.37494357194897,FALSE,1,13,11,"ENST00000310137.5","RBM14-201","ENST00000393979.3","RBM14-202",0.680574417569823,-0.694369154379151
"ENSG00000013288.9","MAN2B2",12,"LTE2_UP.V1_UP",1.30509448665696,FALSE,11,0,0,"ENST00000285599.8","MAN2B2-201","ENST00000505907.1","MAN2B2-204",0.636070223642828,-0.669024263014131
"ENSG00000047849.22","MAP4",12,"TBK1.DF_DN",1.43430498173001,FALSE,5,11,11,"ENST00000395734.7","MAP4-204","ENST00000429422.5","MAP4-208",0.688395921511176,-0.745909060218833
"ENSG00000092439.16","TRPM7",12,"TBK1.DF_DN",1.50875405898521,FALSE,7,11,11,"ENST00000560955.5","TRPM7-206","ENST00000646667.1","TRPM7-210",0.771387170112599,-0.737366888872609
"ENSG00000092853.14","CLSPN",12,"CYCLIN_D1_KE_.V1_UP",1.14082006406457,FALSE,0,0,12,"ENST00000318121.8","CLSPN-202","ENST00000520551.1","CLSPN-206",0.54220668147603,-0.598613382588541
"ENSG00000100106.22","TRIOBP",12,"TBK1.DF_DN",1.24523589476055,FALSE,7,12,2,"ENST00000403663.6","TRIOBP-203","ENST00000644935.1","TRIOBP-211",0.617946197544844,-0.627289697215705
"ENSG00000107021.16","TBC1D13",12,"PID_ERBB1_INTERNALIZATION_PATHWAY",1.2587872463905,FALSE,7,12,2,"ENST00000372648.10","TBC1D13-202","ENST00000223865.8","TBC1D13-201",0.629503347186366,-0.629283899204134
"ENSG00000110046.13","ATG2A",12,"TBK1.DF_DN",1.37323833548816,FALSE,4,12,8,"ENST00000377264.8","ATG2A-201","ENST00000421419.3","ATG2A-203",0.648199684625736,-0.725038650862421
"ENSG00000117595.12","IRF6",12,"TBK1.DF_DN",1.22389987653557,FALSE,1,12,3,"ENST00000367021.8","IRF6-201","ENST00000542854.5","IRF6-204",0.611196804669051,-0.612703071866519
"ENSG00000121931.16","LRIF1",12,"EIF4E_UP",1.31056948696614,FALSE,0,6,12,"ENST00000485275.2","LRIF1-202","ENST00000369763.5","LRIF1-201",0.658918090593149,-0.651651396372991
"ENSG00000125482.13","TTF1",12,"BCAT_BILD_ET_AL_DN",1.35220268887306,FALSE,0,10,11,"ENST00000334270.3","TTF1-201","ENST00000612514.4","TTF1-203",0.719451357368431,-0.632751331504631
"ENSG00000128951.14","DUT",12,"SIRNA_EIF4GI_UP",1.1776770708092,FALSE,8,0,0,"ENST00000331200.8","DUT-201","ENST00000455976.6","DUT-202",0.563374386827011,-0.614302683982192
"ENSG00000132749.11","TESMIN",12,"SIRNA_EIF4GI_UP",1.21349470945202,FALSE,6,0,1,"ENST00000255087.10","TESMIN-201","ENST00000443940.6","TESMIN-204",0.605112646364131,-0.608382063087886
"ENSG00000132970.14","WASF3",12,"CSR_EARLY_UP.V1_DN",1.10373402066902,FALSE,8,2,1,"ENST00000361042.8","WASF3-202","ENST00000335327.6","WASF3-201",0.557316433493206,-0.546417587175809
"ENSG00000141756.19","FKBP10",12,"TBK1.DF_DN",1.2493432393188,FALSE,3,12,2,"ENST00000321562.9","FKBP10-201","ENST00000455106.1","FKBP10-203",0.643764002462051,-0.605579236856754
"ENSG00000142949.17","PTPRF",12,"TBK1.DF_DN",1.30387791811956,FALSE,5,12,9,"ENST00000359947.9","PTPRF-201","ENST00000372407.4","PTPRF-203",0.65484720451474,-0.649030713604819
"ENSG00000149182.15","ARFGAP2",12,"HALLMARK_PROTEIN_SECRETION",1.33307690757475,FALSE,8,12,7,"ENST00000524782.6","ARFGAP2-205","ENST00000627920.2","ARFGAP2-229",0.675265753907717,-0.657811153667036
"ENSG00000157456.8","CCNB2",12,"HALLMARK_MYC_TARGETS_V1",1.28003494921168,FALSE,8,4,2,"ENST00000288207.7","CCNB2-201","ENST00000621385.1","CCNB2-205",0.651466578308635,-0.628568370903048
"ENSG00000160741.17","CRTC2",12,"TBK1.DF_DN",1.40269885870531,FALSE,7,12,7,"ENST00000368633.2","CRTC2-203","ENST00000368630.7","CRTC2-202",0.696281590858389,-0.70641726784692
"ENSG00000163141.20","BNIPL",12,"HALLMARK_ESTROGEN_RESPONSE_EARLY",1.14383973283499,FALSE,3,7,0,"ENST00000368931.8","BNIPL-203","ENST00000650563.1","BNIPL-207",0.578682259099093,-0.565157473735894
"ENSG00000163346.17","PBXIP1",12,"PID_PS1_PATHWAY",1.15581886207322,FALSE,6,10,0,"ENST00000368463.8","PBXIP1-202","ENST00000368465.5","PBXIP1-203",0.579184417182205,-0.57663444489102
"ENSG00000166311.10","SMPD1",12,"PID_SMAD2_3PATHWAY",1.26707101685869,FALSE,9,12,4,"ENST00000342245.9","SMPD1-201","ENST00000526280.1","SMPD1-202",0.631736915173913,-0.635334101684775
"ENSG00000167526.14","RPL13",12,"PID_P75_NTR_PATHWAY",1.20508579281763,FALSE,12,0,0,"ENST00000563270.5","RPL13-211","ENST00000567815.5","RPL13-214",0.580349377215093,-0.624736415602537
"ENSG00000175582.20","RAB6A",12,"PID_P38_MKK3_6PATHWAY",1.26398792026211,FALSE,0,0,5,"ENST00000310653.10","RAB6A-201","ENST00000541973.5","RAB6A-209",0.557842274038238,-0.706145646223876
"ENSG00000181666.19","ZNF875",12,"LTE2_UP.V1_UP",1.2247251295966,FALSE,7,0,0,"ENST00000392153.8","ZNF875-202","ENST00000541583.6","ZNF875-203",0.655778626176698,-0.568946503419907
"ENSG00000213593.10","TMX2",12,"TBK1.DF_DN",1.35820408112946,FALSE,1,12,7,"ENST00000278422.9","TMX2-201","ENST00000378312.8","TMX2-202",0.694805118632852,-0.663398962496605
"ENSG00000240065.8","PSMB9",12,"PID_PS1_PATHWAY",1.22380564312681,FALSE,0,0,0,"ENST00000374859.3","PSMB9-207","ENST00000395330.5","PSMB9-208",0.628847468117815,-0.594958175008993
"ENSG00000262919.8","CCNQ",12,"BCAT_BILD_ET_AL_UP",1.08730201501622,FALSE,0,0,0,"ENST00000440428.5","CCNQ-202","ENST00000576892.8","CCNQ-204",0.534987527887184,-0.552314487129031
"ENSG00000089094.20","KDM2B",11,"PID_PS1_PATHWAY",1.18908977128148,FALSE,0,0,0,"ENST00000377071.9","KDM2B-202","ENST00000611216.4","KDM2B-218",0.601640388603832,-0.587449382677649
"ENSG00000095139.15","ARCN1",11,"TBK1.DF_DN",1.34227283995791,FALSE,4,11,6,"ENST00000264028.5","ARCN1-201","ENST00000534182.2","ARCN1-204",0.653694114205194,-0.688578725752719
"ENSG00000110429.14","FBXO3",11,"STK33_DN",1.29911868513143,FALSE,10,0,0,"ENST00000265651.8","FBXO3-201","ENST00000530401.5","FBXO3-208",0.717377737552802,-0.581740947578624
"ENSG00000115970.19","THADA",11,"EIF4E_UP",1.321666916712,FALSE,7,11,7,"ENST00000407351.5","THADA-208","ENST00000405975.7","THADA-207",0.774608169747797,-0.547058746964206
"ENSG00000121413.13","ZSCAN18",11,"PID_PS1_PATHWAY",1.27614177970104,FALSE,0,10,0,"ENST00000601144.6","ZSCAN18-217","ENST00000433686.6","ZSCAN18-203",0.70463318396836,-0.571508595732682
"ENSG00000124786.12","SLC35B3",11,"HALLMARK_ADIPOGENESIS",1.16182873588039,FALSE,0,0,5,"ENST00000648987.1","SLC35B3-204","ENST00000644923.2","SLC35B3-202",0.59456859782927,-0.56726013805112
"ENSG00000132305.22","IMMT",11,"TBK1.DF_DN",1.43447645837212,FALSE,5,9,10,"ENST00000449247.6","IMMT-207","ENST00000419070.6","IMMT-205",0.687759301235673,-0.74671715713645
"ENSG00000137942.18","FNBP1L",11,"TBK1.DF_DN",1.32902072774789,FALSE,1,11,6,"ENST00000260506.12","FNBP1L-201","ENST00000370253.6","FNBP1L-203",0.674006684162788,-0.655014043585105
"ENSG00000141985.9","SH3GL1",11,"PID_PS1_PATHWAY",1.19150021280585,FALSE,0,10,0,"ENST00000269886.7","SH3GL1-201","ENST00000598564.5","SH3GL1-206",0.607698690788231,-0.583801522017617
"ENSG00000148840.11","PPRC1",11,"EIF4E_UP",1.32245185673751,FALSE,0,10,10,"ENST00000370012.1","PPRC1-202","ENST00000278070.7","PPRC1-201",0.669512192220065,-0.652939664517445
"ENSG00000149262.17","INTS4",11,"TBK1.DF_DN",1.36921928082416,FALSE,8,11,4,"ENST00000534064.6","INTS4-209","ENST00000535943.1","INTS4-211",0.657545647903821,-0.711673632920343
"ENSG00000161011.20","SQSTM1",11,"HALLMARK_PROTEIN_SECRETION",1.37610423456207,FALSE,9,8,1,"ENST00000360718.5","SQSTM1-201","ENST00000389805.9","SQSTM1-202",0.684440914155164,-0.69166332040691
"ENSG00000162069.16","BICDL2",11,"JAK2_DN.V1_DN",1.39509989873771,FALSE,6,1,0,"ENST00000573514.5","BICDL2-204","ENST00000389347.4","BICDL2-201",0.686373352035768,-0.708726546701941
"ENSG00000197043.14","ANXA6",11,"SIRNA_EIF4GI_UP",1.1173861624553,FALSE,0,2,0,"ENST00000523714.5","ANXA6-215","ENST00000354546.10","ANXA6-201",0.528831948949385,-0.588554213505911
"ENSG00000197601.13","FAR1",11,"JAK2_DN.V1_DN",1.66599535788979,FALSE,10,5,2,"ENST00000532502.1","FAR1-204","ENST00000354817.8","FAR1-201",0.809257588164283,-0.856737769725502
"ENSG00000235453.12","SMIM27",11,"EIF4E_UP",1.35771085174738,FALSE,0,2,2,"ENST00000692500.1","SMIM27-207","ENST00000451672.2","SMIM27-203",0.645049421851766,-0.71266142989561
"ENSG00000006607.14","FARP2",10,"BCAT_BILD_ET_AL_UP",1.27438612083849,FALSE,0,0,1,"ENST00000264042.8","FARP2-201","ENST00000413432.2","FARP2-204",0.662197743146082,-0.61218837769241
"ENSG00000007384.15","RHBDF1",10,"PID_PS1_PATHWAY",1.15204176295311,FALSE,0,10,0,"ENST00000262316.10","RHBDF1-201","ENST00000448893.1","RHBDF1-205",0.559228072614237,-0.592813690338875
"ENSG00000083223.18","TUT7",10,"TBK1.DF_DN",1.32720763724913,FALSE,3,10,7,"ENST00000375963.8","TUT7-206","ENST00000375957.5","TUT7-204",0.701116093699524,-0.626091543549605
"ENSG00000100393.14","EP300",10,"EIF4E_UP",1.31146126019151,FALSE,0,7,9,"ENST00000674155.1","EP300-212","ENST00000263253.9","EP300-201",0.670476803690644,-0.640984456500866
"ENSG00000104812.15","GYS1",10,"PID_ERBB1_INTERNALIZATION_PATHWAY",1.19745091230596,FALSE,5,10,0,"ENST00000323798.8","GYS1-202","ENST00000263276.6","GYS1-201",0.601267973479715,-0.596182938826248
"ENSG00000105568.18","PPP2R1A",10,"PID_SMAD2_3PATHWAY",1.22648424068694,FALSE,0,10,3,"ENST00000462990.5","PPP2R1A-205","ENST00000391791.4","PPP2R1A-202",0.544766281335471,-0.681717959351467
"ENSG00000105722.10","ERF",10,"PID_ERBB4_PATHWAY",1.12753265639763,FALSE,0,9,0,"ENST00000440177.6","ERF-202","ENST00000222329.9","ERF-201",0.56331450127667,-0.564218155120958
"ENSG00000115339.14","GALNT3",10,"SRC_UP.V1_UP",1.2313337820958,FALSE,1,5,8,"ENST00000409882.5","GALNT3-202","ENST00000392701.8","GALNT3-201",0.611330862397839,-0.620002919697962
"ENSG00000117410.14","ATP6V0B",10,"PID_PS1_PATHWAY",1.24187659094665,FALSE,1,4,1,"ENST00000472174.7","ATP6V0B-205","ENST00000498664.1","ATP6V0B-211",0.600945720982956,-0.640930869963694
"ENSG00000117877.11","POLR1G",10,"BCAT_BILD_ET_AL_DN",1.16346445893036,FALSE,3,8,1,"ENST00000589804.1","POLR1G-202","ENST00000309424.8","POLR1G-201",0.585929924865035,-0.577534534065328
"ENSG00000125871.14","MGME1",10,"TBK1.DF_DN",1.21151411143895,FALSE,0,10,3,"ENST00000377710.10","MGME1-203","ENST00000377704.4","MGME1-201",0.629415312933717,-0.582098798505233
"ENSG00000132842.14","AP3B1",10,"TBK1.DF_DN",1.29903928052074,FALSE,6,10,3,"ENST00000255194.11","AP3B1-201","ENST00000522901.1","AP3B1-207",0.6498361374476,-0.649203143073141
"ENSG00000135111.16","TBX3",10,"PID_ERBB1_INTERNALIZATION_PATHWAY",1.21048235441479,FALSE,5,10,1,"ENST00000349155.7","TBX3-202","ENST00000257566.7","TBX3-201",0.612747292971376,-0.597735061443417
"ENSG00000136205.17","TNS3",10,"PID_ERBB1_RECEPTOR_PROXIMAL_PATHWAY",1.16449332274734,FALSE,6,10,1,"ENST00000311160.14","TNS3-201","ENST00000428457.1","TNS3-204",0.597853977231452,-0.566639345515885
"ENSG00000139116.19","KIF21A",10,"SRC_UP.V1_UP",1.29786354041417,FALSE,0,4,10,"ENST00000551264.5","KIF21A-210","ENST00000544797.6","KIF21A-204",0.617127139590248,-0.680736400823926
"ENSG00000139977.14","NAA30",10,"EIF4E_UP",1.14923723775832,FALSE,0,2,0,"ENST00000298406.6","NAA30-201","ENST00000556492.6","NAA30-204",0.589125503315173,-0.560111734443142
"ENSG00000145041.16","DCAF1",10,"TBK1.DF_DN",1.31733355411034,FALSE,4,10,7,"ENST00000684031.1","DCAF1-204","ENST00000335891.5","DCAF1-201",0.65924744836621,-0.658086105744134
"ENSG00000156931.16","VPS8",10,"BCAT_BILD_ET_AL_DN",1.27251631983263,FALSE,0,10,4,"ENST00000436792.6","VPS8-207","ENST00000446204.6","VPS8-210",0.56799405625653,-0.704522263576096
"ENSG00000162390.18","ACOT11",10,"RB_DN.V1_UP",1.24986328630528,FALSE,7,0,4,"ENST00000343744.7","ACOT11-201","ENST00000371316.3","ACOT11-202",0.588593375550327,-0.661269910754951
"ENSG00000163468.15","CCT3",10,"BCAT_BILD_ET_AL_DN",1.34842711291491,FALSE,0,10,9,"ENST00000295688.8","CCT3-201","ENST00000368259.6","CCT3-204",0.664050560165854,-0.684376552749059
"ENSG00000166025.18","AMOTL1",10,"TBK1.DF_DN",1.28338583028335,FALSE,2,10,8,"ENST00000433060.3","AMOTL1-203","ENST00000317829.12","AMOTL1-202",0.646563204378049,-0.6368226259053
"ENSG00000167380.17","ZNF226",10,"JAK2_DN.V1_DN",1.53775312896236,FALSE,10,2,3,"ENST00000588883.5","ZNF226-213","ENST00000300823.10","ZNF226-201",0.834468048741737,-0.703285080220618
"ENSG00000168300.14","PCMTD1",10,"TBK1.DF_DN",1.3062955312143,FALSE,6,10,1,"ENST00000522514.6","PCMTD1-207","ENST00000544451.2","PCMTD1-208",0.628685959181143,-0.677609572033158
"ENSG00000172534.14","HCFC1",10,"SRC_UP.V1_UP",1.29923183713675,FALSE,1,7,8,"ENST00000444191.5","HCFC1-203","ENST00000369984.4","HCFC1-202",0.637128627863805,-0.662103209272943
"ENSG00000175166.17","PSMD2",10,"TBK1.DF_DN",1.23280384647078,FALSE,7,10,3,"ENST00000310118.9","PSMD2-201","ENST00000439383.5","PSMD2-206",0.629404485113865,-0.603399361356916
"ENSG00000175662.18","TOM1L2",10,"TBK1.DF_DN",1.34267021836041,FALSE,7,10,7,"ENST00000379504.8","TOM1L2-202","ENST00000581396.5","TOM1L2-214",0.659757243223633,-0.682912975136774
"ENSG00000183891.6","TTC32",10,"EIF4E_UP",1.32161261062048,FALSE,0,2,4,"ENST00000333610.4","TTC32-201","ENST00000431392.1","TTC32-203",0.646405858684938,-0.675206751935541
"ENSG00000184863.11","RBM33",10,"TBK1.DF_DN",1.24030600851106,FALSE,7,10,1,"ENST00000401878.8","RBM33-207","ENST00000341148.7","RBM33-203",0.593313706451029,-0.646992302060028
"ENSG00000196419.13","XRCC6",10,"BCAT_BILD_ET_AL_DN",1.29626605233717,FALSE,0,10,5,"ENST00000360079.8","XRCC6-202","ENST00000405506.2","XRCC6-204",0.68086750220151,-0.615398550135657
"ENSG00000196757.8","ZNF700",10,"JAK2_DN.V1_DN",1.36005460013364,FALSE,10,0,4,"ENST00000482090.1","ZNF700-202","ENST00000254321.10","ZNF700-201",0.731256031053872,-0.628798569079768
"ENSG00000198408.14","OGA",10,"TBK1.DF_DN",1.28784478984801,FALSE,6,10,4,"ENST00000361464.8","OGA-202","ENST00000439817.5","OGA-205",0.656257506728867,-0.631587283119141
"ENSG00000204444.11","APOM",10,"JAK2_DN.V1_DN",1.14771631571125,FALSE,7,0,0,"ENST00000375918.6","APOM-202","ENST00000375920.8","APOM-203",0.568593245620208,-0.579123070091042
"ENSG00000011028.14","MRC2",9,"TBK1.DF_DN",1.15797461808602,FALSE,3,9,0,"ENST00000303375.10","MRC2-201","ENST00000446119.2","MRC2-202",0.643464438139278,-0.514510179946744
"ENSG00000048707.15","VPS13D",9,"EIF4E_UP",1.38036747923983,FALSE,1,6,7,"ENST00000543766.2","VPS13D-212","ENST00000613099.4","VPS13D-213",0.632047894611336,-0.74831958462849
"ENSG00000054793.14","ATP9A",9,"TBK1.DF_DN",1.26665377132063,FALSE,2,9,7,"ENST00000338821.6","ATP9A-202","ENST00000311637.9","ATP9A-201",0.638274521898778,-0.628379249421849
"ENSG00000081803.17","CADPS2",9,"TBK1.DF_DN",1.27396101028959,FALSE,2,9,6,"ENST00000412584.6","CADPS2-203","ENST00000462699.5","CADPS2-205",0.650354570182775,-0.623606440106813
"ENSG00000083812.13","ZNF324",9,"EIF4E_UP",1.27407094578833,FALSE,0,3,5,"ENST00000593925.1","ZNF324-203","ENST00000196482.4","ZNF324-201",0.676265545226299,-0.597805400562026
"ENSG00000087152.16","ATXN7L3",9,"BCAT_BILD_ET_AL_DN",1.31403995296374,FALSE,0,9,7,"ENST00000389384.8","ATXN7L3-201","ENST00000591295.5","ATXN7L3-210",0.626484426203967,-0.687555526759776
"ENSG00000099991.18","CABIN1",9,"TBK1.DF_DN",1.47746992366854,FALSE,3,9,8,"ENST00000263119.10","CABIN1-201","ENST00000337989.11","CABIN1-202",0.691206562543666,-0.786263361124878
"ENSG00000100603.14","SNW1",9,"TBK1.DF_DN",1.30494109062565,FALSE,5,9,6,"ENST00000261531.12","SNW1-201","ENST00000554775.5","SNW1-204",0.651378076997618,-0.653563013628034
"ENSG00000101019.22","UQCC1",9,"STK33_DN",1.2002716830606,FALSE,9,0,0,"ENST00000374385.10","UQCC1-205","ENST00000397554.5","UQCC1-208",0.606121188831364,-0.594150494229238
"ENSG00000105185.12","PDCD5",9,"JAK2_DN.V1_DN",1.36869586276077,FALSE,9,0,0,"ENST00000419343.7","PDCD5-203","ENST00000590247.7","PDCD5-207",0.751497734244588,-0.617198128516183
"ENSG00000105321.14","CCDC9",9,"PID_PI3KCI_AKT_PATHWAY",1.1823485888928,FALSE,0,0,0,"ENST00000643617.1","CCDC9-207","ENST00000221922.11","CCDC9-201",0.611774771273043,-0.570573817619758
"ENSG00000105556.12","MIER2",9,"HALLMARK_PROTEIN_SECRETION",1.2758450493361,FALSE,7,9,0,"ENST00000264819.7","MIER2-201","ENST00000619835.4","MIER2-205",0.644788704274255,-0.631056345061842
"ENSG00000109118.14","PHF12",9,"HALLMARK_PROTEIN_SECRETION",1.27267448580975,FALSE,8,1,0,"ENST00000332830.9","PHF12-202","ENST00000577226.5","PHF12-205",0.630643931590123,-0.642030554219625
"ENSG00000111647.13","UHRF1BP1L",9,"EIF4E_UP",1.34189255439235,FALSE,0,7,7,"ENST00000545232.6","UHRF1BP1L-203","ENST00000279907.12","UHRF1BP1L-201",0.698322948329918,-0.643569606062435
"ENSG00000113282.14","CLINT1",9,"CAMP_UP.V1_UP",1.26358967620585,FALSE,0,0,4,"ENST00000530742.5","CLINT1-210","ENST00000523908.5","CLINT1-207",0.598142892103522,-0.665446784102329
"ENSG00000113742.14","CPEB4",9,"PID_P75_NTR_PATHWAY",1.15582969821468,TRUE,0,0,0,"ENST00000334035.9","CPEB4-202","ENST00000265085.10","CPEB4-201",0.625170792866566,-0.530658905348115
"ENSG00000114686.9","MRPL3",9,"PTEN_DN.V2_DN",1.22241695901063,FALSE,0,2,9,"ENST00000264995.8","MRPL3-201","ENST00000511168.5","MRPL3-209",0.635618859991736,-0.586798099018894
"ENSG00000122482.22","ZNF644",9,"BCAT_BILD_ET_AL_DN",1.25767796554918,FALSE,2,9,5,"ENST00000337393.10","ZNF644-201","ENST00000347275.9","ZNF644-202",0.662614878051494,-0.59506308749769
"ENSG00000127022.16","CANX",9,"TBK1.DF_DN",1.28800718998261,FALSE,4,9,5,"ENST00000452673.6","CANX-202","ENST00000506654.6","CANX-208",0.649400849302947,-0.638606340679659
"ENSG00000128534.8","LSM8",9,"PID_ERBB1_INTERNALIZATION_PATHWAY",1.22391396062942,FALSE,3,9,0,"ENST00000249299.7","LSM8-201","ENST00000422760.1","LSM8-203",0.579089454261194,-0.644824506368228
"ENSG00000130024.15","PHF10",9,"BCAT_BILD_ET_AL_DN",1.38309483999831,FALSE,0,7,9,"ENST00000612128.1","PHF10-205","ENST00000366780.8","PHF10-202",0.701537906722008,-0.681556933276297
"ENSG00000131828.14","PDHA1",9,"HALLMARK_PROTEIN_SECRETION",1.20943708793438,FALSE,3,1,0,"ENST00000422285.7","PDHA1-206","ENST00000379804.1","PDHA1-202",0.577765055740294,-0.631672032194086
"ENSG00000137996.13","RTCA",9,"RAPA_EARLY_UP.V1_UP",1.12067963611266,FALSE,0,0,5,"ENST00000370128.9","RTCA-203","ENST00000260563.4","RTCA-201",0.568993312545526,-0.551686323567137
"ENSG00000147364.17","FBXO25",9,"EIF4E_UP",1.40554977247851,FALSE,1,9,4,"ENST00000276326.9","FBXO25-201","ENST00000350302.8","FBXO25-202",0.650409118037564,-0.755140654440949
"ENSG00000147394.19","ZNF185",9,"PID_PS1_PATHWAY",1.17990667954301,FALSE,7,7,0,"ENST00000449285.6","ZNF185-207","ENST00000454925.1","ZNF185-208",0.639775280286688,-0.540131399256325
"ENSG00000152492.15","CCDC50",9,"HALLMARK_DNA_REPAIR",1.12824671838931,FALSE,0,7,0,"ENST00000392456.4","CCDC50-202","ENST00000392455.9","CCDC50-201",0.599306738318615,-0.528939980070699
"ENSG00000164244.21","PRRC1",9,"PID_ERBB1_INTERNALIZATION_PATHWAY",1.28523016593472,FALSE,0,9,0,"ENST00000296666.13","PRRC1-201","ENST00000512635.2","PRRC1-204",0.651252085997694,-0.633978079937022
"ENSG00000165821.12","SALL2",9,"TBK1.DF_DN",1.19265892189753,FALSE,4,9,2,"ENST00000537235.2","SALL2-202","ENST00000613414.4","SALL2-206",0.598177133934416,-0.594481787963115
"ENSG00000167972.14","ABCA3",9,"PID_ERBB1_INTERNALIZATION_PATHWAY",1.20740803111997,FALSE,0,9,0,"ENST00000301732.10","ABCA3-201","ENST00000382381.7","ABCA3-202",0.600758258768917,-0.606649772351055
"ENSG00000168394.12","TAP1",9,"PID_SMAD2_3PATHWAY",1.31602129653782,FALSE,0,9,6,"ENST00000354258.5","TAP1-201","ENST00000643049.2","TAP1-204",0.660322331561155,-0.65569896497667
"ENSG00000171634.19","BPTF",9,"CAMP_UP.V1_UP",1.26741929388237,FALSE,0,0,4,"ENST00000342579.8","BPTF-203","ENST00000424123.7","BPTF-204",0.534570048088008,-0.732849245794366
"ENSG00000172171.11","TEFM",9,"JAK2_DN.V1_DN",1.25454983810535,FALSE,6,0,0,"ENST00000580840.1","TEFM-204","ENST00000581216.6","TEFM-205",0.658313284357178,-0.596236553748171
"ENSG00000177034.17","MTX3",9,"SRC_UP.V1_UP",1.29715607161715,FALSE,4,9,7,"ENST00000617335.4","MTX3-204","ENST00000512528.3","MTX3-202",0.687433087517724,-0.609722984099426
"ENSG00000183495.14","EP400",9,"TBK1.DF_DN",1.21082631762645,FALSE,1,9,5,"ENST00000389561.7","EP400-204","ENST00000330386.7","EP400-201",0.651902265060064,-0.558924052566381
"ENSG00000185010.15","F8",9,"HALLMARK_DNA_REPAIR",1.4131940874725,FALSE,2,8,8,"ENST00000330287.10","F8-201","ENST00000360256.9","F8-202",0.731911027453095,-0.681283060019405
"ENSG00000188493.15","C19orf54",9,"EIF4E_UP",1.29988191050019,FALSE,0,8,7,"ENST00000470681.5","C19orf54-203","ENST00000378313.7","C19orf54-201",0.62392820950773,-0.675953700992464
"ENSG00000196313.13","POM121",9,"HALLMARK_PROTEIN_SECRETION",1.31256692099543,FALSE,9,9,1,"ENST00000627934.3","POM121-203","ENST00000395270.5","POM121-201",0.641187880465139,-0.671379040530288
"ENSG00000196428.13","TSC22D2",9,"EIF4E_UP",1.16019131930109,FALSE,0,0,0,"ENST00000466814.1","TSC22D2-203","ENST00000688009.1","TSC22D2-207",0.658301062728969,-0.501890256572119
"ENSG00000196458.11","ZNF605",9,"TBK1.DF_DN",1.42593204946361,FALSE,9,7,7,"ENST00000392321.3","ZNF605-204","ENST00000360187.9","ZNF605-202",0.715306861615241,-0.710625187848371
"ENSG00000213995.12","NAXD",9,"PID_MET_PATHWAY",1.15493000399249,FALSE,5,9,0,"ENST00000680254.1","NAXD-206","ENST00000424185.7","NAXD-202",0.578111337090172,-0.57681866690232
"ENSG00000214562.15","NUTM2D",9,"EIF4E_UP",1.21053686545418,FALSE,0,0,3,"ENST00000381697.7","NUTM2D-201","ENST00000412718.3","NUTM2D-202",0.643139733732357,-0.567397131721818
"ENSG00000278619.5","MRM1",9,"PID_PS1_PATHWAY",1.17018161476199,FALSE,0,5,0,"ENST00000614766.5","MRM1-204","ENST00000612760.1","MRM1-203",0.595937999428739,-0.574243615333247
"ENSG00000011304.22","PTBP1",8,"TBK1.DF_DN",1.28902659323249,FALSE,5,8,3,"ENST00000356948.11","PTBP1-203","ENST00000627714.2","PTBP1-219",0.645073443147206,-0.643953150085281
"ENSG00000048991.17","R3HDM1",8,"TBK1.DF_DN",1.30476481018423,FALSE,4,8,1,"ENST00000409478.5","R3HDM1-202","ENST00000429703.6","R3HDM1-206",0.615184257611392,-0.689580552572836
"ENSG00000050327.15","ARHGEF5",8,"TBK1.DF_DN",1.21288166170698,FALSE,2,8,4,"ENST00000056217.10","ARHGEF5-201","ENST00000474817.5","ARHGEF5-203",0.609294011870252,-0.603587649836727
"ENSG00000064102.15","INTS13",8,"TBK1.DF_DN",1.41288392247139,FALSE,3,8,5,"ENST00000261191.12","INTS13-201","ENST00000538155.5","INTS13-205",0.723286088070501,-0.689597834400887
"ENSG00000065000.19","AP3D1",8,"SRC_UP.V1_UP",1.27570626885765,FALSE,0,2,3,"ENST00000586370.6","AP3D1-204","ENST00000345016.9","AP3D1-201",0.577726805514102,-0.697979463343549
"ENSG00000065613.15","SLK",8,"PID_RAS_PATHWAY",1.1359453795319,FALSE,6,5,1,"ENST00000335753.8","SLK-201","ENST00000369755.4","SLK-202",0.56954163763062,-0.566403741901282
"ENSG00000071282.12","LMCD1",8,"EIF4E_UP",1.30272840925947,FALSE,0,5,7,"ENST00000397386.7","LMCD1-202","ENST00000157600.8","LMCD1-201",0.667630864581553,-0.63509754467792
"ENSG00000075945.13","KIFAP3",8,"TBK1.DF_DN",1.26318410500262,FALSE,3,8,4,"ENST00000361580.7","KIFAP3-201","ENST00000367767.5","KIFAP3-203",0.628938208311789,-0.634245896690831
"ENSG00000080603.17","SRCAP",8,"PID_SMAD2_3PATHWAY",1.25392122882007,FALSE,4,8,4,"ENST00000395059.6","SRCAP-202","ENST00000262518.9","SRCAP-201",0.672731680100936,-0.581189548719135
"ENSG00000088280.20","ASAP3",8,"PID_ERBB1_INTERNALIZATION_PATHWAY",1.14668545639795,FALSE,4,8,0,"ENST00000336689.8","ASAP3-201","ENST00000495646.5","ASAP3-209",0.573884299306605,-0.572801157091343
"ENSG00000088888.18","MAVS",8,"BCAT_BILD_ET_AL_DN",1.18924710238991,FALSE,0,8,4,"ENST00000428216.4","MAVS-202","ENST00000416600.6","MAVS-201",0.594623551194953,-0.594623551194953
"ENSG00000104824.18","HNRNPL",8,"NRL_DN.V1_DN",1.16231882795996,FALSE,0,0,0,"ENST00000601449.5","HNRNPL-212","ENST00000221419.10","HNRNPL-201",0.628351461652789,-0.533967366307172
"ENSG00000105879.12","CBLL1",8,"HALLMARK_REACTIVE_OXYGEN_SPECIES_PATHWAY",1.25014294478106,FALSE,0,2,3,"ENST00000440859.8","CBLL1-205","ENST00000222597.6","CBLL1-201",0.691214983145689,-0.558927961635372
"ENSG00000109685.19","NSD2",8,"PID_ERBB1_RECEPTOR_PROXIMAL_PATHWAY",1.19216615472811,FALSE,3,8,0,"ENST00000508803.6","NSD2-218","ENST00000677895.1","NSD2-228",0.603025905424314,-0.5891402493038
"ENSG00000110075.15","PPP6R3",8,"TBK1.DF_DN",1.26620853553202,FALSE,5,8,0,"ENST00000393800.7","PPP6R3-203","ENST00000265637.8","PPP6R3-202",0.549228032169828,-0.716980503362196
"ENSG00000110237.5","ARHGEF17",8,"TBK1.DF_DN",1.1770911906114,FALSE,2,8,1,"ENST00000263674.4","ARHGEF17-201","ENST00000643371.1","ARHGEF17-207",0.605785172397853,-0.571306018213549
"ENSG00000113558.19","SKP1",8,"EIF4E_UP",1.15710697327408,FALSE,0,0,8,"ENST00000521216.5","SKP1-208","ENST00000353411.11","SKP1-202",0.606674605495102,-0.550432367778979
"ENSG00000119471.15","HSDL2",8,"TBK1.DF_DN",1.19561861962128,FALSE,0,8,3,"ENST00000398805.8","HSDL2-202","ENST00000398803.1","HSDL2-201",0.602771992901942,-0.592846626719339
"ENSG00000120158.12","RCL1",8,"TBK1.DF_DN",1.19414691769353,FALSE,6,8,1,"ENST00000381750.9","RCL1-204","ENST00000448872.6","RCL1-208",0.585704010639352,-0.608442907054177
"ENSG00000120708.17","TGFBI",8,"PID_SMAD2_3PATHWAY",1.20594032654745,FALSE,4,8,1,"ENST00000442011.7","TGFBI-201","ENST00000508076.5","TGFBI-207",0.611006865889099,-0.594933460658353
"ENSG00000124164.16","VAPB",8,"BCAT_BILD_ET_AL_DN",1.26090454797614,FALSE,0,8,2,"ENST00000475243.6","VAPB-204","ENST00000395802.7","VAPB-202",0.554392725739065,-0.706511822237074
"ENSG00000129422.15","MTUS1",8,"TBK1.DF_DN",1.2753571676825,FALSE,2,8,7,"ENST00000693296.1","MTUS1-230","ENST00000544260.3","MTUS1-228",0.717734139903392,-0.557623027779106
"ENSG00000130749.10","ZC3H4",8,"SRC_UP.V1_UP",1.1497112750309,FALSE,1,8,6,"ENST00000601973.1","ZC3H4-205","ENST00000253048.10","ZC3H4-201",0.583177563186357,-0.566533711844548
"ENSG00000133313.15","CNDP2",8,"PID_ECADHERIN_NASCENT_AJ_PATHWAY",1.18473537006874,FALSE,4,8,0,"ENST00000579847.5","CNDP2-209","ENST00000579624.1","CNDP2-208",0.658096020254725,-0.526639349814011
"ENSG00000134313.17","KIDINS220",8,"TBK1.DF_DN",1.30214522521915,FALSE,3,8,2,"ENST00000473731.5","KIDINS220-206","ENST00000687912.1","KIDINS220-223",0.661758869437494,-0.640386355781656
"ENSG00000137831.15","UACA",8,"EIF4E_UP",1.0928869016368,FALSE,0,0,0,"ENST00000322954.11","UACA-201","ENST00000379983.6","UACA-202",0.526271136814702,-0.566615764822099
"ENSG00000138080.14","EMILIN1",8,"PID_ECADHERIN_NASCENT_AJ_PATHWAY",1.18472189685608,FALSE,7,8,0,"ENST00000380320.9","EMILIN1-201","ENST00000433140.1","EMILIN1-202",0.592360948428039,-0.592360948428039
"ENSG00000140598.15","EFL1",8,"BCAT_BILD_ET_AL_DN",1.19153225331147,FALSE,0,8,3,"ENST00000268206.12","EFL1-201","ENST00000359445.7","EFL1-202",0.594594096162067,-0.596938157149398
"ENSG00000159082.18","SYNJ1",8,"TBK1.DF_DN",1.21137774217153,FALSE,2,8,5,"ENST00000630077.3","SYNJ1-211","ENST00000438952.5","SYNJ1-207",0.603133476206764,-0.60824426596477
"ENSG00000159461.15","AMFR",8,"TBK1.DF_DN",1.28483872264143,FALSE,0,8,6,"ENST00000290649.10","AMFR-201","ENST00000492830.5","AMFR-202",0.723179644089319,-0.561659078552107
"ENSG00000163349.22","HIPK1",8,"TBK1.DF_DN",1.23064765097798,FALSE,2,8,6,"ENST00000369558.5","HIPK1-205","ENST00000361587.3","HIPK1-202",0.614966238851635,-0.615681412126341
"ENSG00000163930.10","BAP1",8,"TBK1.DF_DN",1.18612839416174,FALSE,4,8,1,"ENST00000460680.6","BAP1-202","ENST00000469613.5","BAP1-204",0.596593159388874,-0.589535234772862
"ENSG00000167775.11","CD320",8,"PID_MTOR_4PATHWAY",1.25717222395193,FALSE,0,0,3,"ENST00000301458.10","CD320-201","ENST00000537716.6","CD320-202",0.634413235697614,-0.622758988254315
"ENSG00000170266.16","GLB1",8,"TBK1.DF_DN",1.26679149927302,FALSE,5,8,2,"ENST00000307363.10","GLB1-201","ENST00000307377.12","GLB1-202",0.57656774525596,-0.690223754017057
"ENSG00000170633.17","RNF34",8,"PID_ERBB1_INTERNALIZATION_PATHWAY",1.18934649050135,FALSE,0,8,1,"ENST00000361234.10","RNF34-201","ENST00000613529.4","RNF34-211",0.577590039416224,-0.611756451085131
"ENSG00000172936.16","MYD88",8,"PID_ERBB1_RECEPTOR_PROXIMAL_PATHWAY",1.1680763431607,FALSE,0,8,1,"ENST00000650905.2","MYD88-210","ENST00000650112.2","MYD88-209",0.611575748808983,-0.556500594351714
"ENSG00000173327.8","MAP3K11",8,"PID_ERBB1_RECEPTOR_PROXIMAL_PATHWAY",1.19184830506105,FALSE,3,8,0,"ENST00000309100.8","MAP3K11-201","ENST00000532507.5","MAP3K11-210",0.592726709174275,-0.59912159588677
"ENSG00000184923.12","NUTM2A",8,"SIRNA_EIF4GI_UP",1.1044798801984,FALSE,0,0,0,"ENST00000381707.6","NUTM2A-202","ENST00000381689.4","NUTM2A-201",0.540005192686397,-0.564474687511998
"ENSG00000185900.11","POMK",8,"TBK1.DF_DN",1.27699650167121,FALSE,3,8,4,"ENST00000676193.1","POMK-219","ENST00000674676.1","POMK-205",0.644949884232102,-0.632046617439104
"ENSG00000196405.13","EVL",8,"JAK2_DN.V1_DN",1.33600935342948,FALSE,8,1,0,"ENST00000544450.6","EVL-203","ENST00000392920.8","EVL-201",0.757959642233194,-0.578049711196288
"ENSG00000196712.19","NF1",8,"BCAT_BILD_ET_AL_DN",1.1717858012114,FALSE,0,8,5,"ENST00000358273.9","NF1-202","ENST00000687027.1","NF1-227",0.589404944737355,-0.582380856474045
"ENSG00000241973.11","PI4KA",8,"BCAT_BILD_ET_AL_DN",1.30589967690532,FALSE,0,8,4,"ENST00000255882.11","PI4KA-201","ENST00000399213.2","PI4KA-202",0.633774140872867,-0.672125536032454
"ENSG00000006704.11","GTF2IRD1",7,"HALLMARK_PROTEIN_SECRETION",1.23689945480822,FALSE,6,1,0,"ENST00000424337.7","GTF2IRD1-202","ENST00000476977.5","GTF2IRD1-205",0.628785702195128,-0.608113752613089
"ENSG00000014919.13","COX15",7,"EIF4E_UP",1.24235388546205,FALSE,1,7,4,"ENST00000370483.9","COX15-202","ENST00000016171.6","COX15-201",0.631202634887094,-0.611151250574961
"ENSG00000070759.17","TESK2",7,"PID_SMAD2_3PATHWAY",1.2507464058644,FALSE,0,7,4,"ENST00000372086.4","TESK2-202","ENST00000372084.5","TESK2-201",0.610940849301742,-0.639805556562657
"ENSG00000071205.12","ARHGAP10",7,"TBK1.DF_DN",1.28508421451771,FALSE,4,7,2,"ENST00000336498.8","ARHGAP10-201","ENST00000507661.1","ARHGAP10-204",0.612289874562487,-0.672794339955225
"ENSG00000085832.17","EPS15",7,"PID_ERBB1_INTERNALIZATION_PATHWAY",1.1520156021791,FALSE,3,7,0,"ENST00000371733.8","EPS15-203","ENST00000371730.6","EPS15-202",0.584302488288738,-0.567713113890366
"ENSG00000087365.16","SF3B2",7,"PID_MET_PATHWAY",1.17392331813679,FALSE,4,7,0,"ENST00000322535.11","SF3B2-201","ENST00000530981.1","SF3B2-210",0.629565861419915,-0.544357456716873
"ENSG00000088827.13","SIGLEC1",7,"TBK1.DF_DN",1.23670010469027,FALSE,3,7,3,"ENST00000344754.6","SIGLEC1-201","ENST00000419548.4","SIGLEC1-202",0.62163500880787,-0.615065095882397
"ENSG00000100167.21","SEPTIN3",7,"TBK1.DF_DN",1.21269816828898,FALSE,0,7,7,"ENST00000396425.7","SEPTIN3-202","ENST00000396426.7","SEPTIN3-203",0.623649675236355,-0.589048493052623
"ENSG00000103423.14","DNAJA3",7,"PID_ERBB1_INTERNALIZATION_PATHWAY",1.18155401994973,FALSE,0,7,1,"ENST00000355296.8","DNAJA3-202","ENST00000431375.6","DNAJA3-203",0.586921823953635,-0.594632195996099
"ENSG00000112033.14","PPARD",7,"PID_ERBB1_RECEPTOR_PROXIMAL_PATHWAY",1.11949047153067,FALSE,2,7,0,"ENST00000360694.8","PPARD-203","ENST00000418635.6","PPARD-204",0.585218834722537,-0.534271636808137
"ENSG00000118454.13","ANKRD13C",7,"TBK1.DF_DN",1.32333257938208,FALSE,5,7,3,"ENST00000262346.6","ANKRD13C-201","ENST00000370944.9","ANKRD13C-202",0.690932265069537,-0.632400314312545
"ENSG00000119778.15","ATAD2B",7,"EIF4E_UP",1.23074819966283,FALSE,1,7,6,"ENST00000381024.4","ATAD2B-203","ENST00000238789.10","ATAD2B-201",0.643897621662799,-0.586850578000031
"ENSG00000131778.20","CHD1L",7,"TBK1.DF_DN",1.34429397581403,FALSE,5,7,3,"ENST00000369258.8","CHD1L-202","ENST00000652587.1","CHD1L-232",0.628577480941783,-0.715716494872243
"ENSG00000136631.15","VPS45",7,"TBK1.DF_DN",1.20969682838695,FALSE,0,7,0,"ENST00000644510.2","VPS45-216","ENST00000611412.4","VPS45-211",0.555231401355971,-0.654465427030979
"ENSG00000141349.9","G6PC3",7,"TBK1.DF_DN",1.33903957420746,FALSE,4,7,4,"ENST00000269097.9","G6PC3-201","ENST00000590253.2","G6PC3-205",0.64357648274105,-0.695463091466408
"ENSG00000141447.19","OSBPL1A",7,"SRC_UP.V1_UP",1.13910179331832,FALSE,0,1,5,"ENST00000399443.7","OSBPL1A-204","ENST00000319481.8","OSBPL1A-201",0.551665438761583,-0.587436354556734
"ENSG00000143776.20","CDC42BPA",7,"SRC_UP.V1_UP",1.2769758350623,FALSE,1,1,7,"ENST00000448940.5","CDC42BPA-209","ENST00000334218.9","CDC42BPA-201",0.646375470715334,-0.630600364346963
"ENSG00000147862.18","NFIB",7,"EIF4E_UP",1.23353505687072,FALSE,1,7,6,"ENST00000543693.5","NFIB-210","ENST00000380959.7","NFIB-205",0.686202219818974,-0.547332837051744
"ENSG00000157593.19","SLC35B2",7,"PID_MET_PATHWAY",1.18839478505425,FALSE,3,7,0,"ENST00000393812.4","SLC35B2-202","ENST00000537814.2","SLC35B2-204",0.617878668976458,-0.570516116077797
"ENSG00000163125.16","RPRD2",7,"EIF4E_UP",1.19644420792773,FALSE,0,7,6,"ENST00000401000.8","RPRD2-203","ENST00000369068.5","RPRD2-202",0.68302575080196,-0.513418457125769
"ENSG00000163754.18","GYG1",7,"PID_PI3KCI_AKT_PATHWAY",1.18869662832644,TRUE,2,1,0,"ENST00000296048.10","GYG1-201","ENST00000345003.9","GYG1-202",0.650076619605094,-0.53862000872135
"ENSG00000163820.16","FYCO1",7,"TBK1.DF_DN",1.21834037595125,FALSE,2,7,3,"ENST00000296137.7","FYCO1-201","ENST00000433878.5","FYCO1-202",0.616874953388437,-0.601465422562808
"ENSG00000165060.15","FXN",7,"EIF4E_UP",1.30780330732768,FALSE,0,3,4,"ENST00000498653.5","FXN-204","ENST00000484259.3","FXN-203",0.607467608526215,-0.700335698801461
"ENSG00000168743.13","NPNT",7,"TBK1.DF_DN",1.20688737153232,FALSE,2,7,0,"ENST00000379987.7","NPNT-202","ENST00000504787.1","NPNT-207",0.611955818864487,-0.594931552667833
"ENSG00000172893.18","DHCR7",7,"TBK1.DF_DN",1.24181080613933,FALSE,6,7,2,"ENST00000355527.8","DHCR7-201","ENST00000685320.1","DHCR7-219",0.618254931861025,-0.623555874278305
"ENSG00000186300.12","ZNF555",7,"RB_P130_DN.V1_UP",1.12409104186508,FALSE,0,0,7,"ENST00000591539.1","ZNF555-203","ENST00000334241.9","ZNF555-201",0.564709784025861,-0.559381257839216
"ENSG00000204084.13","INPP5B",7,"HALLMARK_DNA_REPAIR",1.19089667792953,FALSE,0,0,6,"ENST00000373027.5","INPP5B-205","ENST00000373026.5","INPP5B-204",0.685619301933538,-0.505277375995988
"ENSG00000213186.8","TRIM59",7,"HALLMARK_PROTEIN_SECRETION",1.1285891591051,FALSE,3,7,0,"ENST00000309784.9","TRIM59-201","ENST00000543469.1","TRIM59-208",0.568301303508699,-0.560287855596398
"ENSG00000265241.8","RBM8A",7,"BCAT_BILD_ET_AL_DN",1.19386714624307,FALSE,0,7,4,"ENST00000583313.7","RBM8A-204","ENST00000369307.4","RBM8A-201",0.596069748439433,-0.597797397803639
"ENSG00000269313.5","MAGIX",7,"JAK2_DN.V1_DN",1.17995933056083,FALSE,0,0,0,"ENST00000616266.4","MAGIX-208","ENST00000595224.5","MAGIX-202",0.622674937389607,-0.557284393171219
"ENSG00000275052.5","PPP4R3B",7,"TBK1.DF_DN",1.21939721462051,FALSE,5,7,0,"ENST00000616288.4","PPP4R3B-205","ENST00000611717.4","PPP4R3B-203",0.594835484477612,-0.624561730142901
"ENSG00000005893.16","LAMP2",6,"GCNP_SHH_UP_EARLY.V1_UP",1.13119120018143,FALSE,0,0,0,"ENST00000371335.4","LAMP2-202","ENST00000200639.9","LAMP2-201",0.530775198599083,-0.600416001582343
"ENSG00000011275.19","RNF216",6,"SRC_UP.V1_UP",1.34385058974999,FALSE,0,4,1,"ENST00000425013.6","RNF216-205","ENST00000389902.8","RNF216-202",0.774483391266142,-0.569367198483847
"ENSG00000029364.12","SLC39A9",6,"TBK1.DF_DN",1.22613490893655,FALSE,3,6,1,"ENST00000336643.10","SLC39A9-202","ENST00000556605.5","SLC39A9-209",0.542407154423624,-0.68372775451293
"ENSG00000061938.21","TNK2",6,"PID_ECADHERIN_NASCENT_AJ_PATHWAY",1.15626199609102,FALSE,3,6,0,"ENST00000673420.1","TNK2-227","ENST00000672548.1","TNK2-216",0.587134216494282,-0.569127779596735
"ENSG00000072274.13","TFRC",6,"TBK1.DF_DN",1.3058771479283,FALSE,3,6,4,"ENST00000360110.9","TFRC-201","ENST00000420415.5","TFRC-203",0.652666410925009,-0.653210737003287
"ENSG00000082153.18","BZW1",6,"TBK1.DF_DN",1.20650636678445,FALSE,4,6,0,"ENST00000409226.5","BZW1-202","ENST00000409600.6","BZW1-203",0.55085174435294,-0.655654622431509
"ENSG00000100300.18","TSPO",6,"PID_PI3KCI_AKT_PATHWAY",1.15619460293773,FALSE,0,3,0,"ENST00000337554.8","TSPO-202","ENST00000583777.5","TSPO-206",0.600019818698127,-0.556174784239602
"ENSG00000105088.9","OLFM2",6,"PID_PS1_PATHWAY",1.17640622016619,FALSE,0,2,0,"ENST00000264833.9","OLFM2-201","ENST00000590841.5","OLFM2-203",0.595865937710749,-0.580540282455438
"ENSG00000105519.18","CAPS",6,"KRAS.600_UP.V1_DN",1.04282728828358,FALSE,3,0,0,"ENST00000588776.8","CAPS-203","ENST00000452990.8","CAPS-201",0.519623416790309,-0.523203871493268
"ENSG00000105771.14","SMG9",6,"PID_MET_PATHWAY",1.19473173233065,FALSE,4,6,0,"ENST00000601170.5","SMG9-211","ENST00000270066.11","SMG9-201",0.672222259200585,-0.522509473130067
"ENSG00000107262.26","BAG1",6,"HALLMARK_REACTIVE_OXYGEN_SPECIES_PATHWAY",1.17920622977424,FALSE,0,2,0,"ENST00000379704.7","BAG1-202","ENST00000634734.3","BAG1-210",0.515355800046193,-0.663850429728049
"ENSG00000119383.21","PTPA",6,"TBK1.DF_DN",1.23765134070568,FALSE,0,6,6,"ENST00000393370.7","PTPA-207","ENST00000347048.8","PTPA-202",0.612609686262944,-0.625041654442736
"ENSG00000123159.16","GIPC1",6,"PID_PS1_PATHWAY",1.09315190571964,FALSE,1,2,0,"ENST00000393033.9","GIPC1-203","ENST00000393028.5","GIPC1-202",0.524180094476028,-0.568971811243613
"ENSG00000124789.12","NUP153",6,"BCAT_BILD_ET_AL_DN",1.26748209636034,FALSE,0,6,4,"ENST00000262077.3","NUP153-201","ENST00000613258.4","NUP153-203",0.639438850402551,-0.62804324595779
"ENSG00000124831.19","LRRFIP1",6,"EIF4E_UP",1.26637231793048,FALSE,0,0,3,"ENST00000244815.9","LRRFIP1-201","ENST00000289175.10","LRRFIP1-202",0.63462019454659,-0.631752123383889
"ENSG00000126777.18","KTN1",6,"TBK1.DF_DN",1.23441664134836,FALSE,2,6,2,"ENST00000438792.6","KTN1-207","ENST00000555573.5","KTN1-223",0.63637867685947,-0.598037964488887
"ENSG00000130939.20","UBE4B",6,"EIF4E_UP",1.12833555900081,FALSE,1,6,3,"ENST00000343090.11","UBE4B-202","ENST00000253251.12","UBE4B-201",0.580099006174599,-0.54823655282621
"ENSG00000131473.17","ACLY",6,"PID_MET_PATHWAY",1.1468775914652,FALSE,0,6,0,"ENST00000353196.5","ACLY-202","ENST00000352035.7","ACLY-201",0.635152144091077,-0.511725447374128
"ENSG00000131504.18","DIAPH1",6,"BCAT_BILD_ET_AL_DN",1.26883521235908,FALSE,3,6,5,"ENST00000389054.8","DIAPH1-201","ENST00000448451.6","DIAPH1-202",0.673937311795138,-0.594897900563946
"ENSG00000133477.17","FAM83F",6,"JAK2_DN.V1_DN",1.19011043605155,FALSE,6,3,1,"ENST00000333407.11","FAM83F-201","ENST00000473717.1","FAM83F-202",0.579349123265929,-0.610761312785622
"ENSG00000136758.20","YME1L1",6,"BCAT_BILD_ET_AL_DN",1.28778286944389,FALSE,0,6,3,"ENST00000376016.8","YME1L1-202","ENST00000613434.4","YME1L1-208",0.673166528665225,-0.614616340778664
"ENSG00000137492.9","THAP12",6,"EIF4E_UP",1.20397185932589,FALSE,0,3,0,"ENST00000682527.1","THAP12-207","ENST00000260045.8","THAP12-201",0.650997458508108,-0.55297440081778
"ENSG00000137496.18","IL18BP",6,"RAF_UP.V1_DN",1.14493550544711,FALSE,4,6,0,"ENST00000260049.9","IL18BP-201","ENST00000497194.6","IL18BP-209",0.574944938628611,-0.569990566818499
"ENSG00000138029.14","HADHB",6,"PID_MET_PATHWAY",1.15557903467214,FALSE,4,6,0,"ENST00000317799.10","HADHB-201","ENST00000545822.2","HADHB-209",0.606191324118799,-0.549387710553343
"ENSG00000140632.17","GLYR1",6,"TBK1.DF_DN",1.18680180509748,FALSE,4,6,0,"ENST00000321919.14","GLYR1-201","ENST00000436648.9","GLYR1-202",0.58527040105242,-0.601531404045055
"ENSG00000141540.11","TTYH2",6,"JAK2_DN.V1_DN",1.20982001715266,FALSE,6,0,0,"ENST00000441391.6","TTYH2-202","ENST00000269346.9","TTYH2-201",0.590837858346715,-0.618982158805941
"ENSG00000143418.20","CERS2",6,"PID_CDC42_PATHWAY",1.13429543160629,FALSE,4,6,0,"ENST00000368954.10","CERS2-205","ENST00000560793.6","CERS2-213",0.578955975068006,-0.555339456538284
"ENSG00000145919.11","BOD1",6,"PID_ERBB1_INTERNALIZATION_PATHWAY",1.14434060504831,FALSE,3,6,0,"ENST00000311086.9","BOD1-202","ENST00000285908.5","BOD1-201",0.5666721074872,-0.577668497561112
"ENSG00000149782.13","PLCB3",6,"BCAT_BILD_ET_AL_DN",1.18471273693703,FALSE,0,6,2,"ENST00000279230.12","PLCB3-201","ENST00000325234.5","PLCB3-202",0.579860773854643,-0.604851963082387
"ENSG00000151726.15","ACSL1",6,"TBK1.DF_DN",1.23593303001623,FALSE,2,6,1,"ENST00000281455.7","ACSL1-201","ENST00000503407.5","ACSL1-203",0.643980041237893,-0.591952988778333
"ENSG00000156453.14","PCDH1",6,"PID_ERBB1_INTERNALIZATION_PATHWAY",1.10700207850555,FALSE,0,6,2,"ENST00000287008.8","PCDH1-201","ENST00000394536.4","PCDH1-203",0.554359997245067,-0.552642081260487
"ENSG00000162298.19","SYVN1",6,"TBK1.DF_DN",1.16880951290663,FALSE,0,6,2,"ENST00000294256.12","SYVN1-201","ENST00000307289.10","SYVN1-202",0.583408567707323,-0.585400945199306
"ENSG00000163214.21","DHX57",6,"TBK1.DF_DN",1.36600693857034,FALSE,4,6,4,"ENST00000457308.6","DHX57-203","ENST00000452978.5","DHX57-202",0.686723824401657,-0.679283114168683
"ENSG00000165118.15","C9orf64",6,"PID_MET_PATHWAY",1.1236601845487,FALSE,0,5,0,"ENST00000376344.8","C9orf64-203","ENST00000314700.5","C9orf64-201",0.566847417051886,-0.556812767496812
"ENSG00000165271.17","NOL6",6,"PID_ERBB1_INTERNALIZATION_PATHWAY",1.21393018568506,FALSE,3,5,0,"ENST00000297990.9","NOL6-201","ENST00000379470.5","NOL6-203",0.583511487688957,-0.630418697996104
"ENSG00000166199.13","ALKBH3",6,"PID_ERBB1_DOWNSTREAM_PATHWAY",1.15434703338528,FALSE,5,6,0,"ENST00000302708.9","ALKBH3-201","ENST00000532129.1","ALKBH3-208",0.621037327779104,-0.533309705606174
"ENSG00000169905.13","TOR1AIP2",6,"EIF4E_UP",1.17515177303351,FALSE,0,1,6,"ENST00000482587.5","TOR1AIP2-203","ENST00000609928.6","TOR1AIP2-206",0.612726802792372,-0.562424970241137
"ENSG00000172315.6","TP53RK",6,"PID_HDAC_CLASSII_PATHWAY",1.15166385726722,FALSE,0,0,2,"ENST00000372114.4","TP53RK-202","ENST00000372102.3","TP53RK-201",0.584741616187188,-0.566922241080031
"ENSG00000178921.14","PFAS",6,"PID_ERBB1_INTERNALIZATION_PATHWAY",1.18519771952358,FALSE,2,6,0,"ENST00000314666.11","PFAS-201","ENST00000546020.2","PFAS-202",0.600519000669802,-0.584678718853777
"ENSG00000180822.12","PSMG4",6,"JAK2_DN.V1_DN",1.39639920686183,FALSE,6,0,1,"ENST00000473000.2","PSMG4-209","ENST00000438998.7","PSMG4-206",0.751634622572179,-0.644764584289652
"ENSG00000182054.10","IDH2",6,"PID_ERBB1_DOWNSTREAM_PATHWAY",1.18219375504515,FALSE,3,0,0,"ENST00000540499.2","IDH2-202","ENST00000330062.8","IDH2-201",0.667381074803866,-0.514812680241288
"ENSG00000187742.15","SECISBP2",6,"TBK1.DF_DN",1.31958737030053,FALSE,1,6,5,"ENST00000375807.8","SECISBP2-202","ENST00000339901.8","SECISBP2-201",0.667314783303635,-0.652272586996891
"ENSG00000196208.14","GREB1",6,"SRC_UP.V1_UP",1.16442451732581,FALSE,1,6,5,"ENST00000396123.2","GREB1-206","ENST00000234142.9","GREB1-201",0.624178702401021,-0.540245814924794
"ENSG00000197077.14","KIAA1671",6,"SRC_UP.V1_UP",1.2561858093469,FALSE,1,6,5,"ENST00000401395.1","KIAA1671-202","ENST00000358431.8","KIAA1671-201",0.560473589772026,-0.695712219574874
"ENSG00000197724.11","PHF2",6,"TBK1.DF_DN",1.17694959316644,FALSE,2,6,1,"ENST00000359246.9","PHF2-201","ENST00000610682.1","PHF2-203",0.609382940427988,-0.567566652738448
"ENSG00000198373.13","WWP2",6,"TBK1.DF_DN",1.26189974005819,FALSE,4,6,1,"ENST00000359154.7","WWP2-202","ENST00000568684.1","WWP2-213",0.590271712095708,-0.67162802796248
"ENSG00000198900.7","TOP1",6,"TBK1.DF_DN",1.17702894716518,FALSE,3,6,1,"ENST00000361337.3","TOP1-201","ENST00000680945.1","TOP1-202",0.572094399247436,-0.604934547917748
"ENSG00000254996.5","ANKHD1-EIF4EBP3",6,"EIF4E_UP",1.3089397070194,FALSE,0,6,5,"ENST00000437495.1","ANKHD1-EIF4EBP3-201","ENST00000532219.5","ANKHD1-EIF4EBP3-203",0.728533000425015,-0.580406706594389
"ENSG00000062598.18","ELMO2",5,"TBK1.DF_DN",1.19195258041886,FALSE,5,5,0,"ENST00000290246.11","ELMO2-201","ENST00000452857.5","ELMO2-207",0.522096918798711,-0.669855661620153
"ENSG00000065361.17","ERBB3",5,"TBK1.DF_DN",1.25712590212919,FALSE,3,5,2,"ENST00000267101.8","ERBB3-201","ENST00000549832.1","ERBB3-213",0.609553468384572,-0.647572433744615
"ENSG00000079432.9","CIC",5,"SRC_UP.V1_UP",1.19557842950319,FALSE,0,2,2,"ENST00000575354.6","CIC-206","ENST00000681038.1","CIC-209",0.580925968673031,-0.61465246083016
"ENSG00000088970.16","KIZ",5,"HALLMARK_PROTEIN_SECRETION",1.38012663829626,FALSE,5,0,0,"ENST00000619189.5","KIZ-210","ENST00000616679.4","KIZ-207",0.74573774037272,-0.634388897923539
"ENSG00000104549.12","SQLE",5,"HALLMARK_MITOTIC_SPINDLE",1.08888571040884,FALSE,2,5,3,"ENST00000265896.10","SQLE-201","ENST00000523430.5","SQLE-206",0.544690068733621,-0.54419564167522
"ENSG00000105429.13","MEGF8",5,"PID_MET_PATHWAY",1.14872844400618,FALSE,0,5,0,"ENST00000251268.11","MEGF8-201","ENST00000334370.8","MEGF8-202",0.59678564494298,-0.551942799063202
"ENSG00000106052.14","TAX1BP1",5,"SRC_UP.V1_UP",1.20960364552652,FALSE,1,4,3,"ENST00000433216.6","TAX1BP1-207","ENST00000265393.10","TAX1BP1-201",0.533350755834369,-0.67625288969215
"ENSG00000106261.17","ZKSCAN1",5,"TBK1.DF_DN",1.11557229882456,FALSE,1,5,3,"ENST00000324306.11","ZKSCAN1-201","ENST00000535170.5","ZKSCAN1-205",0.56632653987949,-0.549245758945073
"ENSG00000106682.16","EIF4H",5,"PID_ERBB1_INTERNALIZATION_PATHWAY",1.0775402921564,FALSE,3,5,0,"ENST00000353999.6","EIF4H-202","ENST00000679287.1","EIF4H-214",0.53244739294657,-0.545092899209827
"ENSG00000111752.11","PHC1",5,"EIF4E_UP",1.29732249932039,FALSE,0,5,0,"ENST00000433083.6","PHC1-201","ENST00000544916.6","PHC1-214",0.714695231478015,-0.582627267842371
"ENSG00000112655.16","PTK7",5,"TBK1.DF_DN",1.15343343019121,FALSE,2,5,1,"ENST00000230419.9","PTK7-202","ENST00000489707.5","PTK7-216",0.561017574035906,-0.592415856155307
"ENSG00000114054.14","PCCB",5,"PID_PS1_PATHWAY",1.1556105395371,FALSE,0,4,2,"ENST00000251654.9","PCCB-201","ENST00000482086.5","PCCB-215",0.536187988416627,-0.619422551120472
"ENSG00000115484.15","CCT4",5,"BCAT_BILD_ET_AL_DN",1.22558387002927,FALSE,0,5,1,"ENST00000394440.8","CCT4-201","ENST00000544079.2","CCT4-204",0.632246331153172,-0.593337538876095
"ENSG00000117305.15","HMGCL",5,"PID_PS1_PATHWAY",1.17755624822193,FALSE,1,5,0,"ENST00000374490.8","HMGCL-203","ENST00000235958.4","HMGCL-201",0.666504707915505,-0.511051540306422
"ENSG00000117479.15","SLC19A2",5,"TBK1.DF_DN",1.23027095735051,FALSE,0,5,3,"ENST00000236137.10","SLC19A2-201","ENST00000367804.4","SLC19A2-202",0.657826328881256,-0.572444628469258
"ENSG00000117868.18","ESYT2",5,"ESTIMATE.Stromal.Score",1.14628652229699,FALSE,4,4,0,"ENST00000251527.10","ESYT2-201","ENST00000275418.13","ESYT2-202",0.545617823084035,-0.600668699212952
"ENSG00000118096.10","IFT46",5,"PID_ERBB1_DOWNSTREAM_PATHWAY",1.15346363209633,FALSE,5,5,0,"ENST00000264021.8","IFT46-202","ENST00000672656.2","IFT46-213",0.609049496008937,-0.544414136087392
"ENSG00000118200.15","CAMSAP2",5,"CAMP_UP.V1_UP",1.21843601881449,FALSE,0,1,0,"ENST00000236925.8","CAMSAP2-201","ENST00000413307.6","CAMSAP2-203",0.544281990038061,-0.674154028776433
"ENSG00000120733.14","KDM3B",5,"EIF4E_UP",1.22828846491486,FALSE,0,5,5,"ENST00000542866.2","KDM3B-209","ENST00000314358.10","KDM3B-201",0.59234391527421,-0.635944549640647
"ENSG00000125686.12","MED1",5,"PID_ERBB1_INTERNALIZATION_PATHWAY",1.25658157879893,FALSE,2,5,0,"ENST00000300651.11","MED1-201","ENST00000394287.7","MED1-202",0.606119181909523,-0.650462396889404
"ENSG00000131378.14","RFTN1",5,"PID_SMAD2_3PATHWAY",1.11418977197607,FALSE,1,5,3,"ENST00000334133.9","RFTN1-201","ENST00000432519.5","RFTN1-203",0.555751480019214,-0.558438291956857
"ENSG00000133030.22","MPRIP",5,"SIRNA_EIF4GI_UP",1.14908825103334,FALSE,2,0,0,"ENST00000341712.8","MPRIP-202","ENST00000395811.9","MPRIP-205",0.556083197803902,-0.593005053229437
"ENSG00000133884.10","DPF2",5,"TBK1.DF_DN",1.25249561380855,FALSE,3,5,2,"ENST00000252268.8","DPF2-201","ENST00000531989.1","DPF2-208",0.613738575053417,-0.63875703875513
"ENSG00000136451.9","VEZF1",5,"SRC_UP.V1_UP",1.22028268158011,FALSE,0,4,3,"ENST00000258963.7","VEZF1-201","ENST00000584396.5","VEZF1-204",0.526913600668488,-0.69336908091162
"ENSG00000136830.12","NIBAN2",5,"EIF4E_UP",1.22968444956578,FALSE,0,5,4,"ENST00000373314.7","NIBAN2-202","ENST00000373312.4","NIBAN2-201",0.622309244864578,-0.607375204701202
"ENSG00000136869.16","TLR4",5,"TBK1.DF_DN",1.1680789957221,FALSE,2,5,3,"ENST00000394487.5","TLR4-202","ENST00000355622.8","TLR4-201",0.590123079772886,-0.577955915949213
"ENSG00000137692.12","DCUN1D5",5,"TBK1.DF_DN",1.26747545257491,FALSE,1,5,5,"ENST00000260247.10","DCUN1D5-201","ENST00000531543.1","DCUN1D5-209",0.560270197487141,-0.70720525508777
"ENSG00000138496.17","PARP9",5,"TBK1.DF_DN",1.14727867067286,FALSE,3,5,0,"ENST00000682323.1","PARP9-208","ENST00000492382.5","PARP9-207",0.536419894212477,-0.610858776460379
"ENSG00000141098.13","GFOD2",5,"EIF4E_UP",1.3157429535266,FALSE,0,4,5,"ENST00000268797.12","GFOD2-201","ENST00000602279.2","GFOD2-202",0.691078133433715,-0.624664820092882
"ENSG00000142453.12","CARM1",5,"TBK1.DF_DN",1.21403741167464,FALSE,0,5,5,"ENST00000344150.8","CARM1-202","ENST00000327064.9","CARM1-201",0.624844908455957,-0.58919250321868
"ENSG00000144711.16","IQSEC1",5,"BCAT_BILD_ET_AL_DN",1.32715079188645,FALSE,1,5,0,"ENST00000613206.2","IQSEC1-204","ENST00000273221.8","IQSEC1-201",0.616817174208195,-0.710333617678252
"ENSG00000146267.12","FAXC",5,"EIF4E_UP",1.20072388572893,FALSE,0,4,5,"ENST00000538471.1","FAXC-204","ENST00000389677.6","FAXC-201",0.583050024728825,-0.6176738610001
"ENSG00000149781.13","FERMT3",5,"PID_PS1_PATHWAY",1.1066632308886,FALSE,0,5,0,"ENST00000345728.10","FERMT3-202","ENST00000545896.1","FERMT3-208",0.585898260563947,-0.520764970324657
"ENSG00000158691.15","ZSCAN12",5,"PID_TCPTP_PATHWAY",1.11032370521475,FALSE,0,1,0,"ENST00000684592.1","ZSCAN12-203","ENST00000361028.5","ZSCAN12-201",0.531210550706609,-0.579113154508144
"ENSG00000164961.16","WASHC5",5,"EIF4E_UP",1.2828364485063,FALSE,0,0,2,"ENST00000517845.5","WASHC5-202","ENST00000318410.12","WASHC5-201",0.613507157956566,-0.669329290549735
"ENSG00000165140.12","FBP1",5,"PID_MET_PATHWAY",1.11234896477334,FALSE,0,5,0,"ENST00000375326.9","FBP1-201","ENST00000648117.1","FBP1-204",0.561307481016018,-0.55104148375732
"ENSG00000168028.14","RPSA",5,"BCAT_BILD_ET_AL_DN",1.32214958964484,FALSE,2,4,2,"ENST00000301821.11","RPSA-201","ENST00000443003.2","RPSA-202",0.62425327937129,-0.697896310273554
"ENSG00000168994.14","PXDC1",5,"EIF4E_UP",1.12496582755967,FALSE,0,0,2,"ENST00000380277.6","PXDC1-201","ENST00000380283.5","PXDC1-202",0.541051421161751,-0.58391440639792
"ENSG00000169180.12","XPO6",5,"BCAT_BILD_ET_AL_DN",1.26957789257756,FALSE,1,5,2,"ENST00000304658.10","XPO6-201","ENST00000568065.5","XPO6-213",0.525113165459167,-0.744464727118394
"ENSG00000172831.14","CES2",5,"PID_ERBB1_INTERNALIZATION_PATHWAY",1.11327634670811,FALSE,1,5,0,"ENST00000417689.6","CES2-202","ENST00000317091.10","CES2-201",0.543520200955544,-0.569756145752562
"ENSG00000172890.13","NADSYN1",5,"HALLMARK_PROTEIN_SECRETION",1.20010660932401,FALSE,5,1,0,"ENST00000319023.7","NADSYN1-201","ENST00000530055.5","NADSYN1-216",0.602469056241293,-0.597637553082716
"ENSG00000174996.12","KLC2",5,"HALLMARK_PROTEIN_SECRETION",1.1465371041752,FALSE,2,3,0,"ENST00000394067.7","KLC2-204","ENST00000394065.2","KLC2-202",0.635832649286779,-0.510704454888424
"ENSG00000178927.18","CYBC1",5,"HALLMARK_PROTEIN_SECRETION",1.21570340999825,FALSE,4,3,0,"ENST00000306645.10","CYBC1-201","ENST00000342572.12","CYBC1-202",0.6102381988442,-0.605465211154048
"ENSG00000182541.18","LIMK2",5,"PID_ERBB2_ERBB3_PATHWAY",1.18484196846003,FALSE,2,5,0,"ENST00000333611.8","LIMK2-202","ENST00000331728.9","LIMK2-201",0.636281837369154,-0.548560131090877
"ENSG00000184445.12","KNTC1",5,"TBK1.DF_DN",1.33262476278507,FALSE,2,5,5,"ENST00000333479.12","KNTC1-201","ENST00000436959.7","KNTC1-204",0.748005767337262,-0.584618995447804
"ENSG00000185164.15","NOMO2",5,"TBK1.DF_DN",1.15415961301628,FALSE,3,5,0,"ENST00000622306.5","NOMO2-212","ENST00000620440.4","NOMO2-210",0.548502002292821,-0.605657610723454
"ENSG00000196588.21","MRTFA",5,"TBK1.DF_DN",1.25855034566572,FALSE,3,5,0,"ENST00000355630.10","MRTFA-201","ENST00000620651.4","MRTFA-211",0.577320710618849,-0.681229635046866
"ENSG00000197951.10","ZNF71",5,"EIF4E_UP",1.23781120673149,FALSE,0,5,4,"ENST00000599599.7","ZNF71-203","ENST00000328070.10","ZNF71-201",0.626636679223353,-0.611174527508139
"ENSG00000198546.15","ZNF511",5,"JAK2_DN.V1_DN",1.20873332482824,FALSE,5,0,0,"ENST00000359035.4","ZNF511-201","ENST00000361518.10","ZNF511-202",0.639904697039413,-0.568828627788823
"ENSG00000198554.12","WDHD1",5,"GCNP_SHH_UP_LATE.V1_DN",1.07287330300923,FALSE,0,0,2,"ENST00000360586.8","WDHD1-201","ENST00000420358.2","WDHD1-202",0.504953262686614,-0.567920040322617
"ENSG00000203326.12","ZNF525",5,"TBK1.DF_DN",1.22370093392268,FALSE,0,5,4,"ENST00000474037.6","ZNF525-202","ENST00000475179.5","ZNF525-203",0.576234095646703,-0.647466838275976
"ENSG00000213066.13","CEP43",5,"MTOR_UP.N4.V1_UP",1.25613142145476,FALSE,5,1,3,"ENST00000349556.4","CEP43-201","ENST00000366847.9","CEP43-202",0.583879870529531,-0.672251550925232
"ENSG00000004487.18","KDM1A",4,"TBK1.DF_DN",1.21770185407022,FALSE,0,4,0,"ENST00000356634.7","KDM1A-201","ENST00000685243.1","KDM1A-208",0.567855813573206,-0.649846040497011
"ENSG00000007944.15","MYLIP",4,"TBK1.DF_DN",1.10456937052314,FALSE,1,4,1,"ENST00000356840.8","MYLIP-202","ENST00000349606.4","MYLIP-201",0.552284685261568,-0.552284685261568
"ENSG00000010165.20","METTL13",4,"PID_MTOR_4PATHWAY",1.15348784274307,FALSE,0,1,0,"ENST00000361735.4","METTL13-201","ENST00000367737.9","METTL13-203",0.567754510893733,-0.585733331849339
"ENSG00000012822.16","CALCOCO1",4,"LTE2_UP.V1_UP",1.15550166808832,FALSE,4,2,0,"ENST00000430117.6","CALCOCO1-202","ENST00000548263.5","CALCOCO1-210",0.645039069430739,-0.510462598657583
"ENSG00000022840.17","RNF10",4,"PID_P75_NTR_PATHWAY",1.20644366813294,FALSE,1,0,0,"ENST00000413266.6","RNF10-203","ENST00000325954.9","RNF10-201",0.660782603679135,-0.54566106445381
"ENSG00000044090.13","CUL7",4,"TBK1.DF_DN",1.24040456813921,FALSE,0,4,1,"ENST00000265348.9","CUL7-201","ENST00000692002.1","CUL7-219",0.61444315623704,-0.625961411902171
"ENSG00000050405.14","LIMA1",4,"TBK1.DF_DN",1.30514220230038,FALSE,3,4,2,"ENST00000341247.9","LIMA1-201","ENST00000552491.5","LIMA1-212",0.671005754436601,-0.634136447863783
"ENSG00000069849.11","ATP1B3",4,"PID_ECADHERIN_NASCENT_AJ_PATHWAY",1.10201346019429,FALSE,4,4,0,"ENST00000286371.8","ATP1B3-201","ENST00000462082.1","ATP1B3-202",0.570971662110789,-0.531041798083501
"ENSG00000072042.13","RDH11",4,"CYCLIN_D1_KE_.V1_UP",1.09002347821498,FALSE,1,0,4,"ENST00000381346.9","RDH11-201","ENST00000553384.5","RDH11-203",0.562176689845325,-0.527846788369652
"ENSG00000082996.20","RNF13",4,"TBK1.DF_DN",1.14879065977322,FALSE,3,4,0,"ENST00000392894.8","RNF13-203","ENST00000361785.10","RNF13-202",0.537143993782083,-0.611646665991134
"ENSG00000083896.13","YTHDC1",4,"EIF4E_UP",1.17832537742395,FALSE,0,0,0,"ENST00000579690.5","YTHDC1-207","ENST00000355665.7","YTHDC1-202",0.654987464787215,-0.52333791263673
"ENSG00000100983.12","GSS",4,"PID_ERBB1_DOWNSTREAM_PATHWAY",1.17917869935244,FALSE,0,4,0,"ENST00000651619.1","GSS-228","ENST00000646735.1","GSS-226",0.642621213222702,-0.536557486129734
"ENSG00000104067.17","TJP1",4,"SRC_UP.V1_UP",1.26594134488253,FALSE,0,0,4,"ENST00000400011.6","TJP1-204","ENST00000545208.6","TJP1-209",0.545502497931913,-0.720438846950616
"ENSG00000104973.19","MED25",4,"PID_CERAMIDE_PATHWAY",1.17569864606687,FALSE,1,0,0,"ENST00000312865.10","MED25-201","ENST00000593767.3","MED25-205",0.665710074794032,-0.509988571272833
"ENSG00000105707.15","HPN",4,"PID_PS1_PATHWAY",1.16650683669896,FALSE,0,2,0,"ENST00000672452.2","HPN-210","ENST00000597419.1","HPN-206",0.615731789912051,-0.550775046786914
"ENSG00000108021.20","TASOR2",4,"SRC_UP.V1_UP",1.16640011683646,FALSE,0,0,4,"ENST00000328090.9","TASOR2-201","ENST00000645567.1","TASOR2-213",0.521319985780913,-0.645080131055543
"ENSG00000108100.18","CCNY",4,"EIF4E_UP",1.17228399565881,FALSE,0,2,1,"ENST00000374706.5","CCNY-204","ENST00000374704.8","CCNY-203",0.560877058393376,-0.611406937265437
"ENSG00000115761.16","NOL10",4,"BCAT_BILD_ET_AL_DN",1.14985268335137,FALSE,0,4,1,"ENST00000381685.10","NOL10-202","ENST00000345985.7","NOL10-201",0.598649322309048,-0.551203361042323
"ENSG00000116731.23","PRDM2",4,"TBK1.DF_DN",1.28754092774688,FALSE,1,2,4,"ENST00000343137.8","PRDM2-203","ENST00000376048.9","PRDM2-204",0.507256447307805,-0.780284480439075
"ENSG00000117114.21","ADGRL2",4,"SRC_UP.V1_UP",1.27779106609043,FALSE,0,2,4,"ENST00000402328.2","ADGRL2-212","ENST00000359929.7","ADGRL2-202",0.585444745148176,-0.69234632094225
"ENSG00000124214.21","STAU1",4,"TBK1.DF_DN",1.22927168523058,FALSE,1,4,3,"ENST00000360426.8","STAU1-203","ENST00000371828.7","STAU1-206",0.572941722394883,-0.656329962835695
"ENSG00000127980.16","PEX1",4,"BCAT_BILD_ET_AL_DN",1.2807508354023,FALSE,0,4,4,"ENST00000248633.9","PEX1-201","ENST00000438045.5","PEX1-204",0.606912355358514,-0.673838480043783
"ENSG00000133612.19","AGAP3",4,"PID_MET_PATHWAY",1.1734534011974,FALSE,2,4,0,"ENST00000622464.4","AGAP3-226","ENST00000461065.1","AGAP3-203",0.623648708996846,-0.549804692200554
"ENSG00000135049.16","AGTPBP1",4,"HALLMARK_MITOTIC_SPINDLE",1.14891333756054,FALSE,0,4,2,"ENST00000357081.8","AGTPBP1-202","ENST00000376083.7","AGTPBP1-205",0.565947660679367,-0.582965676881174
"ENSG00000136167.15","LCP1",4,"PGF_UP.V1_UP",1.09584463388157,FALSE,2,4,0,"ENST00000323076.7","LCP1-201","ENST00000674665.1","LCP1-208",0.542496506028056,-0.55334812785351
"ENSG00000136490.9","LIMD2",4,"SIRNA_EIF4GI_UP",1.08456346069486,FALSE,0,0,0,"ENST00000583211.5","LIMD2-211","ENST00000259006.8","LIMD2-201",0.534393593829209,-0.550169866865655
"ENSG00000137177.20","KIF13A",4,"TBK1.DF_DN",1.14250906190132,FALSE,2,4,1,"ENST00000378814.9","KIF13A-203","ENST00000502297.5","KIF13A-206",0.534849008792972,-0.60766005310835
"ENSG00000139154.16","AEBP2",4,"PID_MTOR_4PATHWAY",1.12811171789396,FALSE,0,1,0,"ENST00000360995.8","AEBP2-202","ENST00000398864.7","AEBP2-204",0.559244351988231,-0.568867365905732
"ENSG00000139746.16","RBM26",4,"BCAT_BILD_ET_AL_DN",1.21618255710093,FALSE,0,4,2,"ENST00000267229.11","RBM26-201","ENST00000438724.5","RBM26-202",0.541006910236462,-0.675175646864472
"ENSG00000140691.18","ARMC5",4,"PID_PS1_PATHWAY",1.16742201727534,FALSE,1,3,0,"ENST00000268314.9","ARMC5-201","ENST00000564900.1","ARMC5-206",0.633127697783116,-0.534294319492226
"ENSG00000141295.14","SCRN2",4,"LTE2_UP.V1_UP",1.16076694323773,FALSE,4,0,0,"ENST00000290216.14","SCRN2-201","ENST00000407215.7","SCRN2-202",0.609383825549989,-0.551383117687745
"ENSG00000152234.16","ATP5F1A",4,"BCAT_BILD_ET_AL_DN",1.09925059665155,FALSE,0,4,1,"ENST00000282050.6","ATP5F1A-201","ENST00000590665.5","ATP5F1A-215",0.511659303535696,-0.587591293115851
"ENSG00000158290.19","CUL4B",4,"TBK1.DF_DN",1.24110080444707,FALSE,2,4,3,"ENST00000336592.11","CUL4B-201","ENST00000371323.3","CUL4B-203",0.618758579614831,-0.622342224832236
"ENSG00000159352.16","PSMD4",4,"PID_MET_PATHWAY",1.12535666054939,FALSE,2,2,0,"ENST00000368884.8","PSMD4-202","ENST00000445776.1","PSMD4-205",0.624274934345214,-0.501081726204176
"ENSG00000161395.14","PGAP3",4,"TBK1.DF_DN",1.35781440742943,FALSE,3,4,2,"ENST00000300658.9","PGAP3-201","ENST00000619169.4","PGAP3-211",0.676384722186321,-0.681429685243113
"ENSG00000165629.20","ATP5F1C",4,"HALLMARK_MYOGENESIS",1.28856443935195,FALSE,1,2,2,"ENST00000335698.4","ATP5F1C-201","ENST00000356708.12","ATP5F1C-202",0.741939733085919,-0.546624706266032
"ENSG00000166925.9","TSC22D4",4,"PID_ERBB2_ERBB3_PATHWAY",1.18720640120336,FALSE,0,2,0,"ENST00000300181.7","TSC22D4-201","ENST00000393991.5","TSC22D4-202",0.652297393696687,-0.534909007506669
"ENSG00000167716.19","WDR81",4,"PID_CDC42_PATHWAY",1.07934986318975,FALSE,2,4,0,"ENST00000409644.6","WDR81-202","ENST00000437219.6","WDR81-205",0.561594909911772,-0.517754953277977
"ENSG00000168209.6","DDIT4",4,"CAMP_UP.V1_UP",1.18937516097175,FALSE,0,0,4,"ENST00000307365.4","DDIT4-201","ENST00000681898.1","DDIT4-205",0.612551586496781,-0.576823574474972
"ENSG00000168234.13","TTC39C",4,"HALLMARK_PROTEIN_SECRETION",1.14900359828815,FALSE,1,2,0,"ENST00000317571.8","TTC39C-202","ENST00000540918.2","TTC39C-203",0.606747812772474,-0.54225578551568
"ENSG00000172765.18","TMCC1",4,"TBK1.DF_DN",1.1433179991233,FALSE,0,4,2,"ENST00000393238.8","TMCC1-201","ENST00000426664.6","TMCC1-202",0.561243023870023,-0.582074975253274
"ENSG00000174485.16","DENND4A",4,"HALLMARK_MITOTIC_SPINDLE",1.16941965600394,FALSE,1,4,1,"ENST00000431932.6","DENND4A-201","ENST00000443035.8","DENND4A-202",0.566504037291219,-0.602915618712718
"ENSG00000174516.15","PELI3",4,"PID_ERBB1_DOWNSTREAM_PATHWAY",1.04855527885876,FALSE,0,4,0,"ENST00000320740.12","PELI3-201","ENST00000528752.1","PELI3-206",0.537207822222007,-0.511347456636749
"ENSG00000175193.14","PARL",4,"TBK1.DF_DN",1.14456790531731,FALSE,3,4,0,"ENST00000317096.9","PARL-202","ENST00000417784.5","PARL-203",0.542407025325905,-0.602160879991409
"ENSG00000176945.18","MUC20",4,"JAK2_DN.V1_DN",1.19087375177249,FALSE,3,1,0,"ENST00000436408.6","MUC20-202","ENST00000447234.7","MUC20-204",0.588119720083217,-0.602754031689273
"ENSG00000179855.9","GIPC3",4,"CAMP_UP.V1_UP",1.0789680683201,FALSE,0,0,3,"ENST00000644452.3","GIPC3-201","ENST00000644946.1","GIPC3-202",0.549272034892334,-0.529696033427762
"ENSG00000181220.18","ZNF746",4,"SRC_UP.V1_UP",1.30763694339355,FALSE,0,0,3,"ENST00000340622.8","ZNF746-201","ENST00000461958.2","ZNF746-203",0.549701512017403,-0.757935431376144
"ENSG00000181896.12","ZNF101",4,"PID_P38_MKK3_6PATHWAY",1.21149567639401,FALSE,0,0,3,"ENST00000592502.2","ZNF101-208","ENST00000444249.6","ZNF101-204",0.628382326288738,-0.583113350105273
"ENSG00000182518.14","FAM104B",4,"HALLMARK_DNA_REPAIR",1.23169791844107,FALSE,0,4,4,"ENST00000489298.1","FAM104B-207","ENST00000685693.1","FAM104B-208",0.547486767170944,-0.684211151270122
"ENSG00000186591.13","UBE2H",4,"pseudotime",1.09947058634198,TRUE,0,0,0,"ENST00000355621.8","UBE2H-201","ENST00000649897.1","UBE2H-210",0.546673626198583,-0.552796960143392
"ENSG00000186635.15","ARAP1",4,"TBK1.DF_DN",1.29704795795704,FALSE,1,4,4,"ENST00000334211.12","ARAP1-201","ENST00000455638.6","ARAP1-209",0.698021245546772,-0.599026712410272
"ENSG00000197905.10","TEAD4",4,"PID_ERBB1_DOWNSTREAM_PATHWAY",1.07138837689275,FALSE,0,4,0,"ENST00000359864.8","TEAD4-202","ENST00000397122.6","TEAD4-203",0.551900605627914,-0.51948777126484
"ENSG00000204262.14","COL5A2",4,"PID_MET_PATHWAY",1.07418804068994,FALSE,0,3,0,"ENST00000374866.9","COL5A2-201","ENST00000618828.1","COL5A2-203",0.538052554294199,-0.536135486395745
"ENSG00000240682.10","ISY1",4,"TBK1.DF_DN",1.21868111451119,FALSE,4,4,3,"ENST00000273541.12","ISY1-201","ENST00000393295.8","ISY1-203",0.562529330941704,-0.656151783569483
"ENSG00000242028.8","HYPK",4,"JAK2_DN.V1_DN",1.34087123750591,FALSE,4,1,0,"ENST00000406925.6","HYPK-201","ENST00000442995.4","HYPK-202",0.702025420331693,-0.638845817174214
"ENSG00000243156.9","MICAL3",4,"PID_ECADHERIN_NASCENT_AJ_PATHWAY",1.15892657373501,FALSE,2,4,0,"ENST00000441493.7","MICAL3-206","ENST00000461307.5","MICAL3-207",0.609314620950485,-0.549611952784529
"ENSG00000005486.17","RHBDD2",3,"TBK1.DF_DN",1.19036756252107,FALSE,3,3,0,"ENST00000006777.11","RHBDD2-201","ENST00000428119.1","RHBDD2-203",0.566987883980155,-0.623379678540912
"ENSG00000010278.15","CD9",3,"PID_ERBB1_DOWNSTREAM_PATHWAY",1.11582270331019,FALSE,0,3,0,"ENST00000009180.10","CD9-201","ENST00000646407.1","CD9-216",0.609004305006271,-0.50681839830392
"ENSG00000011347.10","SYT7",3,"HALLMARK_PROTEIN_SECRETION",1.20265372793365,FALSE,3,3,2,"ENST00000263846.8","SYT7-201","ENST00000539008.6","SYT7-203",0.5966506191655,-0.60600310876815
"ENSG00000012048.23","BRCA1",3,"TBK1.DF_DN",1.24088073475698,FALSE,0,3,0,"ENST00000357654.9","BRCA1-203","ENST00000352993.7","BRCA1-201",0.533250674479101,-0.707630060277876
"ENSG00000020181.18","ADGRA2",3,"PID_MET_PATHWAY",1.08872337961931,FALSE,0,3,0,"ENST00000412232.3","ADGRA2-202","ENST00000315215.11","ADGRA2-201",0.553318237360303,-0.535405142259004
"ENSG00000065154.12","OAT",3,"PID_ERBB1_INTERNALIZATION_PATHWAY",1.14639111926304,FALSE,0,3,0,"ENST00000368845.6","OAT-201","ENST00000539214.5","OAT-208",0.575815511557426,-0.570575607705612
"ENSG00000072062.15","PRKACA",3,"EIF4E_UP",1.2222644103518,FALSE,0,3,0,"ENST00000677951.1","PRKACA-211","ENST00000308677.9","PRKACA-201",0.672956898597529,-0.549307511754273
"ENSG00000072415.10","PALS1",3,"SRC_UP.V1_UP",1.16963432249996,FALSE,0,1,3,"ENST00000555925.5","PALS1-203","ENST00000261681.9","PALS1-201",0.547905980100332,-0.621728342399625
"ENSG00000075975.17","MKRN2",3,"PID_ERBB1_DOWNSTREAM_PATHWAY",1.12363027611226,FALSE,3,3,0,"ENST00000170447.12","MKRN2-201","ENST00000677142.1","MKRN2-208",0.604452372182946,-0.519177903929311
"ENSG00000076248.11","UNG",3,"PID_IGF1_PATHWAY",1.08440997824533,FALSE,0,1,0,"ENST00000336865.6","UNG-202","ENST00000242576.7","UNG-201",0.556580579658718,-0.527829398586612
"ENSG00000084093.19","REST",3,"EIF4E_UP",1.1721957586629,FALSE,0,3,0,"ENST00000675341.1","REST-212","ENST00000309042.12","REST-201",0.626948377556566,-0.545247381106335
"ENSG00000084774.14","CAD",3,"SRC_UP.V1_UP",1.16155816182362,FALSE,0,1,3,"ENST00000403525.5","CAD-202","ENST00000264705.9","CAD-201",0.57689820234722,-0.5846599594764
"ENSG00000088387.21","DOCK9",3,"TBK1.DF_DN",1.16734260995563,FALSE,2,3,0,"ENST00000682017.1","DOCK9-218","ENST00000400228.6","DOCK9-204",0.57396611697582,-0.593376492979806
"ENSG00000088448.14","ANKRD10",3,"PID_ERBB1_INTERNALIZATION_PATHWAY",1.09942471871013,FALSE,0,2,0,"ENST00000267339.6","ANKRD10-201","ENST00000310847.8","ANKRD10-202",0.507766662201259,-0.591658056508873
"ENSG00000096717.12","SIRT1",3,"SRC_UP.V1_UP",1.10090098475382,FALSE,1,3,2,"ENST00000406900.5","SIRT1-203","ENST00000212015.11","SIRT1-201",0.557556450434783,-0.543344534319041
"ENSG00000100029.18","PES1",3,"PID_ERBB1_INTERNALIZATION_PATHWAY",1.11542334877676,FALSE,0,3,0,"ENST00000354694.12","PES1-202","ENST00000441668.5","PES1-208",0.512306219979351,-0.603117128797407
"ENSG00000100083.19","GGA1",3,"PID_ERBB1_RECEPTOR_PROXIMAL_PATHWAY",1.11905931796514,FALSE,0,3,0,"ENST00000343632.9","GGA1-203","ENST00000325180.12","GGA1-201",0.547830033432972,-0.571229284532168
"ENSG00000100365.16","NCF4",3,"LTE2_UP.V1_UP",1.11679112455695,FALSE,3,0,0,"ENST00000248899.11","NCF4-201","ENST00000397147.7","NCF4-202",0.611040968769571,-0.505750155787379
"ENSG00000100836.11","PABPN1",3,"JAK2_DN.V1_DN",1.47463296815258,FALSE,3,1,0,"ENST00000397276.6","PABPN1-202","ENST00000216727.9","PABPN1-201",0.676924853649922,-0.797708114502659
"ENSG00000102871.16","TRADD",3,"RB_P130_DN.V1_DN",1.04954979053325,FALSE,3,0,0,"ENST00000345057.9","TRADD-201","ENST00000486556.1","TRADD-202",0.505553378942445,-0.543996411590806
"ENSG00000106799.13","TGFBR1",3,"TBK1.DF_DN",1.18331393255311,FALSE,0,3,1,"ENST00000552516.5","TGFBR1-209","ENST00000374994.9","TGFBR1-202",0.629551941293963,-0.553761991259144
"ENSG00000107554.17","DNMBP",3,"EIF4E_UP",1.20274581441799,FALSE,0,3,1,"ENST00000543621.6","DNMBP-203","ENST00000324109.9","DNMBP-201",0.644137239396613,-0.558608575021374
"ENSG00000108423.15","TUBD1",3,"HALLMARK_PROTEIN_SECRETION",1.10921940806689,FALSE,3,3,0,"ENST00000325752.8","TUBD1-201","ENST00000346141.10","TUBD1-203",0.543697951917566,-0.565521456149324
"ENSG00000112576.13","CCND3",3,"HALLMARK_MITOTIC_SPINDLE",1.18195035984593,FALSE,0,0,1,"ENST00000372991.9","CCND3-203","ENST00000415497.6","CCND3-205",0.580102586733651,-0.601847773112276
"ENSG00000115652.15","UXS1",3,"TBK1.DF_DN",1.10438023308097,FALSE,1,3,1,"ENST00000409501.7","UXS1-203","ENST00000283148.12","UXS1-201",0.573853821064399,-0.530526412016574
"ENSG00000116138.13","DNAJC16",3,"TBK1.DF_DN",1.16200447734091,FALSE,0,3,3,"ENST00000375847.8","DNAJC16-202","ENST00000616884.4","DNAJC16-210",0.611015639790762,-0.550988837550144
"ENSG00000121210.16","TMEM131L",3,"TBK1.DF_DN",1.22629686158773,FALSE,0,2,3,"ENST00000409959.8","TMEM131L-203","ENST00000240487.5","TMEM131L-201",0.547184711160642,-0.679112150427086
"ENSG00000122786.20","CALD1",3,"PID_BMP_PATHWAY",1.18289163835862,TRUE,1,2,0,"ENST00000361675.7","CALD1-201","ENST00000361901.6","CALD1-202",0.671097063388298,-0.511794574970326
"ENSG00000124422.12","USP22",3,"HALLMARK_MITOTIC_SPINDLE",1.13194260339373,FALSE,1,3,1,"ENST00000261497.9","USP22-201","ENST00000537526.6","USP22-206",0.554541812263462,-0.577400791130272
"ENSG00000124795.17","DEK",3,"SRC_UP.V1_UP",1.27003920035805,FALSE,0,1,1,"ENST00000651624.1","DEK-208","ENST00000652576.1","DEK-211",0.54403984554405,-0.725999354814001
"ENSG00000125912.11","NCLN",3,"TBK1.DF_DN",1.13511520769017,FALSE,3,3,0,"ENST00000246117.9","NCLN-201","ENST00000592737.5","NCLN-208",0.52918543683376,-0.60592977085641
"ENSG00000129235.11","TXNDC17",3,"EIF4E_UP",1.13286097456841,FALSE,0,2,2,"ENST00000570330.5","TXNDC17-202","ENST00000250101.10","TXNDC17-201",0.626906029557927,-0.505954945010488
"ENSG00000131238.18","PPT1",3,"PID_CDC42_PATHWAY",1.09461542785021,FALSE,1,3,0,"ENST00000642050.2","PPT1-219","ENST00000530076.6","PPT1-209",0.547697783961088,-0.546917643889122
"ENSG00000136859.10","ANGPTL2",3,"PID_MET_PATHWAY",1.06371659626796,FALSE,2,3,0,"ENST00000373425.8","ANGPTL2-202","ENST00000373417.1","ANGPTL2-201",0.541686396131212,-0.522030200136752
"ENSG00000137055.15","PLAA",3,"SRC_UP.V1_UP",1.18694440148552,FALSE,0,3,2,"ENST00000397292.8","PLAA-201","ENST00000520884.5","PLAA-205",0.629835491361987,-0.55710891012353
"ENSG00000138073.14","PREB",3,"PID_ERBB1_INTERNALIZATION_PATHWAY",1.06562632049357,FALSE,1,3,0,"ENST00000260643.7","PREB-201","ENST00000456259.5","PREB-207",0.510579996004332,-0.555046324489235
"ENSG00000138640.15","FAM13A",3,"PID_AR_TF_PATHWAY",1.13127826921988,FALSE,1,3,0,"ENST00000264344.10","FAM13A-201","ENST00000395002.6","FAM13A-202",0.595902294028192,-0.535375975191684
"ENSG00000139055.7","ERP27",3,"SRC_UP.V1_UP",1.05591008095923,FALSE,0,0,3,"ENST00000266397.7","ERP27-201","ENST00000540097.1","ERP27-202",0.513157006718253,-0.542753074240974
"ENSG00000143324.14","XPR1",3,"TBK1.DF_DN",1.25229211442686,FALSE,3,3,1,"ENST00000367589.3","XPR1-201","ENST00000367590.9","XPR1-202",0.635888915811685,-0.616403198615179
"ENSG00000148842.18","CNNM2",3,"LTE2_UP.V1_UP",1.0682930246808,FALSE,2,0,0,"ENST00000433628.2","CNNM2-203","ENST00000369878.9","CNNM2-202",0.533581566582349,-0.534711458098456
"ENSG00000153896.19","ZNF599",3,"BCAT_BILD_ET_AL_DN",1.22983473798024,FALSE,0,3,3,"ENST00000587354.6","ZNF599-202","ENST00000588760.1","ZNF599-203",0.579373103833682,-0.650461634146561
"ENSG00000158201.10","ABHD3",3,"LTE2_UP.V1_UP",1.1395420120804,FALSE,3,0,0,"ENST00000289119.7","ABHD3-201","ENST00000578270.5","ABHD3-205",0.579657967976264,-0.559884044104141
"ENSG00000161013.17","MGAT4B",3,"PID_SMAD2_3PATHWAY",1.18923751446826,FALSE,0,1,2,"ENST00000292591.12","MGAT4B-201","ENST00000518778.5","MGAT4B-205",0.581682045668926,-0.60755546879933
"ENSG00000161921.17","CXCL16",3,"PID_BETA_CATENIN_DEG_PATHWAY",1.0593253739134,FALSE,0,3,0,"ENST00000293778.12","CXCL16-201","ENST00000576153.5","CXCL16-205",0.532785278888953,-0.526540095024444
"ENSG00000163629.13","PTPN13",3,"TBK1.DF_DN",1.17326142152966,FALSE,1,3,2,"ENST00000511467.1","PTPN13-209","ENST00000316707.10","PTPN13-201",0.567229812560363,-0.6060316089693
"ENSG00000163864.17","NMNAT3",3,"CAMP_UP.V1_UP",1.23019452243421,FALSE,0,0,0,"ENST00000339837.9","NMNAT3-202","ENST00000645507.1","NMNAT3-219",0.512478031264439,-0.717716491169769
"ENSG00000164414.19","SLC35A1",3,"HALLMARK_PROTEIN_SECRETION",1.12342873621912,FALSE,3,2,2,"ENST00000369552.9","SLC35A1-201","ENST00000369557.9","SLC35A1-203",0.572356747469698,-0.551071988749419
"ENSG00000167461.12","RAB8A",3,"TBK1.DF_DN",1.12542428462103,FALSE,1,2,2,"ENST00000586682.1","RAB8A-202","ENST00000300935.8","RAB8A-201",0.569940687493704,-0.555483597127328
"ENSG00000167548.18","KMT2D",3,"BCAT_BILD_ET_AL_DN",1.12406736813361,FALSE,0,3,0,"ENST00000692637.1","KMT2D-233","ENST00000691932.1","KMT2D-230",0.503628115629417,-0.620439252504198
"ENSG00000167566.17","NCKAP5L",3,"HALLMARK_PROTEIN_SECRETION",1.13646855303598,FALSE,3,3,0,"ENST00000335999.7","NCKAP5L-201","ENST00000433948.5","NCKAP5L-202",0.57432555308937,-0.562142999946612
"ENSG00000167964.13","RAB26",3,"PID_PI3KCI_AKT_PATHWAY",1.12197774622,FALSE,0,2,0,"ENST00000210187.11","RAB26-201","ENST00000566724.1","RAB26-207",0.587523215474992,-0.534454530745006
"ENSG00000167985.7","SDHAF2",3,"TBK1.DF_DN",1.16465114812007,FALSE,0,3,2,"ENST00000301761.7","SDHAF2-201","ENST00000542074.1","SDHAF2-206",0.547254596006891,-0.617396552113182
"ENSG00000168291.13","PDHB",3,"PID_MTOR_4PATHWAY",1.07886365252299,FALSE,0,0,1,"ENST00000302746.11","PDHB-201","ENST00000383714.8","PDHB-202",0.552156664850577,-0.526706987672417
"ENSG00000169764.16","UGP2",3,"PID_ECADHERIN_NASCENT_AJ_PATHWAY",1.10824796315507,FALSE,1,3,0,"ENST00000394417.7","UGP2-202","ENST00000445915.6","UGP2-203",0.602288606671512,-0.505959356483556
"ENSG00000169951.10","ZNF764",3,"PID_MTOR_4PATHWAY",1.06831015592561,FALSE,0,1,0,"ENST00000395091.3","ZNF764-202","ENST00000252797.6","ZNF764-201",0.540443911934621,-0.527866243990991
"ENSG00000171843.17","MLLT3",3,"SRC_UP.V1_UP",1.07491285916494,FALSE,0,3,0,"ENST00000629733.3","MLLT3-208","ENST00000630269.2","MLLT3-209",0.52803171348205,-0.546881145682886
"ENSG00000172340.15","SUCLG2",3,"BCAT_BILD_ET_AL_DN",1.05271985244492,FALSE,1,3,0,"ENST00000307227.10","SUCLG2-201","ENST00000460567.5","SUCLG2-202",0.506810006824763,-0.545909845620161
"ENSG00000174840.9","PDE12",3,"EIF4E_UP",1.06794650953543,FALSE,0,2,1,"ENST00000311180.9","PDE12-201","ENST00000487257.1","PDE12-202",0.533973254767715,-0.533973254767715
"ENSG00000175106.17","TVP23C",3,"HALLMARK_PROTEIN_SECRETION",1.15910341036471,FALSE,1,2,2,"ENST00000428082.6","TVP23C-203","ENST00000225576.7","TVP23C-201",0.525224384791761,-0.633879025572951
"ENSG00000176018.13","LYSMD3",3,"BCAT_BILD_ET_AL_DN",1.09070438753259,FALSE,0,3,0,"ENST00000315948.11","LYSMD3-201","ENST00000500869.6","LYSMD3-203",0.531903833097677,-0.558800554434909
"ENSG00000179218.15","CALR",3,"PID_MET_PATHWAY",1.09547054296869,FALSE,0,3,0,"ENST00000316448.10","CALR-201","ENST00000588454.6","CALR-206",0.593251953614413,-0.502218589354272
"ENSG00000182175.15","RGMA",3,"BCAT_BILD_ET_AL_UP",1.05276198268958,FALSE,0,0,0,"ENST00000542321.6","RGMA-203","ENST00000329082.12","RGMA-201",0.545712559771812,-0.507049422917765
"ENSG00000182718.18","ANXA2",3,"PID_PS1_PATHWAY",1.07177795964526,FALSE,0,3,0,"ENST00000451270.7","ANXA2-204","ENST00000332680.8","ANXA2-201",0.56041976068666,-0.511358198958595
"ENSG00000182963.11","GJC1",3,"SRC_UP.V1_UP",1.26607706431685,FALSE,0,0,3,"ENST00000587113.1","GJC1-204","ENST00000330514.4","GJC1-201",0.545747810377841,-0.720329253939009
"ENSG00000184216.14","IRAK1",3,"PID_MTOR_4PATHWAY",1.17810485792417,FALSE,0,0,0,"ENST00000369980.8","IRAK1-203","ENST00000369974.6","IRAK1-202",0.670489346367501,-0.507615511556668
"ENSG00000184254.17","ALDH1A3",3,"PID_ERBB1_INTERNALIZATION_PATHWAY",1.07170265171244,FALSE,1,3,0,"ENST00000329841.10","ALDH1A3-201","ENST00000346623.6","ALDH1A3-202",0.549731602210087,-0.52197104950235
"ENSG00000185261.15","KIAA0825",3,"GCNP_SHH_UP_LATE.V1_DN",1.05967208606429,FALSE,0,0,0,"ENST00000682413.1","KIAA0825-204","ENST00000513200.7","KIAA0825-203",0.52705810265957,-0.532613983404718
"ENSG00000185798.8","WDR53",3,"TBK1.DF_DN",1.13624208594919,FALSE,1,3,0,"ENST00000332629.7","WDR53-201","ENST00000429115.1","WDR53-203",0.533593858433781,-0.602648227515414
"ENSG00000185946.16","RNPC3",3,"EIF4E_UP",1.20676084380475,FALSE,2,0,3,"ENST00000423855.7","RNPC3-201","ENST00000531883.5","RNPC3-206",0.608128612445733,-0.59863223135902
"ENSG00000186376.15","ZNF75D",3,"TBK1.DF_DN",1.14088864489469,FALSE,2,3,0,"ENST00000370766.8","ZNF75D-202","ENST00000370764.1","ZNF75D-201",0.591746855293687,-0.549141789601005
"ENSG00000189079.17","ARID2",3,"EIF4E_UP",1.25670208949312,FALSE,0,3,3,"ENST00000457135.1","ARID2-206","ENST00000422737.6","ARID2-202",0.573581165979643,-0.683120923513472
"ENSG00000196411.10","EPHB4",3,"PID_ERBB1_INTERNALIZATION_PATHWAY",1.09155333662498,FALSE,0,3,0,"ENST00000358173.8","EPHB4-201","ENST00000616502.4","EPHB4-210",0.513641510622969,-0.577911826002015
"ENSG00000196821.10","ILRUN",3,"PID_ERBB1_INTERNALIZATION_PATHWAY",1.12936916903193,FALSE,0,3,0,"ENST00000374023.8","ILRUN-202","ENST00000374026.7","ILRUN-203",0.567389162432505,-0.561980006599424
"ENSG00000196967.11","ZNF585A",3,"BCAT_BILD_ET_AL_DN",1.26461701715669,FALSE,0,3,2,"ENST00000356958.8","ZNF585A-202","ENST00000588354.1","ZNF585A-205",0.581355305164918,-0.683261711991776
"ENSG00000204209.13","DAXX",3,"PID_ERBB1_INTERNALIZATION_PATHWAY",1.1262879528813,FALSE,0,3,0,"ENST00000374542.10","DAXX-202","ENST00000414083.6","DAXX-203",0.558610083830685,-0.567677869050613
"ENSG00000205268.11","PDE7A",3,"PID_ERBB1_INTERNALIZATION_PATHWAY",1.12782973458728,FALSE,1,3,0,"ENST00000379419.8","PDE7A-201","ENST00000401827.8","PDE7A-203",0.561271653633921,-0.566558080953357
"ENSG00000214654.9","B3GALT9",3,"TBK1.DF_DN",1.15749546980139,FALSE,0,3,0,"ENST00000437707.2","B3GALT9-201","ENST00000689072.1","B3GALT9-204",0.542506866726274,-0.614988603075112
"ENSG00000271383.8","NBPF19",3,"BCAT_BILD_ET_AL_UP",1.12091039250074,FALSE,0,0,0,"ENST00000612881.4","NBPF19-204","ENST00000651566.2","NBPF19-205",0.6177087173888,-0.503201675111938
"ENSG00000005810.19","MYCBP2",2,"SRC_UP.V1_UP",1.19021015001929,FALSE,0,1,1,"ENST00000429715.1","MYCBP2-202","ENST00000544440.7","MYCBP2-208",0.649657025732916,-0.540553124286371
"ENSG00000006118.15","TMEM132A",2,"HALLMARK_PROTEIN_SECRETION",1.10565437335668,FALSE,1,1,0,"ENST00000453848.7","TMEM132A-202","ENST00000540112.1","TMEM132A-210",0.521664976758329,-0.583989396598356
"ENSG00000011451.21","WIZ",2,"PID_FAK_PATHWAY",1.06712415285907,FALSE,0,2,0,"ENST00000545156.5","WIZ-203","ENST00000389282.8","WIZ-202",0.507596879376651,-0.559527273482422
"ENSG00000027697.15","IFNGR1",2,"TBK1.DF_DN",1.08864784693496,FALSE,1,2,1,"ENST00000367739.9","IFNGR1-201","ENST00000645753.1","IFNGR1-209",0.549983685277218,-0.538664161657745
"ENSG00000037757.14","MRI1",2,"HALLMARK_PROTEIN_SECRETION",1.05380242773377,FALSE,2,2,0,"ENST00000040663.8","MRI1-201","ENST00000319545.12","MRI1-202",0.551800319799951,-0.502002107933818
"ENSG00000044115.21","CTNNA1",2,"PID_CDC42_REG_PATHWAY",1.07638490033528,FALSE,0,2,0,"ENST00000302763.12","CTNNA1-201","ENST00000540387.5","CTNNA1-243",0.528170813953946,-0.54821408638133
"ENSG00000058799.15","YIPF1",2,"TBK1.DF_DN",1.10255933260891,FALSE,0,2,2,"ENST00000072644.7","YIPF1-201","ENST00000371399.5","YIPF1-202",0.536830660907518,-0.565728671701394
"ENSG00000063244.13","U2AF2",2,"PID_CDC42_REG_PATHWAY",1.06345913263509,FALSE,1,2,0,"ENST00000450554.6","U2AF2-202","ENST00000308924.9","U2AF2-201",0.511138365781861,-0.552320766853232
"ENSG00000064687.13","ABCA7",2,"TBK1.DF_DN",1.07547709113074,FALSE,0,2,0,"ENST00000263094.11","ABCA7-201","ENST00000525073.6","ABCA7-206",0.572357300132218,-0.503119790998519
"ENSG00000070610.14","GBA2",2,"TBK1.DF_DN",1.13490545008023,FALSE,2,2,0,"ENST00000378103.7","GBA2-203","ENST00000378088.1","GBA2-201",0.50934749009917,-0.625557959981059
"ENSG00000070785.17","EIF2B3",2,"HALLMARK_MITOTIC_SPINDLE",1.08910886846193,FALSE,0,2,0,"ENST00000372183.7","EIF2B3-203","ENST00000360403.7","EIF2B3-201",0.579568246389495,-0.50954062207243
"ENSG00000071553.18","ATP6AP1",2,"TBK1.DF_DN",1.21391028410123,FALSE,1,2,2,"ENST00000369762.7","ATP6AP1-201","ENST00000619046.5","ATP6AP1-210",0.606507318032225,-0.607402966069006
"ENSG00000071575.12","TRIB2",2,"BCAT_BILD_ET_AL_DN",1.10114110527998,FALSE,0,2,0,"ENST00000155926.9","TRIB2-201","ENST00000381465.2","TRIB2-202",0.563674804286961,-0.537466300993014
"ENSG00000077238.14","IL4R",2,"TBK1.DF_DN",1.22010503266076,FALSE,2,2,0,"ENST00000395762.7","IL4R-202","ENST00000170630.6","IL4R-201",0.573255674668927,-0.646849357991829
"ENSG00000078674.19","PCM1",2,"EIF4E_UP",1.17944203959019,FALSE,0,1,2,"ENST00000522275.5","PCM1-214","ENST00000519253.5","PCM1-211",0.649550916137401,-0.529891123452793
"ENSG00000081791.9","DELE1",2,"EIF4E_UP",1.16052485752285,FALSE,0,1,1,"ENST00000507481.2","DELE1-205","ENST00000432126.7","DELE1-202",0.566821749343538,-0.593703108179309
"ENSG00000083312.19","TNPO1",2,"CAMP_UP.V1_UP",1.19648674520032,FALSE,0,0,2,"ENST00000337273.10","TNPO1-201","ENST00000506351.6","TNPO1-204",0.528199603774771,-0.668287141425547
"ENSG00000088038.19","CNOT3",2,"HALLMARK_PROTEIN_SECRETION",1.20500273921859,FALSE,2,2,0,"ENST00000221232.11","CNOT3-201","ENST00000617930.2","CNOT3-209",0.603439902888583,-0.601562836330004
"ENSG00000090238.12","YPEL3",2,"JAK2_DN.V1_DN",1.2663440421007,FALSE,2,0,0,"ENST00000398841.6","YPEL3-202","ENST00000398838.8","YPEL3-201",0.652374530134533,-0.613969511966163
"ENSG00000091831.25","ESR1",2,"HALLMARK_ESTROGEN_RESPONSE_LATE",1.17753164184063,FALSE,0,0,0,"ENST00000206249.8","ESR1-201","ENST00000427531.6","ESR1-206",0.521053748623909,-0.656477893216718
"ENSG00000099250.18","NRP1",2,"TBK1.DF_DN",1.06759891794797,FALSE,1,2,1,"ENST00000374867.7","NRP1-206","ENST00000374875.5","NRP1-207",0.522428471395684,-0.545170446552282
"ENSG00000099331.14","MYO9B",2,"TBK1.DF_DN",1.23290926687407,FALSE,2,2,0,"ENST00000397274.6","MYO9B-201","ENST00000597073.5","MYO9B-209",0.518057277398766,-0.714851989475306
"ENSG00000099998.19","GGT5",2,"PID_MET_PATHWAY",1.10665861480253,FALSE,0,2,0,"ENST00000327365.10","GGT5-202","ENST00000425408.5","GGT5-205",0.514505008679217,-0.592153606123317
"ENSG00000100038.20","TOP3B",2,"TBK1.DF_DN",1.22887711572608,FALSE,2,1,1,"ENST00000357179.10","TOP3B-201","ENST00000457270.5","TOP3B-214",0.557390138109345,-0.671486977616738
"ENSG00000100292.18","HMOX1",2,"PID_MET_PATHWAY",1.07719220318957,FALSE,0,2,0,"ENST00000216117.9","HMOX1-201","ENST00000678411.1","HMOX1-206",0.567200512014831,-0.509991691174739
"ENSG00000100528.12","CNIH1",2,"HALLMARK_DNA_REPAIR",1.16180986713927,FALSE,0,0,1,"ENST00000395573.8","CNIH1-202","ENST00000216416.9","CNIH1-201",0.516072422801188,-0.64573744433808
"ENSG00000100558.9","PLEK2",2,"PID_ECADHERIN_NASCENT_AJ_PATHWAY",1.0285533364855,FALSE,1,2,0,"ENST00000216446.9","PLEK2-201","ENST00000556532.1","PLEK2-205",0.506086380433255,-0.522466956052248
"ENSG00000101079.21","NDRG3",2,"PID_ERBB1_INTERNALIZATION_PATHWAY",1.0885573460322,FALSE,0,2,0,"ENST00000349004.6","NDRG3-201","ENST00000359675.6","NDRG3-202",0.526968293760191,-0.56158905227201
"ENSG00000101216.11","GMEB2",2,"TBK1.DF_DN",1.19817708836223,FALSE,2,2,1,"ENST00000370077.2","GMEB2-203","ENST00000370069.5","GMEB2-202",0.601404716941629,-0.596772371420602
"ENSG00000102057.10","KCND1",2,"PID_ERBB1_INTERNALIZATION_PATHWAY",1.09879375386858,FALSE,0,2,0,"ENST00000218176.4","KCND1-201","ENST00000376477.5","KCND1-202",0.552928032940661,-0.545865720927915
"ENSG00000103037.12","SETD6",2,"JAK2_DN.V1_DN",1.05627268751394,FALSE,1,0,0,"ENST00000219315.9","SETD6-201","ENST00000394266.8","SETD6-203",0.507885045357148,-0.548387642156792
"ENSG00000108669.17","CYTH1",2,"TBK1.DF_DN",1.15558023493742,FALSE,1,2,0,"ENST00000361101.8","CYTH1-201","ENST00000589296.5","CYTH1-209",0.59567375331389,-0.559906481623529
"ENSG00000109572.15","CLCN3",2,"EIF4E_UP",1.23668345899268,FALSE,0,0,2,"ENST00000613795.4","CLCN3-210","ENST00000513761.6","CLCN3-208",0.705725255196001,-0.530958203796679
"ENSG00000109917.11","ZPR1",2,"EIF4E_UP",1.19561129398293,FALSE,0,0,0,"ENST00000429220.5","ZPR1-204","ENST00000227322.8","ZPR1-201",0.688795661942947,-0.506815632039984
"ENSG00000111144.10","LTA4H",2,"PID_ERBB1_INTERNALIZATION_PATHWAY",1.11958784809404,FALSE,0,2,0,"ENST00000228740.7","LTA4H-201","ENST00000552789.5","LTA4H-209",0.530151688119677,-0.589436159974363
"ENSG00000111731.13","C2CD5",2,"HALLMARK_UV_RESPONSE_DN",1.07002651651596,FALSE,2,0,0,"ENST00000446597.6","C2CD5-203","ENST00000333957.8","C2CD5-201",0.511250286000791,-0.558776230515168
"ENSG00000113048.17","MRPS27",2,"TBK1.DF_DN",1.09900922854004,FALSE,1,2,1,"ENST00000261413.10","MRPS27-201","ENST00000457646.8","MRPS27-202",0.538503691879712,-0.560505536660331
"ENSG00000113621.15","TXNDC15",2,"PID_P38_MKK3_6PATHWAY",1.17203314108646,FALSE,0,0,2,"ENST00000358387.9","TXNDC15-201","ENST00000508779.1","TXNDC15-207",0.565740312944329,-0.606292828142129
"ENSG00000115594.12","IL1R1",2,"BCAT_BILD_ET_AL_DN",1.06069141191857,FALSE,0,2,0,"ENST00000410023.6","IL1R1-205","ENST00000409589.5","IL1R1-203",0.538173526802123,-0.522517885116447
"ENSG00000115661.14","STK16",2,"EIF4E_UP",1.07144538817751,FALSE,0,0,0,"ENST00000409516.7","STK16-203","ENST00000409638.7","STK16-204",0.535374608562454,-0.536070779615057
"ENSG00000116127.20","ALMS1",2,"EIF4E_UP",1.25716625328895,FALSE,0,1,2,"ENST00000651057.1","ALMS1-208","ENST00000484298.5","ALMS1-203",0.711213028249136,-0.545953225039819
"ENSG00000118369.13","USP35",2,"SRC_UP.V1_UP",1.19484214333357,FALSE,0,0,2,"ENST00000526425.1","USP35-201","ENST00000529308.6","USP35-203",0.525027452372014,-0.669814690961557
"ENSG00000119408.17","NEK6",2,"PID_SMAD2_3PATHWAY",1.13028685126983,FALSE,0,1,1,"ENST00000320246.10","NEK6-201","ENST00000394199.6","NEK6-205",0.510334171217591,-0.619952680052236
"ENSG00000120438.12","TCP1",2,"PID_ERBB1_RECEPTOR_PROXIMAL_PATHWAY",1.10394510652263,FALSE,1,2,0,"ENST00000392168.6","TCP1-202","ENST00000544255.5","TCP1-215",0.549072358032613,-0.554872748490018
"ENSG00000120948.19","TARDBP",2,"JAK2_DN.V1_DN",1.13440446794475,FALSE,1,1,0,"ENST00000240185.8","TARDBP-201","ENST00000315091.7","TARDBP-202",0.532221935786262,-0.602182532158485
"ENSG00000123130.17","ACOT9",2,"HALLMARK_MTORC1_SIGNALING",1.0481300874946,FALSE,0,0,0,"ENST00000336430.11","ACOT9-201","ENST00000379303.10","ACOT9-204",0.539179070580169,-0.508951016914433
"ENSG00000125434.11","SLC25A35",2,"HALLMARK_PROTEIN_SECRETION",1.29276090470442,FALSE,2,2,1,"ENST00000577745.2","SLC25A35-202","ENST00000380067.6","SLC25A35-201",0.666338336161799,-0.626422568542625
"ENSG00000125772.14","GPCPD1",2,"HALLMARK_PROTEIN_SECRETION",1.1897361174877,FALSE,2,2,0,"ENST00000379019.7","GPCPD1-201","ENST00000418646.5","GPCPD1-202",0.630618438547022,-0.559117678940674
"ENSG00000126254.12","RBM42",2,"STK33_DN",1.08171945073149,FALSE,0,0,0,"ENST00000262633.9","RBM42-201","ENST00000588161.5","RBM42-203",0.506099866668474,-0.575619584063019
"ENSG00000126653.18","NSRP1",2,"HALLMARK_PROTEIN_SECRETION",1.08658365730289,FALSE,2,2,0,"ENST00000247026.10","NSRP1-201","ENST00000612959.4","NSRP1-217",0.549159496699811,-0.537424160603083
"ENSG00000128789.21","PSMG2",2,"PID_MET_PATHWAY",1.1362516668146,FALSE,0,2,0,"ENST00000317615.11","PSMG2-201","ENST00000585331.6","PSMG2-204",0.601101092940114,-0.535150573874489
"ENSG00000129657.16","SEC14L1",2,"PID_PS1_PATHWAY",1.08667627848556,FALSE,0,0,0,"ENST00000436233.9","SEC14L1-204","ENST00000443798.8","SEC14L1-205",0.582990402830224,-0.503685875655334
"ENSG00000130340.17","SNX9",2,"TBK1.DF_DN",1.15286194463159,FALSE,1,2,0,"ENST00000679691.1","SNX9-204","ENST00000680495.1","SNX9-213",0.523592546104324,-0.629269398527268
"ENSG00000130589.16","HELZ2",2,"BCAT_BILD_ET_AL_DN",1.07837010341714,FALSE,0,2,0,"ENST00000467148.1","HELZ2-204","ENST00000427522.6","HELZ2-202",0.54700506659047,-0.531365036826673
"ENSG00000132024.18","CC2D1A",2,"PID_SMAD2_3PATHWAY",1.13857488449365,FALSE,0,2,1,"ENST00000318003.11","CC2D1A-201","ENST00000587508.1","CC2D1A-204",0.521268394351637,-0.617306490142016
"ENSG00000132405.19","TBC1D14",2,"SRC_UP.V1_UP",1.1283964610234,FALSE,1,2,0,"ENST00000446947.6","TBC1D14-206","ENST00000448507.5","TBC1D14-207",0.527415375264518,-0.600981085758879
"ENSG00000132423.12","COQ3",2,"PID_MTOR_4PATHWAY",1.12678624934179,FALSE,0,2,1,"ENST00000254759.8","COQ3-201","ENST00000369240.5","COQ3-202",0.567156632399828,-0.559629616941965
"ENSG00000134262.13","AP4B1",2,"TBK1.DF_DN",1.09618255331034,FALSE,1,2,0,"ENST00000256658.8","AP4B1-201","ENST00000369567.5","AP4B1-203",0.520588305612817,-0.575594247697522
"ENSG00000134504.14","KCTD1",2,"HALLMARK_MITOTIC_SPINDLE",1.17874581663492,FALSE,0,1,1,"ENST00000580059.7","KCTD1-207","ENST00000417602.5","KCTD1-203",0.623111060414389,-0.555634756220529
"ENSG00000134954.14","ETS1",2,"TBK1.DF_DN",1.15807929278104,FALSE,2,2,0,"ENST00000392668.8","ETS1-202","ENST00000535549.5","ETS1-208",0.549355806913054,-0.60872348586799
"ENSG00000135535.17","CD164",2,"PID_ERBB1_INTERNALIZATION_PATHWAY",1.08128305066084,FALSE,0,2,0,"ENST00000310786.10","CD164-202","ENST00000413644.6","CD164-204",0.525945119168443,-0.555337931492401
"ENSG00000135677.11","GNS",2,"PID_CDC42_PATHWAY",1.07078749305124,FALSE,1,2,0,"ENST00000258145.8","GNS-201","ENST00000418919.6","GNS-202",0.535748645235201,-0.535038847816043
"ENSG00000138443.17","ABI2",2,"PID_P75_NTR_PATHWAY",1.16570005009741,FALSE,0,0,0,"ENST00000261017.9","ABI2-202","ENST00000295851.10","ABI2-204",0.626949879824908,-0.538750170272501
"ENSG00000138606.20","SHF",2,"SRC_UP.V1_UP",1.22704937656657,FALSE,0,0,2,"ENST00000560540.5","SHF-207","ENST00000560471.5","SHF-206",0.511933589113851,-0.715115787452723
"ENSG00000142599.19","RERE",2,"EIF4E_UP",1.20559792724879,FALSE,0,1,0,"ENST00000377464.5","RERE-202","ENST00000400908.7","RERE-204",0.655046257057651,-0.550551670191138
"ENSG00000142910.16","TINAGL1",2,"PID_ECADHERIN_NASCENT_AJ_PATHWAY",1.04943663704464,FALSE,1,2,0,"ENST00000271064.12","TINAGL1-201","ENST00000537531.2","TINAGL1-211",0.546240701460676,-0.503195935583964
"ENSG00000143416.21","SELENBP1",2,"PID_ERBB1_RECEPTOR_PROXIMAL_PATHWAY",1.0421276451283,FALSE,0,1,0,"ENST00000368868.10","SELENBP1-201","ENST00000447402.7","SELENBP1-208",0.540374864239019,-0.501752780889281
"ENSG00000143643.13","TTC13",2,"TBK1.DF_DN",1.04281787820507,FALSE,0,2,2,"ENST00000366661.9","TTC13-201","ENST00000366662.8","TTC13-202",0.511107390622667,-0.531710487582407
"ENSG00000143970.18","ASXL2",2,"PID_ERBB1_RECEPTOR_PROXIMAL_PATHWAY",1.08426881229502,FALSE,1,2,0,"ENST00000336112.9","ASXL2-201","ENST00000435504.9","ASXL2-203",0.560938307529739,-0.523330504765282
"ENSG00000144231.11","POLR2D",2,"SRC_UP.V1_UP",1.21386473183477,FALSE,0,0,2,"ENST00000272645.9","POLR2D-201","ENST00000409955.1","POLR2D-203",0.648426691346403,-0.565438040488367
"ENSG00000147403.18","RPL10",2,"PID_MTOR_4PATHWAY",1.14129126739716,FALSE,0,0,0,"ENST00000436473.5","RPL10-206","ENST00000406022.6","RPL10-203",0.582733497037391,-0.558557770359768
"ENSG00000147853.17","AK3",2,"PID_ECADHERIN_NASCENT_AJ_PATHWAY",1.08389084307856,FALSE,0,2,0,"ENST00000381809.8","AK3-202","ENST00000611749.4","AK3-204",0.555006895943256,-0.528883947135307
"ENSG00000149196.17","HIKESHI",2,"JAK2_DN.V1_DN",1.25736976968972,FALSE,2,0,0,"ENST00000533986.5","HIKESHI-207","ENST00000278483.8","HIKESHI-201",0.698461916256133,-0.558907853433584
"ENSG00000151498.12","ACAD8",2,"PID_PS1_PATHWAY",1.10696087590462,FALSE,0,0,0,"ENST00000281182.9","ACAD8-201","ENST00000374752.6","ACAD8-202",0.545488088371493,-0.56147278753313
"ENSG00000152223.15","EPG5",2,"TBK1.DF_DN",1.14536734387766,FALSE,2,2,0,"ENST00000282041.11","EPG5-201","ENST00000590854.5","EPG5-208",0.537775922223519,-0.607591421654144
"ENSG00000155111.15","CDK19",2,"TBK1.DF_DN",1.15105715267067,FALSE,0,2,0,"ENST00000323817.7","CDK19-201","ENST00000413605.6","CDK19-203",0.535381739570417,-0.615675413100255
"ENSG00000155287.11","SLC25A28",2,"STK33_DN",1.11441142387223,FALSE,2,2,0,"ENST00000370495.6","SLC25A28-201","ENST00000434701.5","SLC25A28-202",0.597997973977701,-0.516413449894531
"ENSG00000155636.15","RBM45",2,"LTE2_UP.V1_UP",1.13281274674563,FALSE,2,0,0,"ENST00000286070.10","RBM45-201","ENST00000455903.6","RBM45-204",0.611127268952073,-0.521685477793555
"ENSG00000156709.15","AIFM1",2,"TBK1.DF_DN",1.12828432805933,FALSE,1,2,1,"ENST00000287295.8","AIFM1-201","ENST00000346424.6","AIFM1-203",0.521171257608395,-0.607113070450935
"ENSG00000157514.18","TSC22D3",2,"PID_MTOR_4PATHWAY",1.10798375102511,FALSE,0,2,0,"ENST00000372397.6","TSC22D3-206","ENST00000688924.1","TSC22D3-218",0.539958606260787,-0.568025144764318
"ENSG00000160229.13","ZNF66",2,"HALLMARK_MITOTIC_SPINDLE",1.15594291160509,FALSE,0,2,0,"ENST00000344519.10","ZNF66-201","ENST00000594534.5","ZNF66-203",0.604058180002979,-0.551884731602112
"ENSG00000160917.15","CPSF4",2,"BCAT_BILD_ET_AL_UP",1.07950973572165,FALSE,0,0,0,"ENST00000436336.6","CPSF4-204","ENST00000292476.10","CPSF4-201",0.555675226746109,-0.523834508975539
"ENSG00000163378.14","EOGT",2,"TBK1.DF_DN",1.19813795174685,FALSE,1,2,1,"ENST00000383701.8","EOGT-202","ENST00000615922.1","EOGT-210",0.627331467809981,-0.570806483936871
"ENSG00000163697.17","APBB2",2,"TBK1.DF_DN",1.14188554076528,FALSE,2,2,1,"ENST00000508593.6","APBB2-214","ENST00000543538.5","APBB2-230",0.532008107784533,-0.609877432980744
"ENSG00000163714.18","U2SURP",2,"RAPA_EARLY_UP.V1_DN",1.06376851028927,FALSE,0,0,0,"ENST00000473835.7","U2SURP-208","ENST00000493598.6","U2SURP-214",0.531642782283818,-0.532125728005451
"ENSG00000163882.10","POLR2H",2,"PID_RHOA_REG_PATHWAY",1.15000497557975,FALSE,2,0,1,"ENST00000456318.6","POLR2H-208","ENST00000452961.5","POLR2H-206",0.590143728082384,-0.559861247497366
"ENSG00000166024.14","R3HCC1L",2,"SRC_UP.V1_UP",1.17291760648652,FALSE,0,0,2,"ENST00000613938.4","R3HCC1L-206","ENST00000298999.8","R3HCC1L-201",0.598302013335111,-0.574615593151406
"ENSG00000166526.18","ZNF3",2,"TBK1.DF_DN",1.13192201182825,FALSE,0,2,2,"ENST00000299667.9","ZNF3-202","ENST00000412947.6","ZNF3-204",0.587975419927937,-0.543946591900309
"ENSG00000166704.13","ZNF606",2,"PID_PS1_PATHWAY",1.08259816387237,FALSE,0,0,0,"ENST00000551380.7","ZNF606-207","ENST00000547828.5","ZNF606-204",0.535535933824002,-0.54706223004837
"ENSG00000166881.10","NEMP1",2,"TBK1.DF_DN",1.22159880451788,FALSE,2,2,1,"ENST00000300128.9","NEMP1-201","ENST00000379391.7","NEMP1-202",0.61677119432536,-0.604827610192518
"ENSG00000166949.17","SMAD3",2,"SRC_UP.V1_UP",1.13256563596334,FALSE,0,0,2,"ENST00000679624.1","SMAD3-216","ENST00000327367.9","SMAD3-201",0.556632656232411,-0.575932979730929
"ENSG00000167193.8","CRK",2,"PID_ERBB1_INTERNALIZATION_PATHWAY",1.03831012809904,FALSE,0,2,0,"ENST00000300574.3","CRK-201","ENST00000398970.5","CRK-202",0.52372106566136,-0.514589062437678
"ENSG00000167306.20","MYO5B",2,"TBK1.DF_DN",1.14171664147117,FALSE,1,2,1,"ENST00000285039.12","MYO5B-201","ENST00000592688.1","MYO5B-207",0.514632798929405,-0.627083842541767
"ENSG00000168067.12","MAP4K2",2,"PID_CERAMIDE_PATHWAY",1.05808543376571,FALSE,1,0,0,"ENST00000377350.7","MAP4K2-202","ENST00000294066.7","MAP4K2-201",0.515376349573386,-0.542709084192329
"ENSG00000169116.11","PARM1",2,"HALLMARK_MITOTIC_SPINDLE",1.06538385250497,FALSE,1,2,0,"ENST00000307428.7","PARM1-201","ENST00000513238.5","PARM1-202",0.535525798865702,-0.52985805363927
"ENSG00000170776.22","AKAP13",2,"SRC_UP.V1_UP",1.11551964716615,FALSE,0,2,2,"ENST00000394510.6","AKAP13-202","ENST00000394518.7","AKAP13-203",0.564976563338104,-0.550543083828042
"ENSG00000173409.14","ARV1",2,"PID_SMAD2_3PATHWAY",1.10984627719389,FALSE,0,2,1,"ENST00000310256.7","ARV1-201","ENST00000366658.6","ARV1-202",0.594953996617485,-0.514892280576406
"ENSG00000173482.17","PTPRM",2,"BCAT_BILD_ET_AL_DN",1.06180073999837,FALSE,0,2,0,"ENST00000400053.8","PTPRM-202","ENST00000400060.8","PTPRM-203",0.512976453507502,-0.548824286490872
"ENSG00000173875.14","ZNF791",2,"BCAT_BILD_ET_AL_DN",1.04545553494714,FALSE,0,2,0,"ENST00000343325.9","ZNF791-201","ENST00000446165.2","ZNF791-202",0.516343916286852,-0.529111618660285
"ENSG00000176095.12","IP6K1",2,"PID_ERBB1_INTERNALIZATION_PATHWAY",1.06512308352908,FALSE,0,2,0,"ENST00000321599.9","IP6K1-201","ENST00000395238.5","IP6K1-202",0.531946264683772,-0.533176818845309
"ENSG00000181904.9","C5orf24",2,"SRC_UP.V1_UP",1.1575962480829,FALSE,0,0,1,"ENST00000504727.1","C5orf24-204","ENST00000338051.4","C5orf24-201",0.52190861259562,-0.635687635487277
"ENSG00000184432.11","COPB2",2,"PID_MTOR_4PATHWAY",1.11486986511024,FALSE,0,0,0,"ENST00000333188.10","COPB2-201","ENST00000507777.6","COPB2-205",0.610629238322054,-0.504240626788184
"ENSG00000184708.18","EIF4ENIF1",2,"PID_SMAD2_3PATHWAY",1.04381397876176,FALSE,0,2,0,"ENST00000330125.10","EIF4ENIF1-201","ENST00000397523.5","EIF4ENIF1-205",0.523225504328664,-0.520588474433093
"ENSG00000185499.17","MUC1",2,"PID_ERBB1_INTERNALIZATION_PATHWAY",1.15287638569793,FALSE,0,2,0,"ENST00000620103.4","MUC1-225","ENST00000485118.5","MUC1-219",0.566326352804636,-0.586550032893289
"ENSG00000187609.16","EXD3",2,"AKT_UP.V1_DN",1.0331210203041,FALSE,0,0,0,"ENST00000340951.9","EXD3-201","ENST00000465160.2","EXD3-203",0.525604311006781,-0.50751670929732
"ENSG00000196498.13","NCOR2",2,"SRC_UP.V1_UP",1.23229051305787,FALSE,0,2,2,"ENST00000404121.6","NCOR2-202","ENST00000405201.5","NCOR2-204",0.570501275033969,-0.661789238023902
"ENSG00000197226.13","TBC1D9B",2,"PID_ERBB1_INTERNALIZATION_PATHWAY",1.08467485202598,FALSE,0,2,0,"ENST00000355235.8","TBC1D9B-201","ENST00000519746.5","TBC1D9B-208",0.557974789436038,-0.526700062589939
"ENSG00000198836.11","OPA1",2,"TBK1.DF_DN",1.18626105110526,FALSE,0,2,2,"ENST00000361908.8","OPA1-205","ENST00000646544.1","OPA1-230",0.587656088864591,-0.598604962240672
"ENSG00000205352.11","PRR13",2,"PID_MTOR_4PATHWAY",1.14712832954911,FALSE,0,0,1,"ENST00000429243.7","PRR13-202","ENST00000546581.5","PRR13-203",0.504268433515754,-0.642859896033359
"ENSG00000213563.7","C8orf82",2,"TBK1.DF_DN",1.12089577085443,FALSE,0,2,0,"ENST00000524821.6","C8orf82-202","ENST00000313465.5","C8orf82-201",0.551031113231374,-0.569864657623056
"ENSG00000255529.9","POLR2M",2,"BCAT_BILD_ET_AL_DN",1.10384084226177,FALSE,0,2,0,"ENST00000299638.8","POLR2M-201","ENST00000380557.4","POLR2M-202",0.538364543328095,-0.565476298933671
"ENSG00000269713.8","NBPF9",2,"EIF4E_UP",1.23635930879381,FALSE,0,2,0,"ENST00000621074.5","NBPF9-207","ENST00000584027.9","NBPF9-202",0.711582932679638,-0.524776376114167
"ENSG00000278540.5","ACACA",2,"TBK1.DF_DN",1.17340429511254,FALSE,2,2,0,"ENST00000614428.4","ACACA-231","ENST00000619546.4","ACACA-245",0.52655866284553,-0.646845632267011
"ENSG00000288701.1","PRRC2B",2,"SRC_UP.V1_UP",1.22243158368723,FALSE,0,0,2,"ENST00000683161.1","PRRC2B-204","ENST00000682501.1","PRRC2B-201",0.597382533629123,-0.625049050058106
"ENSG00000001617.12","SEMA3F",1,"TBK1.DF_DN",1.14682800749474,FALSE,1,1,0,"ENST00000002829.8","SEMA3F-201","ENST00000413852.5","SEMA3F-202",0.550131541656827,-0.596696465837915
"ENSG00000007255.10","TRAPPC6A",1,"CAMP_UP.V1_UP",1.03565400304074,FALSE,0,0,1,"ENST00000585934.1","TRAPPC6A-202","ENST00000588062.5","TRAPPC6A-204",0.518750347845632,-0.516903655195109
"ENSG00000008853.18","RHOBTB2",1,"pseudotime",1.01443703942067,TRUE,0,0,0,"ENST00000692529.1","RHOBTB2-210","ENST00000522948.5","RHOBTB2-206",0.501127674148734,-0.513309365271936
"ENSG00000011485.15","PPP5C",1,"PID_ERBB1_INTERNALIZATION_PATHWAY",1.01569132184469,FALSE,0,1,0,"ENST00000012443.9","PPP5C-201","ENST00000391919.1","PPP5C-202",0.506824537479693,-0.508866784364993
"ENSG00000013810.21","TACC3",1,"PID_ERBB1_DOWNSTREAM_PATHWAY",1.08992306437282,FALSE,0,0,0,"ENST00000313288.9","TACC3-201","ENST00000612220.5","TACC3-211",0.519557036896022,-0.570366027476798
"ENSG00000017427.17","IGF1",1,"EIF4E_DN",1.02432390716555,FALSE,0,1,0,"ENST00000337514.11","IGF1-202","ENST00000307046.8","IGF1-201",0.509665015870031,-0.514658891295521
"ENSG00000026103.23","FAS",1,"EIF4E_UP",1.29622523956806,FALSE,0,0,0,"ENST00000355740.7","FAS-204","ENST00000690268.1","FAS-224",0.561299587029405,-0.734925652538656
"ENSG00000028528.15","SNX1",1,"PID_LPA4_PATHWAY",1.08995845961406,FALSE,1,1,0,"ENST00000559844.6","SNX1-208","ENST00000560829.5","SNX1-211",0.519289929365693,-0.570668530248368
"ENSG00000043093.15","DCUN1D1",1,"PID_ERBB1_INTERNALIZATION_PATHWAY",1.10023942875737,FALSE,0,1,0,"ENST00000632685.1","DCUN1D1-208","ENST00000292782.9","DCUN1D1-201",0.567317378032957,-0.532922050724412
"ENSG00000049323.16","LTBP1",1,"SRC_UP.V1_UP",1.01100205005462,FALSE,0,1,0,"ENST00000404525.5","LTBP1-202","ENST00000404816.7","LTBP1-203",0.510640738195484,-0.500361311859132
"ENSG00000049656.14","CLPTM1L",1,"PID_MET_PATHWAY",1.03823649659506,FALSE,0,1,0,"ENST00000630539.1","CLPTM1L-216","ENST00000507807.3","CLPTM1L-209",0.511456154150827,-0.526780342444229
"ENSG00000052126.15","PLEKHA5",1,"TBK1.DF_DN",1.1312441753257,FALSE,1,1,0,"ENST00000299275.10","PLEKHA5-201","ENST00000538972.1","PLEKHA5-214",0.604853671994957,-0.526390503330741
"ENSG00000054654.20","SYNE2",1,"EIF4E_UP",1.19354162481461,FALSE,0,0,1,"ENST00000458046.6","SYNE2-206","ENST00000344113.8","SYNE2-202",0.542241441406588,-0.651300183408025
"ENSG00000056972.20","TRAF3IP2",1,"PID_MTOR_4PATHWAY",1.02699398590586,FALSE,0,0,0,"ENST00000392556.8","TRAF3IP2-208","ENST00000368761.11","TRAF3IP2-207",0.506978176309048,-0.520015809596812
"ENSG00000063587.15","ZNF275",1,"EIF4E_UP",1.01738968279882,FALSE,0,0,1,"ENST00000370251.3","ZNF275-202","ENST00000370249.3","ZNF275-201",0.500485816185844,-0.516903866612973
"ENSG00000064932.16","SBNO2",1,"PID_SMAD2_3PATHWAY",1.04286035430896,FALSE,0,1,1,"ENST00000361757.8","SBNO2-201","ENST00000438103.6","SBNO2-202",0.510947433144022,-0.531912921164943
"ENSG00000065717.15","TLE2",1,"PID_MET_PATHWAY",1.00447872487303,FALSE,0,1,0,"ENST00000262953.11","TLE2-201","ENST00000455444.6","TLE2-204",0.503737828417356,-0.500740896455678
"ENSG00000066294.15","CD84",1,"TBK1.DF_DN",1.00802175146565,FALSE,0,1,1,"ENST00000368054.8","CD84-206","ENST00000534968.5","CD84-208",0.500609015326355,-0.507412736139295
"ENSG00000070413.20","DGCR2",1,"PID_ERBB1_INTERNALIZATION_PATHWAY",1.10464505952181,FALSE,0,1,0,"ENST00000263196.12","DGCR2-201","ENST00000537045.5","DGCR2-205",0.555579054964559,-0.549066004557252
"ENSG00000071073.13","MGAT4A",1,"TBK1.DF_DN",1.13201482929693,FALSE,1,1,0,"ENST00000393487.6","MGAT4A-202","ENST00000414521.6","MGAT4A-204",0.514275968976624,-0.617738860320303
"ENSG00000073910.23","FRY",1,"TBK1.DF_DN",1.11313375826097,FALSE,1,1,0,"ENST00000642040.1","FRY-211","ENST00000542859.6","FRY-209",0.566659550315468,-0.546474207945502
"ENSG00000075240.17","GRAMD4",1,"TBK1.DF_DN",1.18806213498684,FALSE,1,1,0,"ENST00000361034.7","GRAMD4-201","ENST00000408031.1","GRAMD4-203",0.5389166642221,-0.649145470764744
"ENSG00000075275.18","CELSR1",1,"TBK1.DF_DN",1.03450521618462,FALSE,1,1,0,"ENST00000674500.2","CELSR1-213","ENST00000473624.2","CELSR1-204",0.528527575401032,-0.505977640783585
"ENSG00000076770.15","MBNL3",1,"TBK1.DF_DN",1.06746185245802,FALSE,1,1,0,"ENST00000370857.7","MBNL3-205","ENST00000394311.6","MBNL3-206",0.539719861111168,-0.527741991346851
"ENSG00000079999.14","KEAP1",1,"PID_ERBB1_INTERNALIZATION_PATHWAY",1.14021978668394,FALSE,0,1,0,"ENST00000171111.10","KEAP1-201","ENST00000592478.5","KEAP1-210",0.528396482813861,-0.611823303870079
"ENSG00000080815.19","PSEN1",1,"BCAT_BILD_ET_AL_DN",1.07475883040418,FALSE,0,1,0,"ENST00000324501.10","PSEN1-201","ENST00000357710.8","PSEN1-202",0.513363134363298,-0.561395696040886
"ENSG00000082258.13","CCNT2",1,"PID_ERBB1_INTERNALIZATION_PATHWAY",1.11928274543509,FALSE,0,1,0,"ENST00000295238.10","CCNT2-202","ENST00000264157.10","CCNT2-201",0.588241723057001,-0.531041022378087
"ENSG00000082438.18","COBLL1",1,"PID_ERBB1_RECEPTOR_PROXIMAL_PATHWAY",1.0513504104882,FALSE,0,1,0,"ENST00000409184.8","COBLL1-203","ENST00000342193.8","COBLL1-201",0.526961403343992,-0.524389007144213
"ENSG00000082701.17","GSK3B",1,"EIF4E_UP",1.17691560516586,FALSE,0,0,0,"ENST00000316626.6","GSK3B-202","ENST00000678439.1","GSK3B-253",0.581436360359968,-0.595479244805896
"ENSG00000085224.23","ATRX",1,"TBK1.DF_DN",1.05008585517082,FALSE,1,1,0,"ENST00000395603.7","ATRX-202","ENST00000675732.1","ATRX-224",0.517510379552451,-0.532575475618365
"ENSG00000085978.22","ATG16L1",1,"PID_ERBB1_RECEPTOR_PROXIMAL_PATHWAY",1.03557871686551,FALSE,1,1,0,"ENST00000392017.9","ATG16L1-203","ENST00000373525.9","ATG16L1-202",0.515615864408522,-0.519962852456983
"ENSG00000087460.29","GNAS",1,"EIF4E_UP",1.05773350512397,FALSE,0,0,0,"ENST00000488546.6","GNAS-246","ENST00000656419.1","GNAS-257",0.526617058613535,-0.531116446510438
"ENSG00000088298.13","EDEM2",1,"PID_MET_PATHWAY",1.01535897985531,FALSE,0,1,0,"ENST00000374492.8","EDEM2-202","ENST00000374491.3","EDEM2-201",0.507679489927654,-0.507679489927654
"ENSG00000090686.16","USP48",1,"BCAT_BILD_ET_AL_DN",1.09474911697127,FALSE,0,1,0,"ENST00000529637.5","USP48-213","ENST00000308271.14","USP48-201",0.572647666693782,-0.522101450277487
"ENSG00000090989.18","EXOC1",1,"TBK1.DF_DN",1.02203167326828,FALSE,1,1,0,"ENST00000381295.7","EXOC1-203","ENST00000349598.6","EXOC1-202",0.513160859652788,-0.508870813615488
"ENSG00000095637.23","SORBS1",1,"TBK1.DF_DN",1.13029868536428,FALSE,1,1,0,"ENST00000371249.6","SORBS1-212","ENST00000649911.1","SORBS1-223",0.529658143658345,-0.600640541705937
"ENSG00000100294.13","MCAT",1,"TBK1.DF_DN",1.10522806861067,FALSE,0,1,0,"ENST00000290429.11","MCAT-201","ENST00000327555.5","MCAT-202",0.556155120117051,-0.549072948493622
"ENSG00000100348.10","TXN2",1,"PID_MTOR_4PATHWAY",1.07505896467924,FALSE,0,0,1,"ENST00000216185.7","TXN2-201","ENST00000416967.1","TXN2-204",0.521281236484314,-0.553777728194925
"ENSG00000100354.21","TNRC6B",1,"HALLMARK_MITOTIC_SPINDLE",1.03160709245559,FALSE,0,1,0,"ENST00000335727.13","TNRC6B-202","ENST00000301923.13","TNRC6B-201",0.517130522069184,-0.514476570386407
"ENSG00000100504.17","PYGL",1,"PID_ERBB1_INTERNALIZATION_PATHWAY",1.0733025806796,FALSE,0,1,0,"ENST00000216392.8","PYGL-201","ENST00000544180.6","PYGL-206",0.552753799824873,-0.520548780854725
"ENSG00000100592.16","DAAM1",1,"PID_ERBB1_INTERNALIZATION_PATHWAY",1.05586357620395,FALSE,0,1,0,"ENST00000360909.8","DAAM1-201","ENST00000395125.1","DAAM1-202",0.519650378626696,-0.536213197577254
"ENSG00000103260.9","METRN",1,"JAK2_DN.V1_DN",1.15428739685325,FALSE,0,0,0,"ENST00000568223.7","METRN-204","ENST00000568415.1","METRN-205",0.613230433339166,-0.541056963514081
"ENSG00000103642.12","LACTB",1,"CAMP_UP.V1_UP",1.03099345963615,FALSE,0,0,1,"ENST00000261893.9","LACTB-201","ENST00000413507.3","LACTB-202",0.519394876801982,-0.511598582834171
"ENSG00000104880.19","ARHGEF18",1,"PID_ECADHERIN_KERATINOCYTE_PATHWAY",1.05023602807356,FALSE,0,1,0,"ENST00000594665.2","ARHGEF18-203","ENST00000319670.14","ARHGEF18-201",0.530431315334289,-0.519804712739272
"ENSG00000104976.12","SNAPC2",1,"LTE2_UP.V1_UP",1.03105919728994,FALSE,1,0,0,"ENST00000597584.5","SNAPC2-206","ENST00000221573.11","SNAPC2-201",0.528411970848642,-0.502647226441299
"ENSG00000105204.14","DYRK1B",1,"TBK1.DF_DN",1.09077053524058,FALSE,1,0,0,"ENST00000430012.6","DYRK1B-203","ENST00000323039.10","DYRK1B-201",0.578874323207611,-0.511896212032967
"ENSG00000106344.8","RBM28",1,"HALLMARK_UNFOLDED_PROTEIN_RESPONSE",1.04507954587907,FALSE,0,0,0,"ENST00000415472.6","RBM28-202","ENST00000223073.6","RBM28-201",0.51229439174852,-0.532785154130554
"ENSG00000106355.10","LSM5",1,"TBK1.DF_DN",1.11791303774107,FALSE,0,1,0,"ENST00000450169.7","LSM5-208","ENST00000409292.5","LSM5-202",0.61268174513548,-0.505231292605595
"ENSG00000106991.14","ENG",1,"PID_MET_PATHWAY",1.06476924334341,FALSE,0,1,0,"ENST00000373203.9","ENG-202","ENST00000480266.5","ENG-204",0.561580434037147,-0.503188809306259
"ENSG00000107281.10","NPDC1",1,"JAK2_DN.V1_DN",1.14271696285836,FALSE,1,1,0,"ENST00000371600.7","NPDC1-201","ENST00000371601.5","NPDC1-202",0.573575762726658,-0.569141200131704
"ENSG00000107949.17","BCCIP",1,"JAK2_DN.V1_DN",1.08467484344676,FALSE,1,0,0,"ENST00000299130.7","BCCIP-202","ENST00000278100.11","BCCIP-201",0.573446105674992,-0.511228737771771
"ENSG00000108039.18","XPNPEP1",1,"PID_ERBB1_INTERNALIZATION_PATHWAY",1.06088228370029,FALSE,0,1,0,"ENST00000502935.6","XPNPEP1-218","ENST00000369683.5","XPNPEP1-203",0.523776256725823,-0.537106026974468
"ENSG00000108950.12","FAM20A",1,"PID_PS1_PATHWAY",1.05288261193177,FALSE,0,0,0,"ENST00000592554.2","FAM20A-205","ENST00000619787.4","FAM20A-207",0.547295257293439,-0.505587354638335
"ENSG00000109771.16","LRP2BP",1,"HALLMARK_PROTEIN_SECRETION",1.14979940360846,FALSE,1,0,0,"ENST00000328559.11","LRP2BP-201","ENST00000510776.5","LRP2BP-203",0.550509653654028,-0.599289749954431
"ENSG00000110841.14","PPFIBP1",1,"PID_ERBB1_INTERNALIZATION_PATHWAY",1.03156424458845,FALSE,0,1,0,"ENST00000228425.11","PPFIBP1-201","ENST00000537927.5","PPFIBP1-207",0.518825493978984,-0.512738750609469
"ENSG00000110931.19","CAMKK2",1,"PID_SMAD2_3PATHWAY",1.02614418275901,FALSE,0,1,0,"ENST00000404169.8","CAMKK2-207","ENST00000545538.5","CAMKK2-216",0.504304482786796,-0.521839699972214
"ENSG00000111639.8","MRPL51",1,"PID_PS1_PATHWAY",1.18971726093102,FALSE,0,1,0,"ENST00000229238.5","MRPL51-201","ENST00000543959.5","MRPL51-207",0.661078533209977,-0.528638727721048
"ENSG00000111665.12","CDCA3",1,"RPS14_DN.V1_DN",1.0673392239946,FALSE,1,0,0,"ENST00000538862.7","CDCA3-207","ENST00000422785.7","CDCA3-202",0.528923199282696,-0.538416024711908
"ENSG00000111671.10","SPSB2",1,"BCAT_BILD_ET_AL_UP",1.05078464004197,FALSE,0,0,0,"ENST00000524270.6","SPSB2-205","ENST00000519357.1","SPSB2-203",0.501420158342784,-0.549364481699183
"ENSG00000111679.17","PTPN6",1,"ESTIMATE.Immune.Score",1.15234295508229,FALSE,0,1,1,"ENST00000318974.14","PTPN6-201","ENST00000399448.5","PTPN6-202",0.566043911478141,-0.586299043604146
"ENSG00000111846.20","GCNT2",1,"HALLMARK_PROTEIN_SECRETION",1.04929417254372,FALSE,0,1,0,"ENST00000379597.7","GCNT2-203","ENST00000265012.5","GCNT2-201",0.527422835869481,-0.52187133667424
"ENSG00000112029.10","FBXO5",1,"HALLMARK_E2F_TARGETS",1.0486521561425,FALSE,0,0,0,"ENST00000229758.8","FBXO5-201","ENST00000367241.3","FBXO5-202",0.521886680426341,-0.526765475716162
"ENSG00000112697.17","TMEM30A",1,"BCAT_BILD_ET_AL_DN",1.08132332689823,FALSE,0,1,0,"ENST00000230461.11","TMEM30A-201","ENST00000673730.1","TMEM30A-205",0.528167076609219,-0.553156250289009
"ENSG00000112699.11","GMDS",1,"HALLMARK_MITOTIC_SPINDLE",1.14993287995649,FALSE,0,1,0,"ENST00000380815.5","GMDS-202","ENST00000530927.5","GMDS-208",0.589193550756359,-0.56073932920013
"ENSG00000114316.13","USP4",1,"SRC_UP.V1_UP",1.04912646331601,FALSE,0,0,1,"ENST00000265560.9","USP4-201","ENST00000351842.8","USP4-202",0.506360447734208,-0.542766015581804
"ENSG00000114812.13","VIPR1",1,"TBK1.DF_DN",1.07284504480244,FALSE,0,1,0,"ENST00000325123.5","VIPR1-201","ENST00000438259.6","VIPR1-204",0.502441127998603,-0.570403916803833
"ENSG00000115109.14","EPB41L5",1,"CSR_EARLY_UP.V1_DN",1.07565802071047,FALSE,0,0,0,"ENST00000263713.10","EPB41L5-201","ENST00000443124.5","EPB41L5-203",0.567549706103359,-0.508108314607109
"ENSG00000116062.18","MSH6",1,"TBK1.DF_DN",1.11875631721458,FALSE,1,1,0,"ENST00000673637.1","MSH6-214","ENST00000540021.6","MSH6-210",0.520611824480315,-0.598144492734268
"ENSG00000116128.12","BCL9",1,"EIF4E_UP",1.17046181227684,FALSE,0,0,0,"ENST00000684121.1","BCL9-204","ENST00000234739.8","BCL9-201",0.653983767552172,-0.51647804472467
"ENSG00000117523.18","PRRC2C",1,"EIF4E_UP",1.04431004525348,FALSE,0,1,0,"ENST00000495585.1","PRRC2C-210","ENST00000367742.7","PRRC2C-202",0.534186418806547,-0.51012362644693
"ENSG00000117620.15","SLC35A3",1,"HALLMARK_ANDROGEN_RESPONSE",1.04944026999421,FALSE,0,0,0,"ENST00000370153.6","SLC35A3-201","ENST00000533028.8","SLC35A3-207",0.505095231366498,-0.544345038627715
"ENSG00000117906.14","RCN2",1,"PID_PS1_PATHWAY",1.11447711237336,FALSE,1,1,0,"ENST00000320963.9","RCN2-201","ENST00000394883.3","RCN2-202",0.591340414368426,-0.523136698004933
"ENSG00000118495.21","PLAGL1",1,"EIF4E_UP",1.11799837695987,FALSE,0,0,0,"ENST00000367572.3","PLAGL1-204","ENST00000360537.6","PLAGL1-202",0.576650321073056,-0.541348055886816
"ENSG00000118564.15","FBXL5",1,"TBK1.DF_DN",1.08673196319007,FALSE,1,1,0,"ENST00000412094.6","FBXL5-202","ENST00000513163.5","FBXL5-211",0.578045869794655,-0.508686093395417
"ENSG00000119392.16","GLE1",1,"PID_MET_PATHWAY",1.08149757288745,FALSE,0,1,0,"ENST00000309971.9","GLE1-201","ENST00000684139.1","GLE1-210",0.573811495880265,-0.507686077007186
"ENSG00000119900.9","OGFRL1",1,"HALLMARK_PROTEIN_SECRETION",1.04977426371118,FALSE,0,1,0,"ENST00000650315.1","OGFRL1-203","ENST00000370435.5","OGFRL1-201",0.526828533031214,-0.522945730679969
"ENSG00000120533.13","ENY2",1,"PID_LPA4_PATHWAY",1.02735233369556,FALSE,0,0,0,"ENST00000521688.6","ENY2-211","ENST00000521662.5","ENY2-210",0.503231744679905,-0.524120589015653
"ENSG00000120868.14","APAF1",1,"SRC_UP.V1_UP",1.05823311052738,FALSE,0,0,0,"ENST00000333991.5","APAF1-201","ENST00000551964.6","APAF1-210",0.505716463144711,-0.552516647382665
"ENSG00000120915.14","EPHX2",1,"PID_ERBB1_DOWNSTREAM_PATHWAY",1.09599885067963,FALSE,0,1,0,"ENST00000380476.7","EPHX2-201","ENST00000517536.5","EPHX2-202",0.529024551878717,-0.566974298800913
"ENSG00000122378.14","PRXL2A",1,"PID_PS1_PATHWAY",1.01453178845201,FALSE,0,0,0,"ENST00000372185.5","PRXL2A-202","ENST00000372187.9","PRXL2A-203",0.501153190760686,-0.513378597691327
"ENSG00000122642.11","FKBP9",1,"PID_CDC42_PATHWAY",1.02940093857257,FALSE,0,1,0,"ENST00000242209.9","FKBP9-201","ENST00000490776.3","FKBP9-212",0.50467612156686,-0.52472481700571
"ENSG00000124067.17","SLC12A4",1,"HALLMARK_PROTEIN_SECRETION",1.02271655145207,FALSE,1,0,0,"ENST00000572037.5","SLC12A4-209","ENST00000316341.8","SLC12A4-201",0.51952516487744,-0.503191386574628
"ENSG00000125170.11","DOK4",1,"SIRNA_EIF4GI_UP",1.09241943599143,FALSE,1,0,0,"ENST00000340099.9","DOK4-201","ENST00000566936.5","DOK4-210",0.587955376561073,-0.504464059430362
"ENSG00000126351.13","THRA",1,"EIF4E_UP",1.02687832492241,FALSE,0,0,0,"ENST00000264637.8","THRA-201","ENST00000450525.7","THRA-203",0.51300845913425,-0.513869865788162
"ENSG00000126391.14","FRMD8",1,"PID_ERBB1_RECEPTOR_PROXIMAL_PATHWAY",1.0317681745631,FALSE,0,1,0,"ENST00000317568.10","FRMD8-201","ENST00000355991.9","FRMD8-202",0.51741744832059,-0.514350726242511
"ENSG00000126953.8","TIMM8A",1,"HALLMARK_OXIDATIVE_PHOSPHORYLATION",1.09572511462832,FALSE,0,0,0,"ENST00000372902.4","TIMM8A-201","ENST00000644112.2","TIMM8A-202",0.5709756442174,-0.524749470410915
"ENSG00000127993.16","RBM48",1,"JAK2_DN.V1_DN",1.30278146639588,FALSE,1,0,0,"ENST00000481551.5","RBM48-202","ENST00000265732.10","RBM48-201",0.633438597876568,-0.669342868519317
"ENSG00000132680.11","KHDC4",1,"JAK2_DN.V1_DN",1.22129377369525,FALSE,1,1,0,"ENST00000368320.7","KHDC4-202","ENST00000368321.8","KHDC4-203",0.580839142006715,-0.640454631688539
"ENSG00000132879.14","FBXO44",1,"JAK2_DN.V1_DN",1.10364644517083,FALSE,1,0,0,"ENST00000251547.10","FBXO44-202","ENST00000376762.8","FBXO44-204",0.510208435366766,-0.593438009804064
"ENSG00000134291.12","TMEM106C",1,"PID_P38_MKK3_6PATHWAY",1.04360096552917,FALSE,0,0,0,"ENST00000256686.10","TMEM106C-201","ENST00000429772.7","TMEM106C-202",0.505217450572081,-0.538383514957091
"ENSG00000134644.16","PUM1",1,"TBK1.DF_DN",1.22871590961679,FALSE,1,1,1,"ENST00000257075.9","PUM1-201","ENST00000424085.6","PUM1-205",0.572915607257503,-0.655800302359291
"ENSG00000134824.14","FADS2",1,"PID_ERBB1_RECEPTOR_PROXIMAL_PATHWAY",1.04831237425801,FALSE,1,1,0,"ENST00000278840.9","FADS2-202","ENST00000257261.10","FADS2-201",0.520856542979668,-0.527455831278341
"ENSG00000135241.17","PNPLA8",1,"TBK1.DF_DN",1.12593664286649,FALSE,1,1,0,"ENST00000436062.5","PNPLA8-206","ENST00000453144.5","PNPLA8-208",0.535943305280019,-0.589993337586475
"ENSG00000135596.18","MICAL1",1,"PID_ERBB1_RECEPTOR_PROXIMAL_PATHWAY",1.08580100869276,FALSE,0,1,0,"ENST00000358807.8","MICAL1-202","ENST00000358577.7","MICAL1-201",0.580315437990709,-0.505485570702053
"ENSG00000135744.9","AGT",1,"ESC_V6.5_UP_LATE.V1_UP",1.08626805610718,FALSE,0,0,1,"ENST00000366667.6","AGT-201","ENST00000680783.1","AGT-209",0.570587810899222,-0.515680245207959
"ENSG00000135916.16","ITM2C",1,"PID_ERBB1_INTERNALIZATION_PATHWAY",1.05038633427195,FALSE,0,1,0,"ENST00000326427.11","ITM2C-202","ENST00000335005.10","ITM2C-203",0.508423608164768,-0.541962726107183
"ENSG00000136237.19","RAPGEF5",1,"TBK1.DF_DN",1.08346529545494,FALSE,1,1,0,"ENST00000344041.10","RAPGEF5-201","ENST00000620335.4","RAPGEF5-212",0.549846904512656,-0.533618390942285
"ENSG00000136270.14","TBRG4",1,"HALLMARK_PROTEIN_SECRETION",1.09700154582838,FALSE,0,1,0,"ENST00000258770.8","TBRG4-201","ENST00000361278.7","TBRG4-202",0.577193584450003,-0.519807961378376
"ENSG00000136504.13","KAT7",1,"HALLMARK_OXIDATIVE_PHOSPHORYLATION",1.07810348754687,FALSE,0,0,1,"ENST00000424009.6","KAT7-202","ENST00000259021.9","KAT7-201",0.565065046163313,-0.513038441383561
"ENSG00000136997.21","MYC",1,"TBK1.DF_DN",1.05035170713197,FALSE,0,1,0,"ENST00000377970.6","MYC-202","ENST00000652288.1","MYC-210",0.529088290931563,-0.521263416200408
"ENSG00000137409.20","MTCH1",1,"HALLMARK_ANDROGEN_RESPONSE",1.21648886116957,FALSE,1,0,0,"ENST00000373616.9","MTCH1-201","ENST00000373627.10","MTCH1-202",0.653902855142033,-0.562586006027536
"ENSG00000138642.16","HERC6",1,"PID_ERBB1_INTERNALIZATION_PATHWAY",1.01273654432164,FALSE,0,1,0,"ENST00000264346.12","HERC6-201","ENST00000380265.9","HERC6-202",0.503801258201436,-0.508935286120202
"ENSG00000139112.11","GABARAPL1",1,"PID_PS1_PATHWAY",1.05355016835677,FALSE,0,1,0,"ENST00000266458.10","GABARAPL1-201","ENST00000539170.5","GABARAPL1-205",0.539251935860136,-0.514298232496631
"ENSG00000139190.17","VAMP1",1,"JAK2_DN.V1_DN",1.14410281800692,FALSE,1,1,0,"ENST00000361716.8","VAMP1-201","ENST00000400911.7","VAMP1-203",0.544715305768967,-0.599387512237957
"ENSG00000139436.22","GIT2",1,"PID_RAS_PATHWAY",1.05994679711386,FALSE,0,0,0,"ENST00000355312.8","GIT2-202","ENST00000361006.9","GIT2-203",0.54563620488406,-0.514310592229803
"ENSG00000140750.17","ARHGAP17",1,"TBK1.DF_DN",1.05622234292009,FALSE,1,1,0,"ENST00000303665.9","ARHGAP17-202","ENST00000571843.1","ARHGAP17-209",0.52962495045498,-0.526597392465112
"ENSG00000140988.16","RPS2",1,"PID_PS1_PATHWAY",1.09499374920827,FALSE,0,1,0,"ENST00000343262.9","RPS2-201","ENST00000533186.5","RPS2-214",0.559712504699454,-0.535281244508816
"ENSG00000141279.17","NPEPPS",1,"TBK1.DF_DN",1.12708307321574,FALSE,1,1,0,"ENST00000530173.6","NPEPPS-215","ENST00000528565.2","NPEPPS-212",0.60519482158265,-0.521888251633091
"ENSG00000141627.14","DYM",1,"HALLMARK_G2M_CHECKPOINT",1.03442199013926,FALSE,0,0,0,"ENST00000442713.6","DYM-203","ENST00000269445.10","DYM-201",0.514170240809938,-0.520251749329325
"ENSG00000141639.12","MAPK4",1,"PID_PS1_PATHWAY",1.0575631003144,FALSE,0,1,0,"ENST00000400384.7","MAPK4-201","ENST00000592595.5","MAPK4-206",0.548237042537554,-0.509326057776841
"ENSG00000141759.15","TXNL4A",1,"EIF4E_UP",1.06576248303224,FALSE,0,1,0,"ENST00000592957.1","TXNL4A-212","ENST00000269601.10","TXNL4A-201",0.500259392764351,-0.565503090267892
"ENSG00000143093.15","STRIP1",1,"HALLMARK_MITOTIC_SPINDLE",1.08974084311484,FALSE,0,1,0,"ENST00000369795.8","STRIP1-201","ENST00000369796.5","STRIP1-202",0.512111164555789,-0.577629678559049
"ENSG00000143363.17","PRUNE1",1,"TBK1.DF_DN",1.13876494504836,FALSE,1,1,0,"ENST00000271620.8","PRUNE1-201","ENST00000368934.1","PRUNE1-202",0.636707190954276,-0.502057754094088
"ENSG00000143373.18","ZNF687",1,"PID_ERBB1_INTERNALIZATION_PATHWAY",1.07159380890196,FALSE,0,1,0,"ENST00000336715.11","ZNF687-202","ENST00000426871.1","ZNF687-203",0.555575489895665,-0.516018319006291
"ENSG00000145901.16","TNIP1",1,"PID_PS1_PATHWAY",1.03675281380966,FALSE,0,1,0,"ENST00000521591.6","TNIP1-211","ENST00000520931.5","TNIP1-208",0.533653508749225,-0.503099305060433
"ENSG00000146416.19","AIG1",1,"JAK2_DN.V1_DN",1.32878281623022,FALSE,1,0,0,"ENST00000646199.1","AIG1-210","ENST00000357847.9","AIG1-202",0.630638700379731,-0.698144115850489
"ENSG00000146950.13","SHROOM2",1,"PID_SMAD2_3PATHWAY",1.06866771213784,FALSE,0,1,0,"ENST00000380913.8","SHROOM2-201","ENST00000418909.6","SHROOM2-202",0.545321509185277,-0.523346202952567
"ENSG00000147010.18","SH3KBP1",1,"TBK1.DF_DN",1.15758176168856,FALSE,1,1,0,"ENST00000379698.8","SH3KBP1-202","ENST00000379716.5","SH3KBP1-203",0.580822282443705,-0.576759479244856
"ENSG00000148219.18","ASTN2",1,"HALLMARK_PROTEIN_SECRETION",1.07447921679289,FALSE,1,1,0,"ENST00000373986.7","ASTN2-207","ENST00000341734.8","ASTN2-203",0.551606554964827,-0.522872661828063
"ENSG00000148384.14","INPP5E",1,"PID_IGF1_PATHWAY",1.05209623764839,FALSE,0,1,0,"ENST00000371712.4","INPP5E-201","ENST00000676019.1","INPP5E-206",0.549462658389604,-0.502633579258781
"ENSG00000149187.19","CELF1",1,"SIRNA_EIF4GI_UP",1.12755882223998,FALSE,0,0,0,"ENST00000310513.10","CELF1-201","ENST00000395290.6","CELF1-204",0.623339913222553,-0.504218909017426
"ENSG00000150093.20","ITGB1",1,"BCAT_BILD_ET_AL_DN",1.09588646921872,FALSE,0,1,0,"ENST00000302278.8","ITGB1-201","ENST00000488427.2","ITGB1-214",0.51963928289987,-0.576247186318855
"ENSG00000152147.11","GEMIN6",1,"PID_LPA4_PATHWAY",1.029551564897,FALSE,0,0,0,"ENST00000281950.8","GEMIN6-201","ENST00000409566.1","GEMIN6-203",0.527129427884191,-0.50242213701281
"ENSG00000152332.16","UHMK1",1,"EIF4E_UP",1.0800531146665,FALSE,0,1,0,"ENST00000545294.5","UHMK1-204","ENST00000489294.2","UHMK1-202",0.561711641504005,-0.518341473162494
"ENSG00000152601.18","MBNL1",1,"BCAT_BILD_ET_AL_DN",1.01494074705828,FALSE,0,1,0,"ENST00000324210.10","MBNL1-204","ENST00000463374.5","MBNL1-211",0.505997286704882,-0.5089434603534
"ENSG00000152942.19","RAD17",1,"TBK1.DF_DN",1.1118730180036,FALSE,0,1,0,"ENST00000354312.7","RAD17-204","ENST00000358030.6","RAD17-206",0.538128631528473,-0.573744386475122
"ENSG00000153214.11","TMEM87B",1,"HALLMARK_MITOTIC_SPINDLE",1.06180590517702,FALSE,0,1,0,"ENST00000283206.9","TMEM87B-201","ENST00000649734.1","TMEM87B-206",0.539559057905364,-0.522246847271654
"ENSG00000154914.17","USP43",1,"PID_ERBB1_RECEPTOR_PROXIMAL_PATHWAY",1.04156800856704,FALSE,0,1,0,"ENST00000574408.5","USP43-205","ENST00000573955.1","USP43-204",0.507353609824892,-0.534214398742152
"ENSG00000155367.16","PPM1J",1,"JAK2_DN.V1_DN",1.05657237597798,FALSE,1,0,0,"ENST00000464951.1","PPM1J-202","ENST00000309276.11","PPM1J-201",0.522709720898393,-0.533862655079585
"ENSG00000155530.3","LRGUK",1,"EIF4E_UP",1.07394158596463,FALSE,0,0,1,"ENST00000285928.2","LRGUK-201","ENST00000645682.1","LRGUK-203",0.534239826985797,-0.539701758978829
"ENSG00000156374.16","PCGF6",1,"TBK1.DF_DN",1.0848493258228,FALSE,0,1,0,"ENST00000369847.4","PCGF6-202","ENST00000337211.8","PCGF6-201",0.566550432865756,-0.51829889295704
"ENSG00000156860.16","FBRS",1,"EIF4E_UP",1.09872993344465,FALSE,0,1,0,"ENST00000287468.5","FBRS-201","ENST00000356166.11","FBRS-202",0.577718944982288,-0.521010988462367
"ENSG00000157617.17","C2CD2",1,"TBK1.DF_DN",1.06542211219024,FALSE,1,1,0,"ENST00000329623.11","C2CD2-201","ENST00000449165.5","C2CD2-203",0.557530388024092,-0.50789172416615
"ENSG00000158717.11","RNF166",1,"TBK1.DF_DN",1.08054326460519,FALSE,1,1,0,"ENST00000312838.9","RNF166-201","ENST00000537718.6","RNF166-202",0.514894936256545,-0.565648328348645
"ENSG00000159423.17","ALDH4A1",1,"PID_ERBB1_INTERNALIZATION_PATHWAY",1.02884622186102,FALSE,0,1,0,"ENST00000375341.8","ALDH4A1-202","ENST00000538839.5","ALDH4A1-206",0.508049806465997,-0.520796415395024
"ENSG00000161010.16","MRNIP",1,"JAK2_DN.V1_DN",1.24070224830894,FALSE,1,1,0,"ENST00000518219.5","MRNIP-204","ENST00000518235.5","MRNIP-205",0.592617734554467,-0.648084513754469
"ENSG00000161558.11","TMEM143",1,"PID_MET_PATHWAY",1.00625538184144,FALSE,0,1,0,"ENST00000293261.8","TMEM143-201","ENST00000377431.6","TMEM143-202",0.502740062490524,-0.503515319350911
"ENSG00000162819.12","BROX",1,"CYCLIN_D1_KE_.V1_UP",1.04908491843569,FALSE,0,0,1,"ENST00000539697.5","BROX-208","ENST00000340934.10","BROX-201",0.518109665595534,-0.530975252840153
"ENSG00000163026.12","WDCP",1,"PID_MTOR_4PATHWAY",1.07448567667771,FALSE,0,0,1,"ENST00000295148.9","WDCP-201","ENST00000406895.3","WDCP-202",0.563280581382758,-0.511205095294947
"ENSG00000163072.16","NOSTRIN",1,"HALLMARK_MITOTIC_SPINDLE",1.19280914733735,FALSE,0,0,1,"ENST00000317647.12","NOSTRIN-201","ENST00000445023.6","NOSTRIN-207",0.585810588105265,-0.606998559232089
"ENSG00000163281.12","GNPDA2",1,"EIF4E_UP",1.24630749218005,FALSE,0,0,0,"ENST00000507917.5","GNPDA2-203","ENST00000509756.1","GNPDA2-204",0.519082956395214,-0.727224535784835
"ENSG00000163399.16","ATP1A1",1,"HALLMARK_MITOTIC_SPINDLE",1.07211513093564,FALSE,0,1,0,"ENST00000295598.10","ATP1A1-201","ENST00000369496.8","ATP1A1-203",0.524704174846348,-0.547410956089296
"ENSG00000163694.15","RBM47",1,"PID_ERBB1_RECEPTOR_PROXIMAL_PATHWAY",1.04254686760393,FALSE,0,1,0,"ENST00000295971.12","RBM47-201","ENST00000381795.10","RBM47-203",0.520089746454491,-0.522457121149441
"ENSG00000163728.11","TTC14",1,"JAK2_DN.V1_DN",1.42463382961027,FALSE,1,1,0,"ENST00000412756.6","TTC14-203","ENST00000296015.9","TTC14-201",0.633660831136452,-0.79097299847382
"ENSG00000164068.16","RNF123",1,"PID_PDGFRB_PATHWAY",1.10713731099011,FALSE,0,1,0,"ENST00000327697.11","RNF123-201","ENST00000433785.1","RNF123-203",0.597688465284723,-0.509448845705383
"ENSG00000164241.14","C5orf63",1,"JAK2_DN.V1_DN",1.07197760499599,FALSE,1,0,0,"ENST00000535381.6","C5orf63-205","ENST00000296662.10","C5orf63-201",0.5046664240871,-0.567311180908886
"ENSG00000164932.13","CTHRC1",1,"CYCLIN_D1_KE_.V1_UP",1.00872648272604,FALSE,0,0,1,"ENST00000330295.10","CTHRC1-201","ENST00000520337.1","CTHRC1-203",0.504481195106046,-0.504245287619997
"ENSG00000164941.14","INTS8",1,"HALLMARK_MITOTIC_SPINDLE",1.13140719212065,FALSE,0,0,0,"ENST00000523731.6","INTS8-217","ENST00000520526.5","INTS8-207",0.575570608087166,-0.555836584033479
"ENSG00000165240.22","ATP7A",1,"TBK1.DF_DN",1.05350399018677,FALSE,1,1,0,"ENST00000341514.11","ATP7A-201","ENST00000685033.1","ATP7A-210",0.524314489559552,-0.529189500627215
"ENSG00000165338.17","HECTD2",1,"TBK1.DF_DN",1.07423073320671,FALSE,1,1,0,"ENST00000298068.10","HECTD2-201","ENST00000371667.1","HECTD2-202",0.552827748576677,-0.521402984630036
"ENSG00000165861.14","ZFYVE1",1,"CAMP_UP.V1_UP",1.07319673234471,FALSE,0,0,1,"ENST00000556143.6","ZFYVE1-208","ENST00000318876.9","ZFYVE1-201",0.553548742931564,-0.519647989413149
"ENSG00000166164.16","BRD7",1,"HALLMARK_PEROXISOME",1.07831797258539,FALSE,1,0,0,"ENST00000394689.2","BRD7-202","ENST00000394688.8","BRD7-201",0.535636777206315,-0.542681195379076
"ENSG00000166337.11","TAF10",1,"JAK2_DN.V1_DN",1.10229783149513,FALSE,1,1,0,"ENST00000299424.9","TAF10-201","ENST00000527248.3","TAF10-202",0.556286529531546,-0.546011301963588
"ENSG00000166689.16","PLEKHA7",1,"PID_ECADHERIN_NASCENT_AJ_PATHWAY",1.0303595881916,FALSE,0,1,0,"ENST00000531066.6","PLEKHA7-211","ENST00000636090.1","PLEKHA7-217",0.505115445428611,-0.52524414276299
"ENSG00000167632.18","TRAPPC9",1,"JAK2_DN.V1_DN",1.06295257439705,FALSE,0,1,0,"ENST00000438773.4","TRAPPC9-201","ENST00000520857.5","TRAPPC9-207",0.504592865581001,-0.558359708816052
"ENSG00000168395.16","ING5",1,"HALLMARK_OXIDATIVE_PHOSPHORYLATION",1.02278200541943,FALSE,1,1,0,"ENST00000636051.1","ING5-213","ENST00000313552.11","ING5-201",0.51446455036983,-0.508317455049603
"ENSG00000168876.9","ANKRD49",1,"JAK2_DN.V1_DN",1.33693806072473,FALSE,1,0,0,"ENST00000544253.1","ANKRD49-208","ENST00000544612.6","ANKRD49-210",0.771439683258302,-0.565498377466429
"ENSG00000168918.14","INPP5D",1,"TBK1.DF_DN",1.00836298750445,FALSE,0,1,0,"ENST00000445964.6","INPP5D-204","ENST00000415617.5","INPP5D-202",0.507919129652308,-0.500443857852146
"ENSG00000169919.17","GUSB",1,"PID_MET_PATHWAY",1.05747661585272,FALSE,0,1,0,"ENST00000304895.9","GUSB-201","ENST00000421103.5","GUSB-202",0.537144329465957,-0.520332286386767
"ENSG00000170088.14","TMEM192",1,"TBK1.DF_DN",1.16455980672596,FALSE,1,1,0,"ENST00000506087.5","TMEM192-203","ENST00000306480.11","TMEM192-201",0.546664009921707,-0.617895796804252
"ENSG00000171385.10","KCND3",1,"SRC_UP.V1_UP",1.02249264136266,FALSE,0,1,0,"ENST00000369697.5","KCND3-203","ENST00000302127.5","KCND3-201",0.508574969859071,-0.513917671503592
"ENSG00000172819.17","RARG",1,"PID_ERBB1_RECEPTOR_PROXIMAL_PATHWAY",1.04506560980915,FALSE,0,1,0,"ENST00000425354.7","RARG-203","ENST00000394426.5","RARG-202",0.517877402321399,-0.527188207487748
"ENSG00000173531.16","MST1",1,"PID_MET_PATHWAY",1.04629050753974,FALSE,0,1,0,"ENST00000449682.3","MST1-202","ENST00000448220.5","MST1-201",0.513325666865883,-0.532964840673858
"ENSG00000173928.4","SWSAP1",1,"EIF4E_UP",1.02994828783214,FALSE,0,1,0,"ENST00000674460.1","SWSAP1-202","ENST00000312423.4","SWSAP1-201",0.516399673240254,-0.513548614591886
"ENSG00000174428.19","GTF2IRD2B",1,"STK33_DN",1.04177990258903,FALSE,0,0,0,"ENST00000472837.7","GTF2IRD2B-203","ENST00000651028.1","GTF2IRD2B-209",0.539395892117476,-0.502384010471553
"ENSG00000176024.18","ZNF613",1,"TBK1.DF_DN",1.19604593492446,FALSE,1,1,1,"ENST00000293471.11","ZNF613-201","ENST00000391794.8","ZNF613-202",0.605362623544177,-0.590683311380285
"ENSG00000176473.14","WDR25",1,"PID_ERBB1_RECEPTOR_PROXIMAL_PATHWAY",1.10002267330007,FALSE,0,1,0,"ENST00000402312.8","WDR25-202","ENST00000542471.2","WDR25-203",0.519804980197373,-0.5802176931027
"ENSG00000176809.11","LRRC37A3",1,"EIF4E_UP",1.09245384012301,FALSE,0,0,0,"ENST00000339474.9","LRRC37A3-203","ENST00000319651.9","LRRC37A3-201",0.512210066851785,-0.580243773271221
"ENSG00000178537.10","SLC25A20",1,"PID_MTOR_4PATHWAY",1.15242616226225,FALSE,0,0,1,"ENST00000319017.5","SLC25A20-201","ENST00000430379.5","SLC25A20-202",0.610651585266471,-0.541774576995782
"ENSG00000179950.14","PUF60",1,"PID_PS1_PATHWAY",1.05670519023484,FALSE,0,0,0,"ENST00000349157.10","PUF60-202","ENST00000456095.6","PUF60-204",0.513590764751924,-0.543114425482916
"ENSG00000180694.14","TMEM64",1,"HALLMARK_MITOTIC_SPINDLE",1.09687652924636,FALSE,0,1,0,"ENST00000458549.7","TMEM64-203","ENST00000418210.2","TMEM64-201",0.529256398446347,-0.567620130800016
"ENSG00000182606.17","TRAK1",1,"HALLMARK_PROTEIN_SECRETION",1.03796895512097,FALSE,1,0,0,"ENST00000341421.7","TRAK1-202","ENST00000396175.5","TRAK1-203",0.516747175355299,-0.521221779765667
"ENSG00000183723.13","CMTM4",1,"EIF4E_UP",1.19596203999579,FALSE,0,1,0,"ENST00000330687.8","CMTM4-201","ENST00000394106.7","CMTM4-202",0.666610772337077,-0.529351267658717
"ENSG00000183963.19","SMTN",1,"PID_ATR_PATHWAY",1.01031577248679,FALSE,0,0,0,"ENST00000333137.12","SMTN-201","ENST00000347557.6","SMTN-202",0.508574975012316,-0.501740797474475
"ENSG00000185504.17","FAAP100",1,"HALLMARK_PROTEIN_SECRETION",1.17063869311634,FALSE,1,1,0,"ENST00000327787.13","FAAP100-201","ENST00000425898.2","FAAP100-202",0.54785512742514,-0.622783565691197
"ENSG00000185551.15","NR2F2",1,"PID_CDC42_REG_PATHWAY",1.07732523803995,FALSE,0,1,0,"ENST00000394166.8","NR2F2-201","ENST00000394171.6","NR2F2-202",0.538290941768841,-0.539034296271111
"ENSG00000185963.14","BICD2",1,"PID_P53_REGULATION_PATHWAY",1.0139335832003,FALSE,0,1,0,"ENST00000356884.11","BICD2-201","ENST00000375512.3","BICD2-202",0.506966791600149,-0.506966791600149
"ENSG00000186448.15","ZNF197",1,"BCAT_BILD_ET_AL_DN",1.140714686297,FALSE,0,1,0,"ENST00000344387.9","ZNF197-202","ENST00000383745.6","ZNF197-204",0.532693352669443,-0.608021333627561
"ENSG00000186522.15","SEPTIN10",1,"PID_P38_MKK3_6PATHWAY",1.09884659966598,FALSE,0,0,0,"ENST00000397714.6","SEPTIN10-203","ENST00000397712.7","SEPTIN10-202",0.585931532863774,-0.512915066802202
"ENSG00000186638.17","KIF24",1,"TBK1.DF_DN",1.02852764442675,FALSE,0,1,1,"ENST00000402558.7","KIF24-202","ENST00000379174.7","KIF24-201",0.520390429185351,-0.508137215241396
"ENSG00000186866.17","POFUT2",1,"JAK2_DN.V1_DN",1.20537652634831,FALSE,1,1,0,"ENST00000331343.11","POFUT2-201","ENST00000349485.10","POFUT2-203",0.607306608693408,-0.598069917654905
"ENSG00000196123.13","KIAA0895L",1,"PID_MTOR_4PATHWAY",1.09899132251065,FALSE,0,0,1,"ENST00000561621.5","KIAA0895L-202","ENST00000568563.5","KIAA0895L-211",0.550147956618158,-0.548843365892497
"ENSG00000196189.14","SEMA4A",1,"TBK1.DF_DN",1.12133636999091,FALSE,0,1,0,"ENST00000368285.8","SEMA4A-204","ENST00000368284.5","SEMA4A-203",0.50530369825033,-0.616032671740579
"ENSG00000196417.13","ZNF765",1,"TBK1.DF_DN",1.030594141154,FALSE,1,0,1,"ENST00000396408.8","ZNF765-201","ENST00000594030.2","ZNF765-206",0.511671921926226,-0.518922219227778
"ENSG00000196418.13","ZNF124",1,"TBK1.DF_DN",1.14022095695882,FALSE,0,0,1,"ENST00000340684.10","ZNF124-201","ENST00000472531.5","ZNF124-202",0.620102834482545,-0.520118122476272
"ENSG00000196497.17","IPO4",1,"PID_SMAD2_3PATHWAY",1.13657359709705,FALSE,0,1,0,"ENST00000354464.11","IPO4-201","ENST00000561462.5","IPO4-220",0.507853613018617,-0.62871998407843
"ENSG00000197757.8","HOXC6",1,"TBK1.DF_DN",1.03935161877875,FALSE,0,1,1,"ENST00000394331.3","HOXC6-202","ENST00000243108.5","HOXC6-201",0.518953650821775,-0.520397967956977
"ENSG00000197822.12","OCLN",1,"TBK1.DF_DN",1.07752788847455,FALSE,1,1,0,"ENST00000396442.7","OCLN-202","ENST00000538151.2","OCLN-205",0.500317210908888,-0.577210677565666
"ENSG00000198901.14","PRC1",1,"HALLMARK_PROTEIN_SECRETION",1.14403411863862,FALSE,1,1,0,"ENST00000394249.8","PRC1-202","ENST00000556972.6","PRC1-210",0.550678017155607,-0.593356101483017
"ENSG00000198912.12","C1orf174",1,"HALLMARK_PROTEIN_SECRETION",1.13462344186605,FALSE,0,0,0,"ENST00000361605.4","C1orf174-201","ENST00000680169.1","C1orf174-208",0.611492579178133,-0.523130862687919
"ENSG00000204217.16","BMPR2",1,"HALLMARK_MITOTIC_SPINDLE",1.02111404839814,FALSE,0,1,0,"ENST00000374580.10","BMPR2-202","ENST00000374574.2","BMPR2-201",0.513375532575825,-0.507738515822311
"ENSG00000204580.14","DDR1",1,"PID_MET_PATHWAY",1.02525011499106,FALSE,0,1,0,"ENST00000452441.5","DDR1-239","ENST00000446312.5","DDR1-238",0.524962515505847,-0.500287599485218
"ENSG00000204713.11","TRIM27",1,"HALLMARK_PROTEIN_SECRETION",1.07226839409275,FALSE,1,1,0,"ENST00000377199.4","TRIM27-202","ENST00000414543.5","TRIM27-203",0.55931858169181,-0.512949812400939
"ENSG00000205090.9","TMEM240",1,"MEL18_DN.V1_DN",1.01528842693496,FALSE,0,0,0,"ENST00000425828.1","TMEM240-202","ENST00000624426.1","TMEM240-203",0.501095865887338,-0.514192561047627
"ENSG00000205213.14","LGR4",1,"TBK1.DF_DN",1.02909664050539,FALSE,0,1,0,"ENST00000379214.9","LGR4-201","ENST00000389858.4","LGR4-202",0.519778679753033,-0.509317960752356
"ENSG00000205937.12","RNPS1",1,"TBK1.DF_DN",1.14823379011244,FALSE,0,1,0,"ENST00000320225.10","RNPS1-202","ENST00000566397.5","RNPS1-219",0.586789979552573,-0.56144381055987
"ENSG00000206053.13","JPT2",1,"VEGF_A_UP.V1_DN",1.07273925538973,FALSE,1,1,0,"ENST00000562684.5","JPT2-206","ENST00000248098.8","JPT2-201",0.533222714557557,-0.539516540832177
"ENSG00000214087.9","ARL16",1,"PID_PI3KCI_AKT_PATHWAY",1.01232504858834,FALSE,0,1,0,"ENST00000622299.5","ARL16-213","ENST00000573392.5","ARL16-206",0.510540355061973,-0.501784693526366
"ENSG00000227500.10","SCAMP4",1,"PID_ERBB1_INTERNALIZATION_PATHWAY",1.03396685758277,FALSE,0,1,0,"ENST00000316097.13","SCAMP4-201","ENST00000409472.5","SCAMP4-202",0.53384361948989,-0.500123238092876
"ENSG00000233822.6","H2BC15",1,"AKT_UP_MTOR_DN.V1_DN",1.01601191403741,FALSE,0,0,0,"ENST00000606613.1","H2BC15-202","ENST00000612898.2","H2BC15-203",0.505904074523228,-0.510107839514182
"ENSG00000240184.7","PCDHGC3",1,"PID_SMAD2_3PATHWAY",1.09537825559597,FALSE,1,1,0,"ENST00000308177.5","PCDHGC3-201","ENST00000617641.4","PCDHGC3-205",0.535743856718346,-0.559634398877628
"ENSG00000244462.8","RBM12",1,"SRC_UP.V1_UP",1.22408068154932,FALSE,0,1,0,"ENST00000374114.8","RBM12-203","ENST00000424458.5","RBM12-204",0.504349635819976,-0.719731045729344
"ENSG00000257591.6","ZNF625",1,"TBK1.DF_DN",1.1454690322586,FALSE,0,1,1,"ENST00000439556.3","ZNF625-202","ENST00000414892.5","ZNF625-201",0.559846375135346,-0.585622657123258
"ENSG00000266338.7","NBPF15",1,"PID_P75_NTR_PATHWAY",1.02672941988138,FALSE,0,0,0,"ENST00000614785.5","NBPF15-207","ENST00000581897.7","NBPF15-205",0.524797408265146,-0.501932011616239
"ENSG00000270629.7","NBPF14",1,"EIF4E_UP",1.08683350932872,FALSE,0,0,1,"ENST00000614999.4","NBPF14-203","ENST00000619423.4","NBPF14-205",0.523368581899422,-0.563464927429301
